USGS_eventID,magnitude,depth(km),source_lat,source_lon,station_name,elev(m),station_lat,station_lon,rdist(km),rake_angle,fault_type,Ia,CAV,CAV5,CAVstd,Vs30,PGA,PGV
