USGS_eventID,magnitude,depth(km),source_lat,source_lon,station_name,elev(m),station_lat,station_lon,rdist(km),rake_angle,fault_type,Ia_geom,Ia_arith,Ia_max,CAV_geom,CAV_arith,CAV_max,CAV5_geom,CAV5_arith,CAV5_max,CAVstd_geom,CAVstd_arith,CAVstd_max, Vs30,PGA,PGV
usp000a1b0,6.7,10.0,35.455999999999996,133.134,OSK001,,34.9707,135.39,212.34351976533958,,,0.018503467958118646,0.01851322873596325,0.019114320869476845,128.3777307237451,128.49757066754728,134.0458966928365,37.68379923423775,37.720031141132885,39.37291485201414,73.23743122813988,73.60286052026669,80.92814166636029,,,
usp000a1b0,6.7,10.0,35.455999999999996,133.134,OSK002,,34.8573,135.5958,233.92407992186853,,,0.02022736524673081,0.02024230294210732,0.021019814083759462,182.13205621214226,182.15817806955613,185.2429694007779,43.75408645550494,43.810221749460545,46.027302754093895,36.0127747428576,36.0438719153824,37.54078806957728,,,
usp000a1b0,6.7,10.0,35.455999999999996,133.134,OSK003,,34.7668,135.4683,226.11683823037689,,,0.03391868862959592,0.03404483882628958,0.03697291197369485,318.6509465231918,319.06136774363137,335.23945991516695,79.52673609895328,80.36345674296808,91.92993525314327,31.24612933615735,31.33543909287453,33.69957628250122,,,
usp000a1b0,6.7,10.0,35.455999999999996,133.134,OSK004,,34.7405,135.6394,241.8291017039283,,,0.01538992153348605,0.015452642040347696,0.016843491140812353,196.3134250759187,196.6139735299993,207.48106707965422,41.80359779551617,42.519383442101116,50.28837177052189,37.78119457626849,37.999933080012056,42.07132724854125,,,
usp000a1b0,6.7,10.0,35.455999999999996,133.134,OSK007,,34.5577,135.6058,246.6459423210596,,,0.002729994319163753,0.002736047645809861,0.0029179479962089822,94.44070246346756,94.46771649402235,96.72673791972255,1.6507239291933993,1.6624910867575435,1.8599426583810281,31.95274827348905,32.044718516279346,34.47079818492586,,,
usp000a1b0,6.7,10.0,35.455999999999996,133.134,OSK008,,34.4438,135.3874,234.46299976984355,,,0.012052433688744242,0.01218435177013787,0.013972442997364463,214.75915015520147,215.4027998957735,232.0423199475744,26.51851783685625,26.98398818608865,31.97436193595036,24.070853765927893,24.204962508195162,26.749409206880113,,,
usp000a1b0,6.7,10.0,35.455999999999996,133.134,OSK010,,34.3755,135.2549,227.87586321615856,,,0.011838790976868357,0.01217272995023894,0.015004404834024944,135.62857772043048,136.67457014923178,153.5513894885039,28.2838989733673,28.792346739375,34.179395061485195,21.94160154369834,22.0069265038514,23.701310121421976,,,
usp000a1b0,6.7,10.0,35.455999999999996,133.134,SIG002,,35.4215,136.0243,262.45262764261537,,,0.001703860623686893,0.001755590067244705,0.0021786213418067413,58.779973974497786,59.253330559991284,66.72807751282924,1.0829922218345531,1.740207081782718,3.1023555813717247,16.024235707195256,16.129960247298243,17.973730184050158,,,
usp000a1b0,6.7,10.0,35.455999999999996,133.134,SIG005,,35.2493,136.2421,283.4273914521397,,,0.002308635360833524,0.002309022155315026,0.002351284247604843,62.983774453876045,62.98768249283285,63.689324396650456,3.661223026345144,3.843972714791692,5.0151141167680375,24.789715621845,24.809151647239922,25.790989130636053,,,
usp000a1b0,6.7,10.0,35.455999999999996,133.134,SIG006,,35.2001,135.921,254.97725949841941,,,0.0018415202429735871,0.0018706297818118613,0.002199353032160836,54.20210340053868,54.33604076649944,58.14882362630173,3.5121590674164995,3.652906356338692,4.657129206777619,10.970687168002915,11.036750427965355,12.242521165298815,,,
usp000a1b0,6.7,10.0,35.455999999999996,133.134,SIG008,,35.0701,136.2946,290.7549324788858,,,0.004373937959144907,0.004375099079133834,0.004475889365317613,97.53202428958411,97.53368243575107,98.1024068452063,7.52437574442536,7.54066859663479,8.036100267985528,22.61307465275568,22.721353594320163,24.936926636904012,,,
usp000a1b0,6.7,10.0,35.455999999999996,133.134,SIG009,,35.0051,136.0854,273.27611634152004,,,0.006284676677841465,0.006293063291736022,0.006617847295022826,92.77490815523585,92.77551730510565,93.11171370233801,14.283462919775396,14.299755212839852,14.982167233939874,21.92948517953616,22.018778549372648,23.99976026731379,,,
usp000a1b0,6.7,10.0,35.455999999999996,133.134,SIG010,,34.9718,135.8965,257.1883649942316,,,0.0044276705153212465,0.004432042047459667,0.004628842754280986,87.96436109281906,88.11308623055588,93.23042368332528,9.367867337610868,9.381983777284603,9.896455488999656,19.80533945080792,19.957533466368915,22.41754795809587,,,
usp000a1b0,6.7,10.0,35.455999999999996,133.134,SIG011,,34.8779,136.0587,274.0454886697848,,,0.002834337323015246,0.002836420864997886,0.0029451188997460954,72.62103647495633,72.63238137779818,73.91608146465178,5.487286848410456,5.4873317433126,5.50952868967345,21.962693968176023,21.991246427008605,23.111511160749373,,,
usp000a1b0,6.7,10.0,35.455999999999996,133.134,SIG012,,34.9043,136.2307,288.6217792160273,,,0.0021101363269582455,0.0021102207177440533,0.0021290928995837464,63.09483547694802,63.10893918045436,64.44308333276659,1.8455493493885928,1.850727497229054,1.9890744089078485,17.86584932532015,17.874180210187653,18.419841342413125,,,
usp000a1b0,6.7,10.0,35.455999999999996,133.134,SMN001,,35.5372,133.1612,9.341033237341904,,,0.579957517467341,0.5799578547010236,0.5805832845791364,777.8531747973665,777.9538935159352,790.4718364084703,302.93260913869244,302.9352324743005,304.1959444488015,484.36210201251197,484.36755972529465,486.66691795264677,,,
usp000a1b0,6.7,10.0,35.455999999999996,133.134,SMN002,,35.4714,133.0682,6.212266662577847,,,0.4965636711891428,0.5027028004831066,0.5810266542488584,804.2049667139345,805.5160073486354,851.4552020251456,316.16206713323515,316.88313775907807,338.2483033816171,532.2042147314586,534.7074620138853,586.3867011278867,,,
usp000a1b0,6.7,10.0,35.455999999999996,133.134,SMN003,,35.1795,133.0929,30.903506601813717,,,1.7514741118009045,1.7750446793335235,2.063353627029368,1288.1953843291485,1288.3357102950056,1307.3502892915042,592.0879050989697,592.1881183638212,603.0821610843371,1114.4848550686645,1114.7612113112664,1139.581889519972,,,
usp000a1b0,6.7,10.0,35.455999999999996,133.134,SMN004,,35.2881,132.9004,28.242335285441285,,,0.3829419466315656,0.3833947970703091,0.4020236974836641,797.4157539148355,797.9770259893901,827.9010867984838,293.0762947827272,293.29544553780886,304.63139762176775,505.3976381920485,505.64587966247535,521.4883204320598,,,
usp000a1b0,6.7,10.0,35.455999999999996,133.134,SMN005,,35.3611,132.7449,36.877752368785295,,,0.22732589139702666,0.22746064457461376,0.23528904995796004,659.4484011151163,659.4489233067518,660.2788131495264,256.54670848199,256.547493966152,257.182338332593,381.4136065865704,381.915468172142,401.48803927997744,,,
usp000a1b0,6.7,10.0,35.455999999999996,133.134,SMN006,,35.1942,132.4978,64.72940370996893,,,0.08763035812561062,0.08805967971072767,0.09674458187098088,331.0668767007025,331.18541702716027,340.04564293262865,115.26387706784828,115.36750958048924,120.2563652842543,173.08398091457374,173.4239551133888,184.27769907269368,,,
usp000a1b0,6.7,10.0,35.455999999999996,133.134,SMN007,,35.0807,132.5914,64.58443208356388,,,0.4144611469662377,0.4247851243531969,0.5178676658268359,742.8441000236404,748.0716502821747,836.3543610242218,318.17268344317745,321.56761445218103,368.17098530702543,523.565230450522,529.6985097817012,610.0723906650262,,,
usp000a1b0,6.7,10.0,35.455999999999996,133.134,SMN008,,34.8523,132.5308,86.6403475315341,,,0.16951057019508806,0.17771194646217842,0.2310758153953085,465.80644453388453,469.523158447677,528.4837601184845,174.42765254215766,176.56925072205377,203.98629522323608,281.80557587341116,287.87579919549137,346.6813530921936,,,
usp000a1b0,6.7,10.0,35.455999999999996,133.134,SMN009,,35.0112,132.2227,96.5217543894167,,,0.13548306239072075,0.13691818576746606,0.1566901203993228,486.4467741954808,487.6619062372379,522.0664214895633,179.89383529476754,180.63105901591285,196.9340496663803,271.0887200639721,273.7605626945996,311.9148749140745,,,
usp000a1b0,6.7,10.0,35.455999999999996,133.134,SMN010,,34.887,132.0783,115.03772987858056,,,0.0038785969188953775,0.0039165390098904905,0.00446038067501855,73.05666396691927,73.18055513556286,77.437020802498,8.148363796537819,8.498560235179763,10.913036060333226,5.002408380367557,5.033308911924603,5.590183223495965,,,
usp000a1b0,6.7,10.0,35.455999999999996,133.134,SMN011,,34.5718,132.0141,141.66850853966542,,,0.0053072063213589465,0.005323555119967132,0.005740448604991649,79.87713656065444,79.94876925003605,83.33237080253467,12.277178920416553,12.277187970506045,12.292094989584275,15.465593281948399,15.808749905253661,19.084722738506414,,,
usp000a1b0,6.7,10.0,35.455999999999996,133.134,SMN012,,34.3529,131.9352,164.2531725010766,,,0.007667343433127847,0.00770590677637191,0.00847587036291727,95.15805275090072,95.16533514471571,96.34262434574647,18.59858089858547,18.7388284472858,21.027164116626974,16.549576327796398,16.561258948149806,17.183208558739732,,,
usp000a1b0,6.7,10.0,35.455999999999996,133.134,SMN013,,34.669000000000004,131.8458,146.39200352341268,,,0.006803776429021001,0.00686865812804196,0.007810513097671112,85.93801247360176,86.02194353312007,89.8209935857468,15.705771381712722,16.00368514361506,19.077230894265124,14.827948412749471,14.832318085782669,15.192325956080143,,,
usp000a1b0,6.7,10.0,35.455999999999996,133.134,SMN014,,34.4668,131.7752,165.6593522776601,,,0.01943869402198347,0.019451737987333184,0.020163977727564533,139.75070441868777,139.98347628630552,148.0528162642232,36.70768561028103,36.739487594705366,38.26780884963708,59.08249975839457,59.08973261544375,60.0142448457276,,,
usp000a1b0,6.7,10.0,35.455999999999996,133.134,SMN015,,35.3644,133.1704,10.687120402658651,,,0.3668230503130861,0.36715944110843896,0.3828726506489624,608.1460277553878,608.1509591399424,610.6000463525837,216.42454276493683,216.42745936997696,217.55105108011296,342.55101464518236,342.57337193628615,346.4871329602988,,,
usp000a1b0,6.7,10.0,35.455999999999996,133.134,SMN016,,35.1957,132.8146,40.956275951964884,,,0.42077541534938623,0.4214901637656661,0.4460260148566602,900.863167071152,902.5569889640706,957.8260810718933,346.88410735403716,347.6280453209363,370.35850855527605,590.9278401548229,592.7584107905725,639.3075385259148,,,
usp000a1b0,6.7,10.0,35.455999999999996,133.134,SMN017,,36.0933,132.984,72.00046096908497,,,0.02508151706728249,0.02518062571688948,0.027412533666983426,196.69432824114395,196.9653316507816,207.29408327270968,53.42656058612532,53.613620271401956,58.08831607594146,45.6190994141233,46.9760716357151,58.185401453691384,,,
usp000a1b0,6.7,10.0,35.455999999999996,133.134,SMN018,,36.1925,133.2331,82.20808734397828,,,0.07189948630866029,0.07350446284322817,0.08878091290278985,324.850587167062,325.55334713170305,346.9327261187136,109.08176073560423,109.71597174135971,121.49578201025723,141.7328852870896,144.12086056941192,170.24769886769354,,,
usp000a1b0,6.7,10.0,35.455999999999996,133.134,SMN019,,36.2932,133.3561,95.03348164072577,,,0.017618219816220238,0.017708704326348523,0.01949659118668941,148.68562000370574,148.80877248649838,154.8616373496897,36.65123216909881,36.69445430380957,38.47494781438036,34.16853090109562,34.17692255382778,34.93424105433857,,,
usp000a1b0,6.7,10.0,35.455999999999996,133.134,TKS001,,34.203,134.6098,193.76714066401328,,,0.06370948099264312,0.06432087864380992,0.07316833371065079,245.2301011817079,245.2806290241241,250.2590272483828,86.29417477208473,86.31155334253401,88.04350045661998,148.20681091709528,149.97523765215877,172.93853677501676,,,
usp000a1b0,6.7,10.0,35.455999999999996,133.134,TKS002,,34.0438,134.582,205.23202381003784,,,0.01041564234110807,0.010926835627598013,0.014229884439629413,139.28716648362476,140.66895561408606,160.33721243874427,21.83887071282966,23.31087735951448,31.46322237543695,163.30802205738647,164.3588071396872,182.9143296622429,,,
usp000a1b0,6.7,10.0,35.455999999999996,133.134,TKS004,,33.7749,134.5914,229.43626981661342,,,0.006416912547755679,0.00657121008347308,0.007986849626433791,79.5847286052703,79.96042340523151,87.70253448486423,16.355295878885194,16.591537903887875,19.381417243620888,45.763350178767936,46.418892814281605,54.19252713287579,,,
usp000a1b0,6.7,10.0,35.455999999999996,133.134,TKS005,,33.8788,134.3889,209.38068220548084,,,0.0028364222195511784,0.0028476803563453725,0.003100647556495265,51.96591704208844,51.983727253685366,53.344376054932155,7.170872602993264,7.230820403079027,8.159986595546513,13.466122853359124,13.470516021061346,13.81451772441383,,,
usp000a1b0,6.7,10.0,35.455999999999996,133.134,TKS007,,34.0905,134.285,184.51829163080205,,,0.03093239927399968,0.030985178562853974,0.03279293012925075,248.86830611057545,248.88956910247228,252.14284770524344,72.79130167324095,72.99150024705943,78.3938616781102,46.69726559436719,47.10210309135382,53.2643674185027,,,
usp000a1b0,6.7,10.0,35.455999999999996,133.134,TKS008,,33.9344,134.21200000000002,195.5695851829421,,,0.011828003521917,0.012179604056170721,0.015084959051796763,111.64895078674357,112.39717722309736,125.34465713000091,28.969180092716176,29.810092764942457,36.84061446750848,38.068224258271435,39.725084832586155,51.07817545928875,,,
usp000a1b0,6.7,10.0,35.455999999999996,133.134,TKS010,,34.038000000000004,134.0614,178.76263744444577,,,0.017211971826557,0.01826508040934579,0.024377460322413644,142.98952185079844,143.78014610755292,158.83760457800216,38.46543775384412,39.36455633745491,47.7298653006555,51.628643685005436,58.77456242577369,86.86250182310074,,,
usp000a1b0,6.7,10.0,35.455999999999996,133.134,TKS011,,33.8746,133.9218,189.7090892145481,,,0.0011141664617260883,0.001128925748221192,0.001310877501610785,34.93924208610097,35.00486752055275,37.147322322941704,1.9873363951167249,1.9961235634419108,2.1832153408467274,17.885032443234962,17.905190617547323,18.754581902608148,,,
usp000a1b0,6.7,10.0,35.455999999999996,133.134,TKS012,,34.0319,133.809,169.64367910478163,,,0.01626435157286164,0.01788023351781033,0.025308128143192485,128.63422073934308,129.82175497267394,147.34103917514454,32.58375407139081,34.330452572798464,45.141509157068434,34.123755508914634,38.98216312332313,57.828339174214534,,,
usp000a1b0,6.7,10.0,35.455999999999996,133.134,TTR001,,35.3415,134.3975,115.48029384366957,,,0.012480282977867487,0.01248639588316165,0.012877060628675257,125.36929006668,125.36931297928132,125.44510924339315,30.659694284118036,30.660107485155358,30.819284762739983,29.751662424697226,33.23745194062589,48.055238363444786,,,
usp000a1b0,6.7,10.0,35.455999999999996,133.134,TTR002,,35.4853,134.2198,98.60289876586604,,,0.06671885141861239,0.06997023155798042,0.0910516966317964,349.1551102210111,352.0605001683998,397.1970129421779,113.8455248630761,115.86431124190182,137.39882048198015,154.09381678139263,158.8732113310269,197.5486933367593,,,
usp000a1b0,6.7,10.0,35.455999999999996,133.134,TTR003,,35.3432,134.2075,98.31829535162287,,,0.11293734688954765,0.11673312356083596,0.14625900735487973,404.60655756207717,406.87307983538886,449.7594025094108,150.5084098842686,151.95157856113562,172.84417967564445,225.0737541494244,229.71848126529758,275.67917999714166,,,
usp000a1b0,6.7,10.0,35.455999999999996,133.134,TTR004,,35.4631,134.0684,84.82336551154441,,,0.04198438094883875,0.04226987099698214,0.04717433329618445,251.1619153664079,251.41110822856356,262.60206932186986,80.03124154752824,80.2003233615547,85.40534436623166,96.7556433266122,96.80816087091965,99.99649831593037,,,
usp000a1b0,6.7,10.0,35.455999999999996,133.134,TTR005,,35.429,133.8253,62.83721058147937,,,0.24199792942925674,0.2635546832811139,0.3679485204141588,528.5382374733922,532.6675921136555,598.8649879588071,197.8609358507529,200.4352652723523,232.4562838236491,364.34679685965966,370.04296859547827,434.7207099371487,,,
usp000a1b0,6.7,10.0,35.455999999999996,133.134,TTR006,,35.5106,133.6303,45.44383997305681,,,0.6277150022097016,0.6349453856124846,0.7304939005745769,885.6198979611954,886.6882700779983,930.202458903196,351.38960612721087,352.0987368503328,374.43402725282135,625.8895339006127,627.8320122027397,677.1810436037183,,,
usp000a1b0,6.7,10.0,35.455999999999996,133.134,TTR007,,35.2826,133.4876,37.45248966694873,,,4.2623731064236186,4.346862494129912,5.199733553851128,2042.7159453550642,2045.0552701412107,2142.843942923428,893.6020877975722,894.8381819962483,941.8560577688833,1672.3409900952577,1675.541503009225,1779.0545029349626,,,
usp000a1b0,6.7,10.0,35.455999999999996,133.134,TTR008,,35.4258,133.3301,18.117581779697808,,,1.747589799220478,1.7483257983890843,1.7990504568242056,1637.7112016566489,1637.780346140417,1652.8296707816785,666.7065617320244,666.739112546163,673.327340100472,1138.1328353657887,1138.1865533799628,1149.244553071998,,,
usp000a1b0,6.7,10.0,35.455999999999996,133.134,TTR009,,35.1629,133.3063,36.096743723336346,,,2.663204675974011,2.6729013914856443,2.9003716147590537,1611.8081567821744,1613.4917965764298,1687.1819814715964,694.3532723257982,695.1416470391118,728.2391191284537,1316.945371249492,1318.5444123787433,1383.4617179277539,,,
usp000a1b0,6.7,10.0,35.455999999999996,133.134,WKY001,,34.2288,135.1694,230.6236162629039,,,0.0011640071172747616,0.0011677456934151725,0.0012611129008457279,44.29533695561532,44.30684929495105,45.316808914938,0.3023270360814283,0.3233501622656814,0.4380397027280151,37.77936003329975,37.78056475024263,38.082273751747714,,,
usp000a1b0,6.7,10.0,35.455999999999996,133.134,WKY002,,34.2755,135.4305,247.46545118445056,,,0.00298879975172983,0.0030172379688041,0.003430518750419693,72.61764350230303,72.80266388083727,77.9897363035622,5.041520836952935,5.647522865924512,8.192632327560615,22.89414741786529,23.099069800096398,26.16909254248403,,,
usp000a1b0,6.7,10.0,35.455999999999996,133.134,YMG001,,34.6173,131.6019,167.93001354600918,,,0.03391777670317399,0.03526952506197153,0.04494029657259393,229.46358355631162,230.5607310567593,253.02658352050645,65.37913608095825,66.05801238132113,75.50415260250786,98.34271032987508,99.75086768404776,116.4525720490127,,,
usp000a1b0,6.7,10.0,35.455999999999996,133.134,YMG002,,34.4073,131.3987,196.6451400999601,,,0.00706758524063959,0.0070871223987153875,0.007612995730104942,119.36481050037744,119.5596583362582,126.38270132980443,14.992096971748712,15.107339607715545,16.969794550132658,18.64563517442442,18.648802287292487,18.99248192415238,,,
usp000a1b0,6.7,10.0,35.455999999999996,133.134,YMG003,,34.3829,131.6002,183.8863649681365,,,0.003072280478013818,0.0031059577815100753,0.0035621007469695616,64.13294650041588,64.35395645243781,69.68282915283672,6.513613148457242,6.585774619739594,7.558025150339128,13.074940024250365,13.191850451661756,14.944237880646682,,,
usp000a1b0,6.7,10.0,35.455999999999996,133.134,YMG008,,34.0121,131.4042,225.27879807514748,,,0.0011983925478679376,0.0012020702837244345,0.0012960291482766125,42.41331488322267,42.44468239405495,44.0761799113074,1.3552944449926263,1.4491989738800952,1.9623798710959304,14.912430860165413,14.925367318331693,15.5466526214816,,,
usp000a1b0,6.7,10.0,35.455999999999996,133.134,YMG009,,34.2319,131.8169,181.52470607731757,,,0.003258764932561489,0.003264162937979935,0.0034518083482337264,64.03304322163473,64.03390640310893,64.36638951301596,7.088342813097965,7.156867860946338,8.144872791626875,9.729196960465496,9.836343017596157,11.284227841842078,,,
usp000a1b0,6.7,10.0,35.455999999999996,133.134,YMG010,,34.2304,131.9822,171.9975339205238,,,0.012606603587629502,0.013203472446263156,0.01712842220690945,107.51692558310849,108.62753686764653,124.12116391518505,26.043068800534968,26.84578770739693,33.361529037531675,48.33471789867735,49.26455650014036,58.790918492569645,,,
usp000a1b0,6.7,10.0,35.455999999999996,133.134,YMG011,,34.0643,131.0214,247.46775559135148,,,0.004340836883363117,0.00453573194103836,0.005851026354084346,83.29500527096907,83.58457228785609,90.53603410916249,8.427636484891853,9.72191798686978,14.568631576709995,18.81863419230579,18.869816103186764,20.258688633070623,,,
