USGS_eventID,magnitude,depth(km),source_lat,source_lon,station_name,elev(m),station_lat,station_lon,rdist(km),rake_angle,fault_type,Ia_geom,Ia_arith,Ia_max,CAV_geom,CAV_arith,CAV_max,CAV5_geom,CAV5_arith,CAV5_max,CAVstd_geom,CAVstd_arith,CAVstd_max, Vs30,PGA,PGV
usp000a1b0,6.7,10.0,35.455999999999996,133.134,YMG012,,33.9941,131.2181,238.93558472653763,,,0.007386219905455822,0.00771685540146856,0.009951494700197265,103.65413956630348,104.14745134487144,114.2722215843207,17.91830549965266,18.78004296512595,24.403595382690305,23.47079709573705,23.662428009700776,26.667787057304373,,,
usp000a1b0,6.7,10.0,35.455999999999996,133.134,YMG013,,34.031,131.5348,215.48222664640323,,,0.012047575527538006,0.012053240778844579,0.012422750157709557,129.9720157188907,129.9723068654543,130.24741029372638,28.52634238812264,28.534748071432066,29.227306701220073,31.978938979955768,31.99658193739561,33.05899305967184,,,
usp000a1b0,6.7,10.0,35.455999999999996,133.134,YMG015,,34.0966,132.0758,179.23200382804254,,,0.019647376478527653,0.01991602099092112,0.02317615743312856,142.05346828588145,142.33960637194815,151.36045389716512,39.41334574794184,39.627195478687675,43.73849678840939,57.22736189609199,58.322580580150394,69.57213416870903,,,
usp000a1b0,6.7,10.0,35.455999999999996,133.134,YMG016,,34.1699,132.1766,167.41874567150938,,,0.042780241491310204,0.04345394896098842,0.05107606272616978,247.96108597190795,248.94338207704467,271.0365331331868,75.9012405863995,76.5754652606119,86.71467417081213,136.61571079333922,138.04176687789118,157.83259725968045,,,
usp000a1b0,6.7,10.0,35.455999999999996,133.134,YMG017,,33.9649,132.1011,190.56347098914267,,,0.023157311320766143,0.02829552319690805,0.04455515312442726,177.70234055879513,183.33809967379025,228.44615828777447,43.97429120671406,49.298098181788596,71.58181863436066,46.21997827767136,61.732132675621045,102.65364062305709,,,
usp000a1b0,6.7,10.0,35.455999999999996,133.134,YMG018,,33.9091,132.3561,185.82044614652463,,,0.024359811996598285,0.02456053558478772,0.027694138575278013,166.4104161716312,166.5837880583361,174.18193476981358,46.05238347653891,46.160913833049385,49.3244469895084,72.37209831965309,78.55216482331774,109.0926622527988,,,
usp000a1b0,6.7,10.0,35.455999999999996,133.134,YMG019,,33.8388,132.1205,202.03265506286456,,,0.0025609961352267953,0.002562063052410946,0.002635994641618208,56.6385927659443,56.663492758133394,58.34314184188752,5.415847221617381,5.4596477543606445,6.149830682137429,12.85688614896411,12.85727834876846,12.957702898979187,,,
usp000d6vk,6.6,16.0,37.226,138.779,CHB001,,35.9595,139.8733,171.2897054934331,,,0.04724612578230628,0.04727050680800453,0.04878853594082645,284.9032936007826,285.0125772077198,292.90450105509495,80.87974354456118,81.06067018981739,86.47355627658882,107.64491980464805,108.23561072088472,119.52802713074962,,,
usp000d6vk,6.6,16.0,37.226,138.779,CHB003,,35.7943,140.0564,195.7875434872333,,,0.035479505602374665,0.035494343032230015,0.03652053477877619,228.03904045588703,228.22174545416385,237.3519768917261,64.48200032231439,64.68625373239253,69.8226976739259,100.65960650222756,101.27818679859658,112.45471309383377,,,
usp000d6vk,6.6,16.0,37.226,138.779,CHB007,,35.7234,140.2267,211.26466461971282,,,0.013050046646213823,0.01305052100236838,0.013161790786683579,150.75604536838546,150.75630413253919,151.03562578934802,30.186671229110985,30.189016950931965,30.565347349944343,30.55203388805005,30.69388342164144,33.6413746947,,,
usp000d6vk,6.6,16.0,37.226,138.779,CHB008,,35.6537,139.9023,201.451956921235,,,0.01758306884970182,0.017591724932633532,0.018143518310707023,282.96446733313127,283.3520066223512,298.16652260466566,31.07765108011032,31.133400610889,32.9957209219585,13.008897575432014,13.045846692439987,14.027019355413392,,,
usp000d6vk,6.6,16.0,37.226,138.779,CHB012,,35.5727,140.3333,230.4235923758117,,,0.005727686083164026,0.005731880051544626,0.005951108375500164,116.18575947712615,116.22755291902098,119.34417805965136,11.861605521944794,11.87995887627969,12.540062916462267,20.081774263310862,20.13648505100837,21.61985036235589,,,
usp000d6vk,6.6,16.0,37.226,138.779,CHB014,,35.4769,140.0489,225.08098815536727,,,0.009044693079004679,0.009044849967717702,0.009098123273675977,173.66420584362862,173.7917408738781,180.44852723630427,19.126751227620687,19.139894490582584,19.849083173052872,17.264210351286927,17.31415224849066,18.628271356650746,,,
usp000d6vk,6.6,16.0,37.226,138.779,CHB024,,35.6335,140.0784,211.666055987754,,,0.008303557041589202,0.008308383837336977,0.008591548887434413,155.93303417784819,156.03239083596748,161.59978179386871,16.519523889079778,16.52120434173512,16.756838336501794,14.577415985145786,14.58450185013669,15.039075730443,,,
usp000d6vk,6.6,16.0,37.226,138.779,CHB026,,35.3872,140.237,242.43820997276498,,,0.003123296788950435,0.0031237642954776465,0.003177806333122994,170.18270125462504,170.18356727273755,170.7264884027607,1.9260773698588407,1.9951803112164448,2.5157285218400167,8.483550408196079,8.495658270439558,8.949069694737743,,,
usp000d6vk,6.6,16.0,37.226,138.779,FKS001,,37.7949,140.9196,199.50598750598004,,,0.00368366016014885,0.003740544437291112,0.004390406354841008,82.17307964645022,82.27079863237701,86.27945040414257,6.8042139501260746,6.917857775267428,8.166628658871678,18.02446636936399,18.049945917349905,19.008674095157808,,,
usp000d6vk,6.6,16.0,37.226,138.779,FKS004,,37.6799,140.7346,180.2132025272112,,,0.0009916472834803703,0.0009934312432617527,0.0010529400682761443,40.27542256573381,40.29352380037348,41.5011650562286,0.4390413423825917,0.4391507380148944,0.4489522877861472,11.1122497442452,11.129815986927817,11.754883602787464,,,
usp000d6vk,6.6,16.0,37.226,138.779,FKS005,,37.6385,140.9849,200.52429816985816,,,0.0027669944544937565,0.002787084267958617,0.003121120801145065,73.96267969311221,74.08678816797384,78.37330116344201,4.393743181331408,4.4950039473902335,5.443730116291214,10.447651175415043,10.496398414533664,11.506826340450964,,,
usp000d6vk,6.6,16.0,37.226,138.779,FKS006,,37.5031,140.7588,178.0527980849725,,,0.014524915667126846,0.016660758287901617,0.024822111827035642,126.01549155008249,127.46477859911877,146.63156426373808,28.99805315275525,31.309316007830468,43.11550854514623,53.73297786850602,61.50995376966581,91.44724660200231,,,
usp000d6vk,6.6,16.0,37.226,138.779,FKS007,,37.4061,140.9632,194.6361819000554,,,0.0029701042739817053,0.002971596321157825,0.0030657520304606554,69.86441617425577,69.89421664887081,71.93501884155864,5.591846639687764,5.592168799368272,5.6521941176983415,10.747896670491722,10.791729114286039,11.763394919263213,,,
usp000d6vk,6.6,16.0,37.226,138.779,FKS008,,37.4363,140.5668,160.1495699700134,,,0.009777013643438626,0.010477777453467741,0.014245246707544255,106.65508146623192,108.07544926465113,125.53959342311512,22.632485360721425,24.19689808793434,32.75613190146059,30.199470905274268,30.600212561332874,35.536300672402895,,,
usp000d6vk,6.6,16.0,37.226,138.779,FKS009,,37.2778,140.6349,164.74789091975512,,,0.0023145899340862803,0.002314776360763029,0.002344153858508886,57.35903958858464,57.36452352880464,58.15770519901723,4.401451872809543,4.415676242463731,4.769820407458719,12.890736401938256,13.140689118168929,15.691497914630828,,,
usp000d6vk,6.6,16.0,37.226,138.779,FKS011,,37.0911,140.9035,189.30081128044083,,,0.001647007637626911,0.0016474114956907839,0.0016838872099780848,58.00892302539856,58.030786242304345,59.62358294414772,0.8995667353508386,0.9010822663788034,0.9533215182168142,15.078146280317199,15.090414221497142,15.69877770307685,,,
usp000d6vk,6.6,16.0,37.226,138.779,FKS012,,36.9069,140.7929,182.5680689681153,,,0.007444682820576816,0.007447202706771619,0.007640918624431854,120.81935946609856,120.82060727311804,121.3697156838014,18.42942897121567,18.43102452163935,18.67353784537116,18.934745860544933,19.293540787346227,22.997068201794338,,,
usp000d6vk,6.6,16.0,37.226,138.779,FKS013,,37.09,140.5563,158.589963274414,,,0.004374288576985857,0.00457991495583191,0.0059368307409504465,88.48637955944315,89.17994557378681,100.28054578304315,8.750927665905227,9.87328625987558,14.445271228742206,24.313941884456142,24.31584173235573,24.619797637482648,,,
usp000d6vk,6.6,16.0,37.226,138.779,FKS014,,36.8683,140.43,152.13539330419874,,,0.004894157613712254,0.004928132126475578,0.005505806349669829,73.82506967402838,73.85944437139119,76.11257785067801,12.021642010377395,12.078820222065227,13.252711755087404,13.448671500034092,14.436160341180676,19.683632140099498,,,
usp000d6vk,6.6,16.0,37.226,138.779,FKS015,,37.0217,140.3775,143.85024434272023,,,0.0010773716254574204,0.0010982187633783846,0.0013111855046681546,45.0508940710624,45.300635434198654,50.050847444213495,0.4239660363604895,0.4763144841715069,0.693404990284383,7.67144995047076,7.6775839756016016,7.984424911326728,,,
usp000d6vk,6.6,16.0,37.226,138.779,FKS016,,37.1228,140.1914,125.95298144102686,,,0.008269733612065311,0.008275342248098765,0.008579965472173323,129.1769337289289,129.18093528709775,130.19771158562781,20.152080310809946,20.235933152361454,22.07621837305632,17.26459083562364,17.269857676256272,17.696340309722082,,,
usp000d6vk,6.6,16.0,37.226,138.779,FKS017,,37.2842,140.3689,141.19162299489432,,,0.016337930393877428,0.016339203414461153,0.016543160919729124,189.732038038874,189.7363630253862,191.0174546366275,39.444180456726926,39.44418718832616,39.46723159925239,18.25575725889965,19.044231275480186,24.46733663847197,,,
usp000d6vk,6.6,16.0,37.226,138.779,FKS018,,37.3961,140.3622,141.60937345761184,,,0.009676811342947041,0.00967681583950872,0.009686144546726822,128.12166874479226,128.14157593907302,130.40022203772025,25.1382312295276,25.14125693360659,25.53129648599102,8.846470204546948,8.899719149108947,9.87181269043074,,,
usp000d6vk,6.6,16.0,37.226,138.779,FKS019,,37.603,140.4368,152.60423863460557,,,0.00802977662160365,0.009250534440506128,0.01384347193650338,93.9492223057362,95.98839036376364,115.66870318581064,19.37057957922404,21.4140190036357,30.543140355278467,16.587979412037143,16.702319222989203,18.653320620340462,,,
usp000d6vk,6.6,16.0,37.226,138.779,FKS020,,37.5474,140.1078,122.96318077338336,,,0.07023963293466083,0.07095716751140904,0.08102263255015776,474.84312931173173,476.2959615104947,513.4691440033705,143.13548542659382,143.99438887622955,159.69842783224917,125.58609287141087,127.02560023159107,146.0948527468148,,,
usp000d6vk,6.6,16.0,37.226,138.779,FKS021,,37.6535,139.8633,107.04501567106905,,,0.06475120926063797,0.06608162537330314,0.07927488544284818,259.3185590102208,259.847016450337,276.4107391902384,78.77665483991233,79.09144178647901,86.14089680777813,114.57272367648642,114.93074807988272,123.99539609031072,,,
usp000d6vk,6.6,16.0,37.226,138.779,FKS022,,37.6002,139.6467,87.32317562487054,,,0.29293251262484044,0.2969186126985293,0.34540784463838314,728.9600671297542,730.0956230068338,770.7999134922487,258.0564101293239,258.7517596830077,277.70861412194625,412.6952175114128,414.1568030298954,448.9205044891922,,,
usp000d6vk,6.6,16.0,37.226,138.779,FKS023,,37.4774,139.9294,105.6745825613969,,,0.09870334650612676,0.0989323491138504,0.10565983673377582,459.3510983130524,459.4586282290966,469.3984236372365,158.17462082011124,158.26801043944133,163.70422758679013,220.27978350324003,220.54599297800982,231.3789057175319,,,
usp000d6vk,6.6,16.0,37.226,138.779,FKS024,,37.3957,140.1325,121.4531219003174,,,0.05387903375689565,0.05423096477863819,0.060399211064673976,301.57810484219533,301.74503916860334,311.78074256456796,97.19871751042028,97.41011421038543,103.82413516528223,120.28862499862423,122.83836434083383,147.73636526202824,,,
usp000d6vk,6.6,16.0,37.226,138.779,FKS025,,37.3077,139.9,99.84426943958384,,,0.05035385922814759,0.0508089697165307,0.05759426738776291,258.889952808058,259.29766530786065,273.832849143948,86.65382462835423,86.96157991720375,94.2712351056954,139.49689945502251,141.56722129678587,165.6896836115764,,,
usp000d6vk,6.6,16.0,37.226,138.779,FKS026,,37.266,139.5386,67.5406877540552,,,0.19178151442269853,0.1928684581077844,0.21331577721348816,595.6957067155306,596.1212933865659,618.6428703641387,196.89058566986918,197.1224838402368,206.6812970469228,326.72510506686285,328.570753842672,363.34784399968726,,,
usp000d6vk,6.6,16.0,37.226,138.779,FKS027,,37.07,139.6808,81.96385074294895,,,0.09987051768678112,0.0999333887737537,0.10347766426820136,358.3688894352385,358.38547376629714,361.83321094406716,131.7035314015703,131.7092261591525,132.9340003417548,217.7327426210907,218.11038278295743,230.93971902557243,,,
usp000d6vk,6.6,16.0,37.226,138.779,FKS028,,37.3491,139.3144,49.403315281690475,,,0.3065683317936375,0.3076960433707205,0.33401548575201906,684.8724030593834,685.5329486913192,715.6197442847442,245.7028630258981,246.1665014890449,261.2678112412719,419.58580780180864,420.46196175096014,447.59148756269616,,,
usp000d6vk,6.6,16.0,37.226,138.779,FKS029,,37.0159,139.3801,58.28687854338581,,,0.8368877932902546,0.8477350886627719,0.9829149761898964,1310.630135117427,1312.9236358575613,1390.4937494033966,495.849675191719,497.18545394277646,533.6062615196473,830.5444660077858,832.9422360358827,896.098063607838,,,
usp000d6vk,6.6,16.0,37.226,138.779,FKS030,,37.453,139.5133,69.77616069455723,,,0.1542043437964949,0.15475798581073275,0.16783676734753356,479.89277611388695,480.06306929950784,492.84876204455657,161.90759120651094,161.9755262620961,166.66626368688645,255.76571816729214,255.78006462948144,258.4890999247496,,,
usp000d6vk,6.6,16.0,37.226,138.779,FKS031,,37.3364,140.8132,180.81064090714588,,,0.0014268841646155142,0.0014326709481562818,0.0015613085261049749,42.48426486317198,42.48620587938002,42.8923204702489,1.9681804080761145,2.2117281523071437,3.2206916308202684,9.33073905929446,9.331251556482634,9.429048375021507,,,
usp000d6vk,6.6,16.0,37.226,138.779,GIF001,,36.2742,136.8978,198.43430262243493,,,0.0004226914736754673,0.00042416436612321366,0.00045948189110401336,23.87815264007489,23.897787019367556,24.86631730817481,0.11493630048885305,0.15683895521195426,0.2635540183563552,6.940923713163472,6.941403281500037,7.022996936060008,,,
usp000d6vk,6.6,16.0,37.226,138.779,GIF002,,36.2734,137.0253,188.94359926157205,,,0.00027710538928331005,0.00027731547252151555,0.0002881078091534353,20.854154700428733,20.85986367603134,21.34786399693083,0.0,0.0,0.0,7.520694945374298,7.520816836059947,7.563635292177175,,,
usp000d6vk,6.6,16.0,37.226,138.779,GIF003,,36.3322,137.3014,165.03160981192642,,,0.00013371842689097042,0.00013472103225203294,0.00015112648381111827,14.794186607696595,14.805185619095747,15.375767631194195,0.0,0.0,0.0,5.105289256011243,5.109420085833602,5.314834851554125,,,
usp000d6vk,6.6,16.0,37.226,138.779,GIF004,,36.2492,137.5174,156.35329410973802,,,0.0003077722826655278,0.0003155416225054272,0.0003851314030497565,22.153137671816243,22.308760485469627,24.939213999905284,0.0,0.0,0.0,6.911797235558816,6.998840313717133,8.099215118696616,,,
usp000d6vk,6.6,16.0,37.226,138.779,GIF007,,36.0378,137.4861,175.37380378643013,,,0.004527946144317712,0.004667142296463361,0.00579847820131022,76.25333070396705,76.67608664909645,84.71672221919816,9.986555131981351,10.38873752365028,13.251355893464224,19.894399158869984,20.19137994358271,23.641699658285603,,,
usp000d6vk,6.6,16.0,37.226,138.779,GIF010,,35.8029,137.245,209.3234471647488,,,0.0002769051185346556,0.0002786377262610278,0.0003096625199786955,19.168826548262,19.235391377159274,20.834256660771228,0.0,0.0,0.0,6.30855963729082,6.310109236407117,6.44994441844489,,,
usp000d6vk,6.6,16.0,37.226,138.779,GIF018,,35.4887,137.5,224.3654362984434,,,0.0005825281096190836,0.0005989942838665928,0.0007384760160341772,29.888365850894264,30.02294483407341,32.86245240985365,0.0,0.0,0.0,9.029372338253461,9.04486214304088,9.573980621075137,,,
usp000d6vk,6.6,16.0,37.226,138.779,GNM002,,36.7819,138.9695,52.120323418173726,,,0.5153114783376814,0.515491027692596,0.5290954359855744,819.2874108027193,819.7553390060858,847.4492793028172,294.8357452900205,295.14852414872837,308.7328756772579,512.9887735389908,513.4214892283132,534.4962092592166,,,
usp000d6vk,6.6,16.0,37.226,138.779,GNM003,,36.6578,139.0784,68.46503989262007,,,0.645293464803525,0.6476340529535796,0.7026450593699469,771.0319361300577,773.8300416736943,839.5771850659787,291.86552373998364,293.07048312696753,319.6190072339532,531.1848192393342,533.9807247435967,588.5527157955346,,,
usp000d6vk,6.6,16.0,37.226,138.779,GNM004,,36.6172,138.5918,69.59081621395893,,,0.013877895141319723,0.013943813245863057,0.015298048927729534,156.95718008008788,157.2783370938904,167.32417903602172,33.70454306352457,33.78099296122792,36.052393922209646,8.936829627259524,8.976166030416886,9.815590129991373,,,
usp000d6vk,6.6,16.0,37.226,138.779,GNM005,,36.5133,138.5177,82.4520765409103,,,0.004161390552836337,0.0042134158356111895,0.004873492854256474,104.18474054981873,104.57641480910787,113.61889073628372,6.160341398390857,6.4351621899284215,8.295674556443664,4.8271410725832045,4.82745686223527,4.882673002291127,,,
usp000d6vk,6.6,16.0,37.226,138.779,GNM006,,36.5103,138.7523,79.46060499229127,,,0.01579708604850966,0.015976287435387884,0.018362462742047947,157.75273708193208,157.9252306277005,165.3044183859297,36.18285367898439,36.36621410686422,40.01349091449712,14.352227786674625,14.42178996916579,15.836563263420295,,,
usp000d6vk,6.6,16.0,37.226,138.779,GNM007,,36.4619,139.0101,87.26503286158209,,,0.059961799221687775,0.06099537187673115,0.07217651781436787,285.0363153877878,285.4600656261514,301.00831239034244,90.41413007279058,90.74797214260084,98.52483083842183,123.39110544740251,124.52427148677056,141.28521673991568,,,
usp000d6vk,6.6,16.0,37.226,138.779,GNM008,,36.3478,139.1368,102.55632322981151,,,0.02280028568736981,0.023307741200853008,0.028144865600768752,191.8299724111946,192.11999446133856,202.67243287836288,45.20307028200376,45.59484322071066,51.55908377600468,36.50265369567161,42.32231075714847,63.740393327689574,,,
usp000d6vk,6.6,16.0,37.226,138.779,GNM009,,36.4106,139.3251,102.77223499035857,,,0.0870695695719203,0.0911031771423218,0.11791136507037454,289.4400849153971,290.1832305933243,310.9376171596903,102.37530254170248,102.86482460864306,112.88827567410853,163.28023169149532,166.58970378917803,199.63051714686782,,,
usp000d6vk,6.6,16.0,37.226,138.779,GNM010,,36.2343,139.5331,129.02869343281264,,,0.047062169069705326,0.0483637051001268,0.0595082200499352,313.4588283428309,314.3510855651143,338.01895259840467,70.32434816227628,70.95717383444722,80.41267879837758,102.498638554301,104.94518792541687,127.4734271645546,,,
usp000d6vk,6.6,16.0,37.226,138.779,GNM011,,36.2914,139.3609,116.00208149708901,,,0.15096341096732305,0.15215402021576588,0.17115124151075575,349.82971621716916,350.2499087117293,367.4012411377992,128.26733664303586,128.41028166939063,134.46757387914448,236.7992117908931,237.08386208930938,248.6981187764336,,,
usp000d6vk,6.6,16.0,37.226,138.779,GNM013,,36.3181,139.0176,102.97979383108046,,,0.1057060649161574,0.10596834751395227,0.11341942225380522,354.38875626815866,355.34670264380554,381.4213744640378,121.30734918967815,121.8408783139317,133.23063954425564,179.66869190114,179.88519651929874,188.70818225656242,,,
usp000d6vk,6.6,16.0,37.226,138.779,GNM014,,36.35,138.7179,97.36579162656083,,,0.0047986593992644854,0.0048190653159397535,0.0052620760259052286,89.96157121744919,90.02929237159407,93.52059428030745,11.210159817655061,11.259790618780293,12.315821698533409,3.5123384970749045,3.7420036471691436,5.032766823508156,,,
usp000d6vk,6.6,16.0,37.226,138.779,GNM015,,36.2287,138.7579,110.68896960039908,,,0.0023211635482146657,0.002584861413410941,0.003722274403041493,51.007254322287466,52.08830087585679,62.64534092670758,4.54666319940495,5.590080359002124,8.842287635803231,8.317487870132696,8.348902887105943,9.07248767724558,,,
