USGS_eventID,magnitude,depth(km),source_lat,source_lon,station_name,elev(m),station_lat,station_lon,rdist(km),rake_angle,fault_type,Ia_geom,Ia_arith,Ia_max,CAV_geom,CAV_arith,CAV_max,CAV5_geom,CAV5_arith,CAV5_max,CAVstd_geom,CAVstd_arith,CAVstd_max, Vs30,PGA,PGV
usp000d6vk,6.6,16.0,37.226,138.779,TKY025,,35.7138,139.8971,195.44608006217572,,,0.011060447718572187,0.011092305404437385,0.01193238602559349,289.17162880193473,289.27478336002605,296.99937940293086,18.35732566276749,18.359347483080487,18.631807600514392,10.47860574622892,10.490204036888793,10.98335954041294,,,
usp000d6vk,6.6,16.0,37.226,138.779,TYM001,,36.976,137.6257,106.20830783481738,,,0.0024544026883465994,0.0025748946372364345,0.0033533481273730864,62.495986940770855,62.93972660413287,70.40034328789224,3.845366685704912,4.585690292390463,7.084031844339466,4.133050605626342,4.177332782695274,4.783964358457999,,,
usp000d6vk,6.6,16.0,37.226,138.779,TYM002,,36.866,136.9747,165.40152530013503,,,0.013340619375277635,0.01343260039585216,0.015001876687208971,238.65607038760712,239.131300968714,254.19978364399387,26.34874728461139,26.52406097493837,29.56861794335475,12.926448406888893,13.000121504579273,14.382181820869448,,,
usp000d6vk,6.6,16.0,37.226,138.779,TYM003,,36.8163,137.4192,129.26326690487096,,,0.0013437189176371295,0.0013563080768025089,0.0015406747483671407,59.64989404122246,59.92034455197201,65.60698082467087,0.670002889531994,0.9705644239898488,1.6727691157525326,4.968353943447291,4.968694815615646,5.026895016281546,,,
usp000d6vk,6.6,16.0,37.226,138.779,TYM004,,36.8624,137.5274,118.42771516212773,,,0.005942987672038865,0.005976687815900618,0.006610481771953363,101.37632864154688,101.43132699086901,104.77110037983965,14.294141478446068,14.464699923992178,16.67943767038723,6.120091004043736,6.124055871693026,6.3443883973009445,,,
usp000d6vk,6.6,16.0,37.226,138.779,TYM005,,36.7824,137.0803,159.00573032138874,,,0.0050540197537307634,0.005056126269501507,0.0052020618102119965,136.50751545116174,136.52614726008505,138.78160974775292,6.3711224610460935,6.454448800730066,7.4882320989119195,8.359665658670686,8.3722817797802,8.831729573638817,,,
usp000d6vk,6.6,16.0,37.226,138.779,TYM007,,36.6686,137.2114,152.71674451241003,,,0.0019074804966832445,0.0019387304321692406,0.0022854202696207804,60.15281070823087,60.27024731986699,64.03084247192463,1.9118957315784035,2.4986344943527405,4.107307564911721,9.744560371362176,9.85085942519813,11.29411081837005,,,
usp000d6vk,6.6,16.0,37.226,138.779,TYM008,,36.6086,137.2831,149.87225619727812,,,0.0016100513622539744,0.0016144766604474568,0.0017339316646695251,59.93013498134813,59.93094438885456,60.242419038500174,1.0122039921202846,1.0154126328580522,1.0960717507771087,6.694491852637732,6.6986008248910185,6.933189499378204,,,
usp000d6vk,6.6,16.0,37.226,138.779,TYM009,,36.5864,137.1406,162.35036438897802,,,0.00369011727517706,0.0036908193927742907,0.003762807485669011,91.779319122035,91.7800395472974,92.14368882770373,7.303896754369173,7.331049480122975,7.961429271619193,8.854256594396842,8.857395798559029,9.09319336621229,,,
usp000d6vk,6.6,16.0,37.226,138.779,TYM011,,36.5781,137.385,143.54427017639338,,,0.001702597471730112,0.001737698547300643,0.0020852011955624877,50.15249839548535,50.36891163827993,55.03304760496149,2.0803059464615457,2.3999644265455373,3.596691804773672,9.617358654869927,9.62150799161246,9.90404743356865,,,
usp000d6vk,6.6,16.0,37.226,138.779,YMN001,,35.7895,138.9198,159.9043568298523,,,0.0007768368280773407,0.0007773880511700018,0.0008066579101486354,32.477798384837406,32.49885760049501,33.668625701917264,0.2731915321515747,0.277838119202351,0.32843858602406045,6.2043358644979705,6.342782873990519,7.6607779677187295,,,
usp000d6vk,6.6,16.0,37.226,138.779,YMN002,,35.6132,138.947,179.60027946038247,,,0.001067982573018663,0.0010725615855570409,0.0011715645074385145,41.85018696500439,41.88922072460754,43.6971653888786,0.3335030695421994,0.3633802427009985,0.5076747449918603,9.579255575194138,9.67767725775508,11.054376110221348,,,
usp000d6vk,6.6,16.0,37.226,138.779,YMN003,,35.4648,138.813,195.45616522825247,,,0.0007946027751488232,0.000794648945983678,0.0008032149881712378,39.756149982182414,39.75962321241997,40.285148271597365,0.0,0.0,0.0,9.245453285585716,9.333229920628167,10.610247655572023,,,
usp000d6vk,6.6,16.0,37.226,138.779,YMN004,,35.702,138.7266,169.17988820902875,,,0.0008915863662707932,0.0008979489079128011,0.0010046540750877592,41.11506002260871,41.191894699852135,43.70665677626982,0.07567733878134889,0.08184809222756947,0.11302581819123887,8.441836827535985,8.462357786705049,9.051331714366297,,,
usp000d6vk,6.6,16.0,37.226,138.779,YMN005,,35.6548,138.5677,175.3777741508717,,,0.001485003518867311,0.0014864557887314988,0.0015521471946008036,65.81927842483822,65.90248771475679,69.213148468639,0.0,0.05151620183208693,0.10303240366417386,12.922690748056414,12.922894587583482,12.995478000919723,,,
usp000d6vk,6.6,16.0,37.226,138.779,YMN009,,35.4965,138.4627,194.0030545272921,,,0.0015415373465395507,0.0015667645859343395,0.0018467893651268308,57.878630290057814,57.99086135465978,61.596988973335314,0.0,0.4457382239550727,0.8914764479101454,10.951008387674122,10.953835390248127,11.202682832958224,,,
usp000d6vk,6.6,16.0,37.226,138.779,YMN010,,35.7918,138.4096,162.55433279914524,,,0.0011872383774504062,0.0011872725495512125,0.0011962804364712134,54.24431526253855,54.25081810173833,55.09077429477816,0.2552587710125307,0.27790671370775005,0.3877934797217418,6.084660300108408,6.088136855998349,6.29385367507282,,,
usp000d6vk,6.6,16.0,37.226,138.779,YMT003,,38.7292,139.8013,189.48520990531563,,,0.01740788365302396,0.01764899250469047,0.02055631483862621,160.59225911664694,160.9522567168869,171.71121828714942,40.211711240761204,40.50510439515089,45.37149537324861,27.087768741551706,30.538074288666248,44.638668810327864,,,
usp000d6vk,6.6,16.0,37.226,138.779,YMT004,,38.6276,139.5889,171.0901118439406,,,0.002277938532077285,0.002279391299582898,0.002360759233634328,52.11859732173063,52.13846954921818,53.57785141309071,4.895604487845036,4.920670921703179,5.416714285016056,9.326525524775636,9.32735370963812,9.451647154390812,,,
usp000d6vk,6.6,16.0,37.226,138.779,YMT005,,38.607,140.1621,195.66499058682166,,,0.008493867175072532,0.008504648900048609,0.008932753239343805,102.05516741830635,102.05766057757828,102.77102289059587,20.572837930527577,20.597160795155656,21.597846712785593,22.369529713448078,22.48311082861003,24.740191449838534,,,
usp000d6vk,6.6,16.0,37.226,138.779,YMT007,,38.4306,140.3907,194.9519129511902,,,0.005148718185186568,0.005165324845193126,0.00557918690663212,96.23966388640163,96.2397001444788,96.32324014471372,13.442022287631087,13.531245293336804,15.082578915507913,11.762821439180238,11.765285894299755,12.006084491825904,,,
usp000d6vk,6.6,16.0,37.226,138.779,YMT008,,38.3856,139.9921,167.26308249473541,,,0.021117554025549882,0.02111815674120566,0.02127770649555184,175.8662549286789,175.86734715669914,176.48716430383587,48.58965903573142,48.616084679836426,50.2188087323137,31.204636914678467,31.51966068464167,35.96484287416234,,,
usp000d6vk,6.6,16.0,37.226,138.779,YMT009,,38.3898,140.2743,184.45262327101548,,,0.0057715690046963464,0.005864914101844095,0.006907127441826928,110.95433853023165,111.3037611624778,120.11636635235554,11.61363381071007,11.872333835453519,14.337251767390887,10.145767741331117,10.152615455769693,10.525439183151024,,,
usp000d6vk,6.6,16.0,37.226,138.779,YMT010,,38.2604,140.3488,179.7846829033854,,,0.003475098599552652,0.0034785068130164807,0.0036324528152031923,73.27199982726029,73.28073781297991,74.41236307280352,8.614505524075867,8.680942538205295,9.752883734021843,10.721694416227106,10.74561339696916,11.462185879114294,,,
usp000d6vk,6.6,16.0,37.226,138.779,YMT011,,38.1502,140.2674,166.60008878708,,,0.02116827751937924,0.02122731373368599,0.022809361524012663,186.44778872960944,186.64072764032463,195.12502442608002,45.834270513706244,45.921023380474594,48.74237674127361,40.39303927625122,40.42249619247407,41.96540787426506,,,
usp000d6vk,6.6,16.0,37.226,138.779,YMT012,,38.1074,140.0428,148.33124012059366,,,0.009826891971188566,0.009827999953458596,0.009975571196496865,96.42156727,96.42812796440408,97.5529514689404,22.87070651444761,22.8765546359434,23.39379301552,30.01818980951945,30.19251766370124,33.432333002972,,,
usp000d6vk,6.6,16.0,37.226,138.779,YMT013,,38.0621,139.7575,126.76278085789451,,,0.01957103098006953,0.01959757295994128,0.020617186758092453,157.5821369337053,157.69744463778218,163.72688612877582,41.356732953484716,41.453873201278036,44.290110638762414,48.67125211412546,51.14791200456499,66.87108344260386,,,
usp000d6vk,6.6,16.0,37.226,138.779,YMT014,,37.9207,139.8697,123.40222666430132,,,0.07027325573634692,0.0772440900050213,0.10931150288660273,312.71633640906896,318.0359083282154,375.9611353803644,103.21053381638231,107.27076750380051,136.5043658145084,165.5456654282886,173.00057180079483,223.2383116116891,,,
usp000d6vk,6.6,16.0,37.226,138.779,YMT015,,37.9043,140.0996,138.85074801291572,,,0.03923490167513469,0.03923867975138205,0.0397831787633489,276.75281058146356,276.7888401754953,281.25469742314607,71.11336730048711,71.14260115431567,73.18188784040161,89.29400619417831,90.31768040780365,103.87732096499413,,,
usp000fg9t,6.6,12.0,37.535,138.446,CHB001,,35.9595,139.8733,216.3624812882053,,,0.016118172756636028,0.016118284498714303,0.016178302568742812,244.4476399519555,244.45640894293228,246.526963263221,31.475214678635787,31.536390346771483,33.49974895836835,21.952093201089426,21.963857398898927,22.682631306223396,,,
usp000fg9t,6.6,12.0,37.535,138.446,CHB002,,35.7868,139.9031,233.67314411499058,,,0.0050084171858457175,0.005053862958862825,0.005730093762280549,183.63425057808223,183.824629080703,192.18861564717696,1.9322246837771373,1.993639647173244,2.484665933825392,13.854478364059393,13.957542849979847,15.650596797387776,,,
usp000fg9t,6.6,12.0,37.535,138.446,CHB004,,35.9007,140.4905,257.3861274793713,,,0.004471288077536404,0.004483172936281421,0.004809397558722743,146.27187539004342,146.39544246552222,152.4090973072671,5.035901031068776,5.1030096449819435,5.927878266072099,9.51049932394215,9.51131281766865,9.63570785311552,,,
usp000fg9t,6.6,12.0,37.535,138.446,CHB008,,35.6537,139.9023,246.09185228875216,,,0.010707875935567771,0.01070814387415183,0.010783894636682912,284.72388849262416,284.7486146014942,288.5010590194725,13.490522437975226,13.515139896000607,14.33049917812984,15.941828821546032,16.171417926605457,18.88671746467867,,,
usp000fg9t,6.6,12.0,37.535,138.446,CHB012,,35.5727,140.3333,275.6069739676511,,,0.00338519072764302,0.003390105705567639,0.0035725897662468647,156.64294850524482,156.7018710455915,160.99873883182948,0.3565028497335569,0.3568631737231959,0.3728957309629145,14.079443815938328,14.249032439675414,16.44087807766142,,,
usp000fg9t,6.6,12.0,37.535,138.446,CHB014,,35.4769,140.0489,269.7635695037228,,,0.0041158551974000935,0.004116020054396018,0.004152858651340379,177.97607885244963,177.97694096330883,178.5309003153663,0.19386056113573014,0.23595161537042103,0.37045532398862574,14.100596092699936,14.126160372508291,14.975628853594552,,,
usp000fg9t,6.6,12.0,37.535,138.446,CHB017,,35.2988,140.0755,287.9687265827505,,,0.0020742622127464592,0.002102105201756718,0.002443107477445334,95.23183724915205,95.51395036611864,102.84960907494613,0.0,0.0,0.0,14.105158198209255,14.124118520925558,14.85571690572599,,,
usp000fg9t,6.6,12.0,37.535,138.446,CHB029,,35.6947,139.9176,242.96519732826198,,,0.009586291313651598,0.009721050084413235,0.011334070107065945,259.5365344162442,259.7886685939797,271.23155428939384,9.878988331992213,10.971141692232989,15.743095125305716,13.359535474040026,13.46167785310273,15.116846285191318,,,
usp000fg9t,6.6,12.0,37.535,138.446,FKS001,,37.7949,140.9196,220.1384270654156,,,0.0017092797913058385,0.0017413936894849435,0.002074281924199621,58.79119424610744,59.069975898672105,64.8021248662206,0.6440028712846506,0.902924832570756,1.5358020363394282,10.878846561421707,10.902556747280867,11.621195126942478,,,
usp000fg9t,6.6,12.0,37.535,138.446,FKS004,,37.6799,140.7346,202.7139304657698,,,0.0003747480236491333,0.00038122872953092217,0.0004512234649817379,22.859465841476396,22.920115916916114,24.58640973471805,0.0,0.0,0.0,8.523129266521972,8.545384361643041,9.161713327675033,,,
usp000fg9t,6.6,12.0,37.535,138.446,FKS006,,37.5031,140.7588,204.48389703700872,,,0.010779718699054643,0.01336859584962422,0.021275366350899792,97.4079122611342,100.09913875494637,123.15420779429613,23.559284172530013,27.37382734575551,41.312498474425176,37.62476641658837,39.33450237773364,50.80533623587566,,,
usp000fg9t,6.6,12.0,37.535,138.446,FKS007,,37.4061,140.9632,223.12426750317798,,,0.0017030255367056779,0.0017038687900820901,0.001757467998510422,53.88847351781361,53.89989120482995,55.00925760616291,1.8825475478918563,1.9308771770571451,2.3601805695507627,9.38859731870408,9.4082857289169,10.016628349619976,,,
usp000fg9t,6.6,12.0,37.535,138.446,FKS008,,37.4363,140.5668,187.884148050122,,,0.00819498505198107,0.009328746657671569,0.013786070316642864,84.19820079342972,85.40006271400384,99.6770965342721,19.18525756005138,20.11524504414188,26.160819916754562,29.5041139585138,30.44013388218885,37.93072867089639,,,
usp000fg9t,6.6,12.0,37.535,138.446,FKS009,,37.2778,140.6349,195.88208603749615,,,0.0009735469617667967,0.0009743670454668694,0.0010143351893626717,34.12637727441575,34.12918687118163,34.56710308722851,0.6169669958241616,0.6289162349414641,0.7509299908735549,10.800267491759977,10.870204861313471,12.101292117910544,,,
usp000fg9t,6.6,12.0,37.535,138.446,FKS010,,37.2342,141.0016,228.7687362923887,,,0.003339356105574317,0.0034077517546624303,0.004087069663721511,82.66574305123821,82.7406820508304,86.26139107363657,5.446956567570725,5.9000321365158985,8.167419038418291,9.653029719060283,9.823318576351202,11.644473455933273,,,
usp000fg9t,6.6,12.0,37.535,138.446,FKS011,,37.0911,140.9035,223.33990365769162,,,0.0009422522079173043,0.0009422957929463328,0.0009513587990327996,45.69383143088822,45.73073866335768,47.56764580904859,0.0,0.12640381700020428,0.25280763400040857,7.90397768092235,7.906121644318778,8.090231052680187,,,
usp000fg9t,6.6,12.0,37.535,138.446,FKS012,,36.9069,140.7929,219.6423400704366,,,0.0038975666150928225,0.004005593507433359,0.00492958150936096,93.41121649784081,93.72006750348169,101.32241485483814,6.75765985282059,7.587607325322098,11.038088195702107,13.517584495896996,13.601146395139306,15.106501057103095,,,
usp000fg9t,6.6,12.0,37.535,138.446,FKS013,,37.09,140.5563,193.4743337628933,,,0.0020753651324323928,0.0021520389098444977,0.0027213639809318077,55.99554592396394,56.19245959477337,60.89260342102835,1.454371822385039,3.3713964364917235,6.412961253200635,16.772511375954522,16.7759016610799,17.113153326308428,,,
usp000fg9t,6.6,12.0,37.535,138.446,FKS014,,36.8683,140.43,191.03665576727744,,,0.001993586213220673,0.0020755209106419303,0.0026529298307049693,47.72780517310512,47.791724525872176,50.26266493692457,2.8016505219139396,3.657419449574984,6.008476952740043,6.386636397100048,6.567112859932557,8.096114771745777,,,
usp000fg9t,6.6,12.0,37.535,138.446,FKS015,,37.0217,140.3775,180.5173319424129,,,0.0004277153698063225,0.0004278219316605337,0.0004373701064175809,26.16704236664064,26.172588374301018,26.711361047170268,0.0,0.0,0.0,6.309084581175086,6.4138775855229495,7.568553916644566,,,
usp000fg9t,6.6,12.0,37.535,138.446,FKS016,,37.1228,140.1914,161.30912439848385,,,0.0035162173232817268,0.00352652102501446,0.003795902307442398,77.74445054360798,77.74567779137324,78.18251290044597,6.745774820072192,6.829921782696568,7.898731229994381,14.951140574534154,14.958986401119006,15.4434135570277,,,
usp000fg9t,6.6,12.0,37.535,138.446,FKS017,,37.2842,140.3689,172.49538878139987,,,0.007221769200700827,0.007221834164410463,0.007252466011483159,141.71651605159133,141.71816198820497,142.40118139800913,15.43664942375185,15.450772305264886,16.111241378970853,16.479357209948315,16.47992848047528,16.617146075938468,,,
usp000fg9t,6.6,12.0,37.535,138.446,FKS018,,37.3961,140.3622,170.21514584872884,,,0.008917817269233816,0.00892420878145635,0.009261903210752685,118.98250479224306,118.99351522504473,120.61222427141581,24.227942121754307,24.238330109570576,24.947884226913818,11.312821888671213,11.333033364744274,12.009573209549039,,,
usp000fg9t,6.6,12.0,37.535,138.446,FKS019,,37.603,140.4368,176.03380625829678,,,0.003589108303858933,0.0037794305487825375,0.0049636589288856075,62.9941267117522,63.78347739226253,73.787076148359,8.993620227156027,9.686428425290732,13.28388458874433,11.412025107769974,11.618322645330851,13.798025384383928,,,
usp000fg9t,6.6,12.0,37.535,138.446,FKS020,,37.5474,140.1078,146.86916403828639,,,0.08468632366405465,0.08545692127128962,0.0969073351255731,484.1807958321439,485.90559306259735,526.8103888311412,146.97325065581697,147.6134530992183,161.34644722058619,172.05283240780793,173.43309110436738,195.27021432301845,,,
usp000fg9t,6.6,12.0,37.535,138.446,FKS021,,37.6535,139.8633,125.85554236940584,,,0.016229506732447233,0.01623008855933544,0.016367514413238787,189.00140144202172,189.05276109419307,193.45920300233,36.21146155935384,36.240075211363504,37.67990265266434,14.787861139394535,14.798252567346571,15.352727065375532,,,
usp000fg9t,6.6,12.0,37.535,138.446,FKS022,,37.6002,139.6467,106.32245097871436,,,0.0705255439332708,0.07064119590712738,0.07468176667193771,383.984504220301,384.1929587983738,396.8472114012966,130.40191899996927,130.47287870941332,134.77538958641745,187.66682372952891,188.00422210435016,199.2625878974733,,,
usp000fg9t,6.6,12.0,37.535,138.446,FKS023,,37.4774,139.9294,131.3137911749672,,,0.08468129558330628,0.08472680032081914,0.08750328567764559,403.7094731675392,403.74306655292816,408.951239394731,134.7530584699044,134.7626961477945,136.37437416442995,190.4094083218473,190.41030153778192,190.99352896601886,,,
usp000fg9t,6.6,12.0,37.535,138.446,FKS024,,37.3957,140.1325,149.9952001433366,,,0.019439313931367448,0.01943932820448012,0.019462884928352228,212.97139491097226,212.97614937338253,214.39922758208075,44.91183216866322,44.91299958281493,45.23682481309062,18.317799889584247,18.317869282669626,18.368290132709717,,,
usp000fg9t,6.6,12.0,37.535,138.446,FKS025,,37.3077,139.9,131.1528701449989,,,0.008406661766506346,0.008549137775842833,0.010103420457308259,106.19501648248742,106.51516144855036,114.76731829963995,21.296800124691508,21.57177032811069,25.005074791407928,13.180225309847813,13.204440829094533,14.003764537429154,,,
usp000fg9t,6.6,12.0,37.535,138.446,FKS026,,37.266,139.5386,101.24289859925659,,,0.055039613132981835,0.05530262568505268,0.060689776493480126,271.417727962304,271.7405815281956,284.98296035764497,85.75791250972509,85.96349638766273,91.90514204909672,134.13194921437608,135.0975884809392,151.22144079101764,,,
usp000fg9t,6.6,12.0,37.535,138.446,FKS027,,37.07,139.6808,121.02751674511956,,,0.016090168792196942,0.016161951273795088,0.017683508770289454,123.64775666763329,123.67441113023027,126.24194681079523,34.71318723341424,34.749286147515285,36.33280118054278,46.68083237873758,47.63199996186697,57.103394199016,,,
usp000fg9t,6.6,12.0,37.535,138.446,FKS028,,37.3491,139.3144,79.5691148662327,,,0.05923182112456892,0.06003449098503996,0.06981873720536352,318.97306564472353,319.5422702034006,338.6065257605943,103.09946063413528,103.4219247216885,111.58254541431937,135.79729491384722,137.13477651419515,156.24083899917258,,,
usp000fg9t,6.6,12.0,37.535,138.446,FKS029,,37.0159,139.3801,100.90660772442128,,,0.1628477532574559,0.1648114054739236,0.19017690632229656,470.0034956138568,471.02552062928964,502.0376987993026,181.32424042291808,181.75956414851441,194.33171569507653,330.2196140699369,330.62311826667167,346.9526257877066,,,
