USGS_eventID,magnitude,depth(km),source_lat,source_lon,station_name,elev(m),station_lat,station_lon,rdist(km),rake_angle,fault_type,Ia_geom,Ia_arith,Ia_max,CAV_geom,CAV_arith,CAV_max,CAV5_geom,CAV5_arith,CAV5_max,CAVstd_geom,CAVstd_arith,CAVstd_max, Vs30,PGA,PGV
usp000fg9t,6.6,12.0,37.535,138.446,FKS030,,37.453,139.5133,94.82126286168176,,,0.019471389062112637,0.019499332054274832,0.02054286382413641,196.5504851331292,196.62082247059055,201.87958876536632,49.195339755214654,49.271693908095294,52.013657974605096,13.043790570114208,13.651280210881367,17.678311246148034,,,
usp000fg9t,6.6,12.0,37.535,138.446,FKS031,,37.3364,140.8132,210.65063775957387,,,0.0010084075161405524,0.0010085103314672952,0.0010229106810295656,31.66412014180689,31.680521452332574,32.699803129262136,1.3941963453210129,1.3945899879801529,1.4277228307198466,6.342131207846341,6.366025962387347,6.917077952903007,,,
usp000fg9t,6.6,12.0,37.535,138.446,GIF001,,36.2742,136.8978,196.50216662931388,,,0.001058951040472066,0.0010942408649699856,0.0013698960199252134,35.53643750513525,35.57489240974289,37.22854878529329,1.0758905944898924,1.4459137035031144,2.4118981064135747,6.477701041188396,6.478099932650203,6.5499884462621125,,,
usp000fg9t,6.6,12.0,37.535,138.446,GIF002,,36.2734,137.0253,188.7641756868808,,,0.0009301910338335252,0.0009304260748085096,0.0009513383023151117,34.30106749738514,34.30108117683639,34.33171514080809,1.0194857090462282,1.0582614346533037,1.3421032094592291,8.138042603734743,8.141274541625991,8.37065139731488,,,
usp000fg9t,6.6,12.0,37.535,138.446,GIF003,,36.3322,137.3014,167.97185892066432,,,0.0003160908105813204,0.0003170613850559688,0.00034185092639204764,19.70800270568764,19.709324581427353,19.937589358966704,0.0,0.059608460757099364,0.11921692151419873,5.177660176400428,5.194440014211663,5.611623617629098,,,
usp000fg9t,6.6,12.0,37.535,138.446,GIF004,,36.2492,137.5174,164.95958170914406,,,0.0005354237866757083,0.0005519359162943731,0.0006859307832018583,28.524820631034107,28.80963144759213,32.850605601607576,0.0,0.05222859318029599,0.10445718636059198,7.745794184708557,7.891615923426593,9.40167364782498,,,
usp000fg9t,6.6,12.0,37.535,138.446,GIF005,,36.1536,137.2514,186.687632632372,,,0.0005552716875933437,0.0005552717962052538,0.0005556190975861339,25.3427946453417,25.346744166131252,25.794180627932114,0.0,0.27317551511371696,0.5463510302274339,6.41016430391272,6.410701132417487,6.4936626055360485,,,
usp000fg9t,6.6,12.0,37.535,138.446,GIF007,,36.0378,137.4861,186.93781823861408,,,0.006082598693696218,0.006217702883992269,0.007506819746441466,80.58467949370501,80.73905773968096,85.72953623260855,14.44529728132538,14.86232717565223,18.3583471312967,24.206922377312573,24.250166313478754,25.69774195922007,,,
usp000fg9t,6.6,12.0,37.535,138.446,GIF018,,35.4887,137.5,242.3672146047889,,,0.001197986917930958,0.0012704553433782267,0.0016934022951163516,40.08104494507974,40.25697286412064,44.0164542503019,0.5969419252578716,1.248126270931369,2.3442464860804515,11.175651714716585,11.206730471461643,12.040766808403387,,,
usp000fg9t,6.6,12.0,37.535,138.446,GIF019,,35.4495,137.4039,249.54533768281425,,,0.0004008369092020854,0.0004016205750284179,0.0004266976264395429,22.39895437430868,22.406773088343872,22.998654132278336,0.0,0.0,0.0,5.990678910756304,6.005982024286808,6.434451701482187,,,
usp000fg9t,6.6,12.0,37.535,138.446,GIF023,,35.3882,137.2158,262.50085435046054,,,0.0005953036142974674,0.000599606328965547,0.0006713095823081383,26.935406625660292,26.9377167244672,27.290494612061988,0.0,0.19221204216719145,0.3844240843343829,8.887198811124678,8.915100399464873,9.619878679552173,,,
usp000fg9t,6.6,12.0,37.535,138.446,GNM001,,36.7722,139.2248,109.32813751677658,,,0.12883394917686808,0.12898770252196745,0.13528380777742052,435.8626537939766,435.86344157230917,436.6921314599729,145.6846010808953,145.69276323837582,147.2349266323837,283.1119426730461,283.13113930319537,286.4281013926538,,,
usp000fg9t,6.6,12.0,37.535,138.446,GNM002,,36.7819,138.9695,95.64393352995356,,,0.06933384688428931,0.07192349032634086,0.09104954943294127,317.70719823573864,319.2210112613428,350.2724237881736,107.07234536697815,108.247186201646,124.15209670715879,150.48901037767797,155.53341069908532,194.82335342285995,,,
usp000fg9t,6.6,12.0,37.535,138.446,GNM003,,36.6578,139.0784,112.41771521432774,,,0.06930472921388349,0.07115303833610878,0.08726543645215751,331.56231847335135,333.0280581415883,364.2388972545157,109.1479423827742,109.96834388407423,123.37592868569344,161.3653977614683,162.3772983327044,180.4768955412393,,,
usp000fg9t,6.6,12.0,37.535,138.446,GNM004,,36.6172,138.5918,102.67836383040424,,,0.027570095672569104,0.028006547233564025,0.032931637339464546,212.3071816579367,212.32313809215938,214.92613362923683,52.059876019878274,52.234011672366854,56.49561749457301,48.59543254460285,52.50205567315609,72.37539926979666,,,
usp000fg9t,6.6,12.0,37.535,138.446,GNM005,,36.5133,138.5177,113.56567430947192,,,0.004988951914138793,0.0050190692442109225,0.0055680818821300295,112.23342664278738,112.24285412749155,113.69758664703316,7.994196316843034,8.723705669108426,12.215963656286313,5.2534997846268485,5.300139937294934,6.00172625973458,,,
usp000fg9t,6.6,12.0,37.535,138.446,GNM006,,36.5103,138.7523,116.93976859764484,,,0.004891166682798025,0.004906637060732207,0.005295964335447654,100.87561028031095,100.89885466648073,103.06452398159479,9.794205077846554,9.803068793483476,10.219847707122836,7.09530876205974,7.38353969248176,9.426393569167976,,,
usp000fg9t,6.6,12.0,37.535,138.446,GNM007,,36.4619,139.0101,129.24216562919457,,,0.00846582198666139,0.008502202784082542,0.00928789373593417,145.91358013870118,145.94275614506643,148.86083810504573,19.135506855061738,19.264516041373906,21.490264389286924,8.808419863644946,8.831508003401758,9.469687539186516,,,
usp000fg9t,6.6,12.0,37.535,138.446,GNM008,,36.3478,139.1368,145.4124174324908,,,0.008882468907051784,0.009139420008867085,0.01129133641378114,154.05382680881212,154.7689717016293,169.63009706750455,18.641135610558802,19.568125618418414,25.519562702598986,5.762856019709831,5.937741127551105,7.368216640765502,,,
usp000fg9t,6.6,12.0,37.535,138.446,GNM009,,36.4106,139.3251,147.3010391395414,,,0.012618959580644904,0.01262377323217663,0.012972355675035392,118.44035988334238,118.45206036152746,120.11691909285744,26.75139756640154,26.783979951539262,28.104703347554874,42.612277031035454,43.25049965063622,50.653172563846276,,,
usp000fg9t,6.6,12.0,37.535,138.446,GNM010,,36.2343,139.5331,173.85680196947544,,,0.014740479549893356,0.015425641586304375,0.019971923692410284,243.49378794872155,244.20508509635,262.8303050225299,27.168235196459964,29.369436375011105,40.525187774879214,22.12171842035205,23.732810219455352,32.327916678559944,,,
usp000fg9t,6.6,12.0,37.535,138.446,GNM011,,36.2914,139.3609,160.29025815585786,,,0.02600564626157817,0.026046879245961344,0.027511898348689088,210.18467300858387,210.3202287340516,217.87018549011643,50.140461276416204,50.26186833240296,53.7532221174007,68.19147254958251,68.22617942837401,70.40210013286226,,,
usp000fg9t,6.6,12.0,37.535,138.446,GNM013,,36.3181,139.0176,144.32979033954788,,,0.01608379038671523,0.01629014745425187,0.018874831357067717,184.26788724573981,184.3264094446517,188.9708629914872,33.757459062107536,33.94722827162398,37.531675927243946,20.357347876068626,24.47002970773969,38.04798026555168,,,
usp000fg9t,6.6,12.0,37.535,138.446,GNM014,,36.35,138.7179,133.7188468750499,,,0.0026708147711658773,0.002691290334901789,0.0030226392821733014,79.40546180395107,79.42391955072934,81.13612062011298,4.3380788038729134,4.34050170334686,4.485509731212709,5.2920088465618464,5.3876672397506224,6.398409864850242,,,
usp000fg9t,6.6,12.0,37.535,138.446,GNM015,,36.2287,138.7579,147.60947767185752,,,0.0002228766361741064,0.00022541445056169536,0.0002591439564837516,18.38686392413464,18.403231913422367,19.179234422802054,0.0,0.0,0.0,5.1457061368661,5.146837317004661,5.2547387568945005,,,
usp000fg9t,6.6,12.0,37.535,138.446,GNM016,,36.1162,138.9251,163.1481944488566,,,0.0005233079576607569,0.0005239851667545661,0.0005506166599109406,26.91816395710391,26.938943949640695,27.99684295254916,0.0,0.0,0.0,9.374947931391596,9.415290675326633,10.285951220309062,,,
usp000fg9t,6.6,12.0,37.535,138.446,HYG020,,34.7976,134.9899,434.6264847917314,,,8.984759991249366e-09,1.0450608641035745e-08,1.578814635684962e-08,0.008166986938223784,0.008569958674881126,0.01116697928320375,0.0,0.0,0.0,10.049852715128953,10.173313505837713,11.753429986441336,,,
usp000fg9t,6.6,12.0,37.535,138.446,IBR001,,36.7761,140.3569,189.48583087992532,,,0.004454648841911106,0.0048424917221096455,0.006741393977087627,77.74897886039645,78.22291670053077,86.82064798871376,8.912325936078528,9.949244920582787,14.371678741324981,13.865709958525304,13.865989683755885,13.954064970168774,,,
usp000fg9t,6.6,12.0,37.535,138.446,IBR002,,36.7061,140.7068,220.968754927873,,,0.0036350010580935782,0.003669454111251757,0.004171112144418756,77.82711402391953,77.86198561224991,80.19203415037927,7.2591771423402465,7.331631341800003,8.359816805706691,15.176868765785361,15.199237080733635,16.023532114369694,,,
usp000fg9t,6.6,12.0,37.535,138.446,IBR003,,36.5915,140.6453,221.85493654002087,,,0.0014537138375043672,0.0014559792179495304,0.0015371676515423321,46.697150827371644,46.69851435757607,47.055372607364646,1.3595138078789641,1.6044931372422029,2.456620142825153,17.312529051057222,17.318695933205184,17.780828688068627,,,
usp000fg9t,6.6,12.0,37.535,138.446,IBR005,,36.3851,140.2372,204.27635297843776,,,0.0036778994436826662,0.003679248351871472,0.0037788682138853954,81.59207284577647,81.60168712457107,82.85428055657253,6.156338374296575,6.156704512548014,6.223848209143418,18.2175528668602,18.225154329366482,18.75147920278564,,,
usp000fg9t,6.6,12.0,37.535,138.446,IBR006,,36.369,140.4528,220.65404041433519,,,0.002776210626454972,0.002776218827323877,0.002782966771162805,94.7226469432144,94.73528561006235,96.28270142077551,1.7483746659424246,1.7544182077115342,1.8999148572965543,10.857748954471187,10.87253130875366,11.439298193379505,,,
usp000fg9t,6.6,12.0,37.535,138.446,IBR007,,36.3523,140.5955,232.12805191161814,,,0.0012414941226209105,0.0012414947607107124,0.0012427534782662919,53.11524138035872,53.11609475043488,53.41718384589586,0.42127020212556704,0.4354157220279381,0.5454987261211884,13.6352556672925,13.635284617113333,13.663382255007587,,,
usp000fg9t,6.6,12.0,37.535,138.446,IBR008,,36.3062,139.9828,193.24858515948708,,,0.006359969436014061,0.006366079401866632,0.006644926535324393,164.37292030672074,164.38138833042234,166.04989043636644,8.408429245125824,8.605556761909227,10.436929146803793,13.170837528384952,13.181078880788405,13.700577930308821,,,
usp000fg9t,6.6,12.0,37.535,138.446,IBR009,,36.1848,139.7037,187.1592335417351,,,0.02001154391081845,0.0200211968185117,0.0206428336505672,332.07437686502584,332.1198457926372,337.6153165668236,47.1015452160545,47.10280548922823,47.447367843589674,10.352834386739527,10.352872817385526,10.381081569638985,,,
usp000fg9t,6.6,12.0,37.535,138.446,IBR010,,36.1843,139.9653,202.0428953452661,,,0.012594390139000908,0.012727354283336713,0.014562261387308472,252.8350886247876,253.8684814306914,276.7513095780401,25.76004900585757,26.096818600147525,30.27579171143004,15.07940017201988,15.080019256817147,15.216661995602953,,,
usp000fg9t,6.6,12.0,37.535,138.446,IBR011,,36.1251,140.0903,214.46274764362389,,,0.010087387286735387,0.010105618499271756,0.010712366371318113,176.49504019208302,176.50818313148426,178.66213298525997,22.677514944690557,22.677611222400145,22.743692139959172,18.93372318700965,18.93373080085676,18.950710700892447,,,
usp000fg9t,6.6,12.0,37.535,138.446,IBR012,,36.1901,140.2869,221.8529471111811,,,0.013257042399966595,0.013452903761376929,0.01574013930201491,204.21070899642777,204.6881191289266,218.65996380720523,34.307486606160985,35.227798507644636,43.22743290324637,24.039686941081047,24.088983345379443,25.629298374451647,,,
usp000fg9t,6.6,12.0,37.535,138.446,IBR014,,36.0729,140.1947,225.11143003351532,,,0.009258804067805382,0.00926244523261738,0.009522135280996174,176.31193077142726,176.39825489910686,181.9161710910864,20.715608721748065,20.742607426213933,21.800585746152997,21.18683638444495,21.23742378062259,22.70239233199613,,,
usp000fg9t,6.6,12.0,37.535,138.446,IBR016,,35.9112,140.0494,230.18197316074244,,,0.005736869486517008,0.0057472090303568426,0.006091795932727349,137.07920441228654,137.15193429598287,141.6178943074649,9.35954877542128,9.687450131030284,12.186557323951133,16.272122630526926,16.282582228439605,16.866113823977244,,,
usp000fg9t,6.6,12.0,37.535,138.446,IBR017,,35.9537,140.3194,242.44809187778662,,,0.007814019181535094,0.007972603450072266,0.009554851851147716,177.1360366080651,177.54173318953832,189.5372139523691,14.203977765505881,15.736707822589375,22.51099662146416,14.034054243357144,14.034059281868458,14.045951359385748,,,
usp000fg9t,6.6,12.0,37.535,138.446,ISK001,,37.4999,137.1764,112.30554359235468,,,0.02014579807256974,0.02027074241161717,0.022517922408275274,174.0650635623129,174.26305433482884,182.5676165238591,44.859770812987776,45.02669215258361,48.90018783603853,33.44358070169011,34.19232365964921,41.308636405429006,,,
usp000fg9t,6.6,12.0,37.535,138.446,ISK002,,37.4443,137.2877,102.93008370081226,,,0.23315742160718755,0.2332127225534295,0.23829117805398164,819.642865334587,819.6810197367349,827.5897125972441,295.1651314836808,295.22749157567614,301.29518786729614,378.8905719258304,378.9194460268511,383.5971680165385,,,
usp000fg9t,6.6,12.0,37.535,138.446,ISK003,,37.3919,136.9083,136.9604213863092,,,0.02244722195878312,0.024065639564919326,0.032741884951129605,202.7627435207198,204.15286424701526,227.9365103133994,46.1857975533056,47.85776709395106,60.39722384390381,23.396947939446196,42.32210066130568,77.58884181362275,,,
usp000fg9t,6.6,12.0,37.535,138.446,ISK004,,37.308,137.14700000000002,117.7113798794962,,,0.08906525127205901,0.08933968472475079,0.09633684718984074,323.4040350637074,323.7602747311946,338.94400281526333,110.1202589458644,110.293630698918,116.47534101606165,173.16659282369338,173.67617094249348,186.97066164651858,,,
usp000fg9t,6.6,12.0,37.535,138.446,ISK005,,37.2307,136.9039,140.68551402747332,,,0.07531569989144482,0.08374660276084961,0.12036679969977065,358.05049926786074,366.7129630075642,445.948291061551,117.89976114867734,123.60566448718686,160.72717596508642,140.92428751878202,158.14923647474671,229.92336959294624,,,
usp000fg9t,6.6,12.0,37.535,138.446,ISK006,,37.1602,136.6897,161.0773646964241,,,0.002078510024981658,0.0020786514102910233,0.0021028952044579528,60.23374665259962,60.23398635757886,60.40391785978088,1.8047995766110887,1.863119895053027,2.3256285237366816,6.181863284465394,6.221157096564792,6.919270233754731,,,
usp000fg9t,6.6,12.0,37.535,138.446,ISK007,,37.0427,136.9681,141.98217779139026,,,0.033950224333705675,0.03422879059238873,0.03858681458367863,279.0626822298094,279.88617951607915,301.34061660520695,77.46852515823849,78.0533142517867,87.58995283650499,33.30395406500099,33.366891005922234,35.4153194370366,,,
usp000fg9t,6.6,12.0,37.535,138.446,ISK008,,36.8918,136.7783,164.33790056439773,,,0.023156800367657958,0.023158547391320176,0.02344300126888036,297.68657184866726,297.77032948100134,304.83248639035764,56.0288443257636,56.0347468007277,56.848044127054976,10.649516686162498,10.675302649626982,11.416842272492378,,,
usp000fg9t,6.6,12.0,37.535,138.446,ISK009,,36.7318,136.6989,179.00717747896408,,,0.007486431199508412,0.00766553326498085,0.009312879048826793,131.12643780734274,131.26210803351032,137.22854024698623,16.289111528408732,16.8129440915333,20.977068806294643,8.105228265855386,8.113884120012788,8.488571017801554,,,
usp000fg9t,6.6,12.0,37.535,138.446,KNG002,,35.4371,139.634,255.97777428927887,,,0.004926878780069193,0.004936735403105951,0.005248539711580939,132.29180355048257,132.36711015945636,136.8314763324065,5.344022495606703,5.344091015048992,5.3711528623043945,19.031373804755425,19.03137815332517,19.044243553885245,,,
usp000fg9t,6.6,12.0,37.535,138.446,KNG206,,35.0966,139.3778,283.21557611380337,,,0.017712277475119883,0.018429082236588228,0.023518905291203443,329.5278295677237,332.5740893589324,377.4843827593145,35.20717161766019,38.278410943927305,53.30145361433186,30.885835282034353,30.907877238790675,32.07494807605642,,,
usp000fg9t,6.6,12.0,37.535,138.446,MYG005,,38.7992,140.6507,238.77399718580588,,,0.00812867765117058,0.008134096555490664,0.008430957494997749,223.47656787796845,223.6290833659372,231.8868395123159,8.180039992323769,8.28306204467912,9.585391711079902,17.347760271456945,17.349568307288514,17.600035896669127,,,
usp000fg9t,6.6,12.0,37.535,138.446,MYG015,,38.1049,140.8699,222.58528611798675,,,0.007286804023181656,0.0075056859814937454,0.009305077317622541,134.14039616785342,134.90071442270602,149.20305226264753,17.30829217846808,17.78970035293626,21.900230794623962,15.896535044242325,15.926341796113338,16.900270229727546,,,
usp000fg9t,6.6,12.0,37.535,138.446,MYG016,,38.0085,140.621,198.69665320488372,,,0.004873229402776405,0.004885729096087432,0.005234991158543184,106.74571945533657,106.75443233045972,108.11832388086759,8.834642395845913,9.055580814132838,11.04370495985734,8.51354469012018,8.590852374534817,9.740765993193618,,,
usp000fg9t,6.6,12.0,37.535,138.446,NGN001,,36.8514,138.366,76.1985565438374,,,0.3025760805286065,0.3094638462791877,0.3743914031857505,587.3653576687485,588.9224098202686,631.7189213507147,252.63350878048655,253.64101213563697,276.22581407079133,351.14714052022936,356.24952330775704,416.32787682606147,,,
usp000fg9t,6.6,12.0,37.535,138.446,NGN002,,36.8069,138.2069,83.54866877205498,,,0.41962334157844416,0.4325382330268676,0.5374456885891165,738.6874079556482,740.3932849905494,790.6240503327446,296.4989143058952,297.3776270495793,320.22159529207426,462.56741706446496,465.2149823183497,514.7767058938249,,,
usp000fg9t,6.6,12.0,37.535,138.446,NGN003,,36.7403,138.4129,88.24500656186657,,,0.02308087660043804,0.02311314013500573,0.02433395226459997,158.42444699579275,158.48747842752726,162.95686455910948,46.451212032828614,46.4931415654912,48.46725232986151,45.41092748436484,45.41801875239681,46.22057242837546,,,
usp000fg9t,6.6,12.0,37.535,138.446,NGN004,,36.6486,138.1938,100.89489080461006,,,0.024790280351898057,0.025109577533885853,0.029101179217987407,250.0789671694398,250.4695190470613,264.4512983019509,46.25737805813584,46.497611490928534,51.218082817822,24.54636045243009,34.79028357623678,59.44469534886578,,,
usp000fg9t,6.6,12.0,37.535,138.446,NGN005,,36.6981,137.8544,106.72817170769464,,,0.0062213992793033095,0.006223469042154886,0.006383961802566478,98.89954718490027,98.94569593347934,101.96733627975428,14.616118545132926,14.616129852767415,14.634310820295337,2.64022045894028,2.6403485479988498,2.6663559145093627,,,
usp000fg9t,6.6,12.0,37.535,138.446,NGN006,,36.5086,137.8507,125.62239510676464,,,0.0038651616818269775,0.003871298063116025,0.00408918304842327,91.02724171035774,91.05532700735304,93.31670778468865,8.327252451207048,8.32792144955183,8.43347846623793,4.839376227712345,4.84898237651338,5.154052555963918,,,
usp000fg9t,6.6,12.0,37.535,138.446,NGN007,,36.5339,138.1191,114.84405996290522,,,0.016840047554984958,0.016997536824315415,0.01930601174074913,205.63029815502884,206.77232771417565,228.47430893738175,33.856301281599244,34.06545469524721,37.83454836926517,20.7256701670863,20.7849153428877,22.353131506609248,,,
usp000fg9t,6.6,12.0,37.535,138.446,NGN008,,36.4022,138.2491,126.93153896421526,,,0.04154656746243885,0.041559032528407716,0.042576832502011934,271.16025892393907,271.2127303240938,276.54743464129047,81.10160248004553,81.10590820791649,81.9416243078262,77.34713139369063,79.226958532394,96.38307182943291,,,
