USGS_eventID,magnitude,depth(km),source_lat,source_lon,station_name,elev(m),station_lat,station_lon,rdist(km),rake_angle,fault_type,Ia_geom,Ia_arith,Ia_max,CAV_geom,CAV_arith,CAV_max,CAV5_geom,CAV5_arith,CAV5_max,CAVstd_geom,CAVstd_arith,CAVstd_max, Vs30,PGA,PGV
usp000a1b0,6.7,10.0,35.455999999999996,133.134,AIC009,,35.0812,137.1464,367.4178005275792,,,0.0013229630183432832,0.0013229739307758178,0.0013283473476075661,46.98674992952696,47.00327124805442,48.24940088748928,0.8274613480499139,1.1231929983139035,1.8827127340316767,20.678209706317826,20.69337881870269,21.485572151088718,,,
usp000a1b0,6.7,10.0,35.455999999999996,133.134,EHM001,,33.981,133.549,167.9868038123293,,,0.030778780396372375,0.033679561763680484,0.047353608637428254,185.54914227025824,188.29928296914528,220.3638392496512,55.94183623297882,58.02321519170547,73.42465863267994,83.10033528728336,92.89872846713587,134.4259246878263,,,
usp000a1b0,6.7,10.0,35.455999999999996,133.134,EHM002,,33.9216,133.3074,170.9583954512342,,,0.0014642387641118865,0.0014671428791020555,0.0015594091750717324,46.06545428437753,46.07142121411171,46.81288885469196,1.5113825691156162,1.5148659147134351,1.6175375726042682,11.212599497260845,11.27862573256012,12.497235977549513,,,
usp000a1b0,6.7,10.0,35.455999999999996,133.134,EHM003,,33.9266,133.0843,169.72502112203398,,,0.0199653011847714,0.01998615502615508,0.020898920785191604,170.84189289983794,170.8489083276319,172.39716771929906,40.27871097340125,40.295679985294704,41.46498225523422,43.94766954807511,48.023949336660785,67.38633687496186,,,
usp000a1b0,6.7,10.0,35.455999999999996,133.134,EHM004,,34.0624,132.9982,155.09975379863616,,,0.04432310516830064,0.04514077718993519,0.05369367807508134,217.9529160016708,218.3061221763969,230.71939676711625,70.2431503564077,70.4093467959472,75.24421434729355,131.43339923622315,134.36710356574866,162.291646281077,,,
usp000a1b0,6.7,10.0,35.455999999999996,133.134,EHM005,,33.7974,132.9141,185.0962863518142,,,0.00481623333100139,0.00481689021634564,0.004896438048984878,85.65830609629704,85.6742063617702,87.32473125775591,12.408727639747019,12.44302815069759,13.366298382878346,13.630806292544847,13.638788584917787,14.10534391840299,,,
usp000a1b0,6.7,10.0,35.455999999999996,133.134,EHM007,,33.9621,132.7722,169.00764960780091,,,0.02781714259145333,0.028773867213244264,0.03613199282050092,173.5672630439582,174.30571078956237,190.33337478916008,49.83355062699071,50.96038999954895,61.617715218068035,87.36420897522406,93.84420763462782,128.11125152091185,,,
usp000a1b0,6.7,10.0,35.455999999999996,133.134,EHM009,,33.6324,132.7963,204.6567800239643,,,0.0014497184463469572,0.0014521507747215633,0.001536164457213175,44.62363376282924,44.624367474407656,44.880262554192896,1.7701448920655831,1.778291725210782,1.94831678526742,10.916470410303264,10.927485060792007,11.417998602710847,,,
usp000a1b0,6.7,10.0,35.455999999999996,133.134,EHM010,,33.4506,132.6881,226.20137807008047,,,0.003350744311336325,0.003362118937694509,0.003638445395442054,67.40568932609065,67.448033811265,69.83765961462746,7.018074390786588,7.1246204265025534,8.352157825982868,22.141836943421282,22.143314659946103,22.399128850968946,,,
usp000a1b0,6.7,10.0,35.455999999999996,133.134,EHM011,,33.4496,132.4336,231.6878131388672,,,0.003208211395013226,0.00326921135741369,0.00389779909540255,71.99357830380517,72.30192757093606,78.9722659046911,6.006128480746589,6.376466570281192,8.517902208977405,22.902182880953628,22.902183281123136,22.90646457892507,,,
usp000a1b0,6.7,10.0,35.455999999999996,133.134,EHM012,,33.2217,132.5727,253.170427092387,,,0.0017519806927858135,0.0018188871247379515,0.0023076754476787035,45.61410633888082,45.93173465989182,51.32409516082095,2.6011347413006702,3.0325537201737176,4.591553439012098,20.676150771854005,20.702907978286266,21.75513799921805,,,
usp000a1b0,6.7,10.0,35.455999999999996,133.134,EHM015,,33.6105,132.4814,213.30952895469903,,,0.0038520397436042297,0.0038835728063469186,0.004377463032906165,82.54160036819285,82.67891605821974,87.44204205064213,7.711490209339849,7.855646307328169,9.353677567714401,27.611886936031176,27.61589917054697,28.08662927331043,,,
usp000a1b0,6.7,10.0,35.455999999999996,133.134,EHM016,,33.7658,132.7088,191.51185970023968,,,0.016520499068083568,0.016520748387805574,0.01661151090556725,175.6752301180697,175.70777688043663,179.08954849137749,38.51247957861329,38.51584768996517,39.02520020393792,28.600224717738083,28.600526404950546,28.731891298118768,,,
usp000a1b0,6.7,10.0,35.455999999999996,133.134,FKI010,,35.4904,135.55100000000002,219.39346869404827,,,0.007401306101139949,0.007405299938303489,0.007648477185319411,122.02249809943413,122.03896298185579,124.04356849426122,16.021627984646347,16.02714120178692,16.447488467286384,19.086322186845454,19.422527109752828,23.020702301292893,,,
usp000a1b0,6.7,10.0,35.455999999999996,133.134,FKO002,,33.8263,130.7053,286.8072967578408,,,0.014816401519011325,0.01481915740934179,0.015104941156760462,153.61929032951343,153.75328610206424,160.17096682331234,34.9988562969799,35.0070365517456,35.76378356270933,33.73469630430201,34.7899682131322,43.29362351701541,,,
usp000a1b0,6.7,10.0,35.455999999999996,133.134,FKO003,,33.8324,130.9014,272.63398391724627,,,0.0013285990915717525,0.00133067548998565,0.001404983723198832,42.049332305332754,42.05162261193495,42.49050411336571,1.1308437799695779,1.2079112946486268,1.6324605156393608,14.696306617162216,14.768978777903467,16.232298960405238,,,
usp000a1b0,6.7,10.0,35.455999999999996,133.134,GIF017,,35.48699999999999,136.5679,311.66892635895437,,,0.0006507888073672675,0.0006703901663670585,0.0008313153147036126,30.75521513352664,30.946518018466282,34.382172185834115,0.0,0.21285998520730925,0.4257199704146185,13.739003110699315,13.739649970491396,13.872972271021675,,,
usp000a1b0,6.7,10.0,35.455999999999996,133.134,HRS001,,35.0337,132.9018,51.39796392019639,,,1.864275851604334,1.8762635405860613,2.088019113966022,1440.1089982415642,1443.0121624555136,1534.5008184638714,607.4437019660143,608.8563026667158,650.3068302726138,1112.7601990707435,1116.7652434783436,1211.2604730155153,,,
usp000a1b0,6.7,10.0,35.455999999999996,133.134,HRS002,,34.8951,133.2755,63.54927080693052,,,2.5797093910785107,2.596845663206868,2.8946826254826363,1831.7496000612616,1835.5925665646887,1954.308501059392,775.3731120556845,777.5836231041843,836.1739637834561,1461.0461964879312,1465.8381209671295,1584.2670389246787,,,
usp000a1b0,6.7,10.0,35.455999999999996,133.134,HRS003,,34.8143,132.8418,76.00977862658736,,,0.18859799955275108,0.1889346775523656,0.20020884920782986,519.9479933266832,521.0170035109716,554.3756932800121,198.94938270660384,199.4859521558028,214.1074509903456,332.37279269845465,333.41335040674375,359.7342338128953,,,
usp000a1b0,6.7,10.0,35.455999999999996,133.134,HRS004,,34.7262,132.2772,112.51365330705586,,,0.07617905504943577,0.07654713400863307,0.08404482009906543,306.5606575964703,307.39369844560736,330.0089379554761,107.74301753763348,108.28848153791323,119.14377543868713,150.63052340899358,150.76225396437644,157.06325689659118,,,
usp000a1b0,6.7,10.0,35.455999999999996,133.134,HRS005,,34.777,133.2807,76.50787774838113,,,1.933301578798464,2.1297115123635857,3.0230289986523955,1652.417962827678,1674.9254667896055,1948.5861973024148,706.8866566036896,719.2986265508812,852.3466211755333,1313.7434286072544,1338.5149650213514,1594.8360827182046,,,
usp000a1b0,6.7,10.0,35.455999999999996,133.134,HRS006,,34.6659,132.4077,109.87595609495979,,,0.09155264998549012,0.09242404254691773,0.10508563491710532,319.06183921395393,319.36784377787086,333.345053683127,110.8384266616651,111.10981755488669,118.87092135827028,176.48236265243213,176.51446314314998,179.88067337572568,,,
usp000a1b0,6.7,10.0,35.455999999999996,133.134,HRS007,,34.7032,133.0946,83.59442689698083,,,0.0584978290926207,0.061273554668002335,0.07950683449098563,281.59247967424614,283.41789320727594,315.53296102536086,99.90243081842094,101.1620636919981,117.07644231620128,140.49566025552514,142.81333349978226,168.43788568482682,,,
usp000a1b0,6.7,10.0,35.455999999999996,133.134,HRS008,,34.6107,132.7193,101.12547755112264,,,0.10560267055146846,0.10561184480421668,0.10700387043184208,373.13756128343175,373.14718137695627,375.8266083717337,139.49892882454466,139.5100387808012,141.2706572588593,233.6415626058352,234.0778669094959,248.3631040444991,,,
usp000a1b0,6.7,10.0,35.455999999999996,133.134,HRS009,,34.4926,132.2794,132.33671084662308,,,0.20974131236491367,0.2097932800948445,0.2144625691625242,480.51946601294156,480.58666595344926,488.6232246006351,187.77808123190715,187.79596444164383,190.38757965815148,352.0654194021872,352.06583021994453,352.6036681331324,,,
usp000a1b0,6.7,10.0,35.455999999999996,133.134,HRS010,,34.5887,133.0501,96.52329340429468,,,0.103618076858054,0.10391208655013896,0.11172335273699914,389.34862157728486,389.8059689586908,408.6830532592905,148.5897746480026,148.82895319581962,157.26317985979298,252.6986802625714,253.602382855806,274.99269804042933,,,
usp000a1b0,6.7,10.0,35.455999999999996,133.134,HRS011,,34.5676,133.2362,99.00024390222237,,,0.07277561187915665,0.07343278038000225,0.08323500206449792,314.07462404597646,314.48839547858904,330.61543553793973,114.55092568420342,114.87503167273607,123.49815910448822,159.97990007621598,161.10436121259556,180.10559204963386,,,
usp000a1b0,6.7,10.0,35.455999999999996,133.134,HRS012,,34.4276,132.7422,119.57238731796288,,,0.13482460901046886,0.1367755587500136,0.15979464380030656,407.72400549289085,409.4790058319285,447.3497275300637,156.2133389329646,157.4076963099505,176.7616519010005,299.30325202116387,302.3484969839352,345.15243322816843,,,
usp000a1b0,6.7,10.0,35.455999999999996,133.134,HRS013,,34.3768,132.4505,135.03698772654278,,,0.09027393407211888,0.09246997749305602,0.11250278969476704,361.09832833644805,362.0560849796276,388.3734925912845,123.55586676408052,124.44247846893248,139.27077020019772,230.96792499599255,233.21929357317646,265.54662748454393,,,
usp000a1b0,6.7,10.0,35.455999999999996,133.134,HRS014,,34.2869,132.2766,151.54667607174196,,,0.11692871169763885,0.1169763605152777,0.120314818262603,363.96514540974977,364.0107913562232,369.7752645015725,135.55172076732842,135.60829710229106,139.52508660384382,271.8408853899686,271.881588652154,276.5859779235696,,,
usp000a1b0,6.7,10.0,35.455999999999996,133.134,HRS015,,34.4849,133.3615,109.71866099565484,,,0.19354005266751773,0.19592819544913875,0.2264258311839032,464.10493822589723,464.14736051900115,470.4225968565267,183.99163972254243,184.01664583001832,187.0502006326452,343.8025232028657,344.192692727702,360.5766716854913,,,
usp000a1b0,6.7,10.0,35.455999999999996,133.134,HRS016,,34.4198,133.1971,115.09989463681733,,,0.017974719391554633,0.018271259832350475,0.02154973488275634,152.9599992901956,153.4150734116056,165.22284064473243,42.01340703451568,42.33770439579664,47.56789013417778,39.925254490746156,40.21853642373526,45.06670369771349,,,
usp000a1b0,6.7,10.0,35.455999999999996,133.134,HRS017,,34.404,133.0832,116.80039730730108,,,0.06086268142147967,0.060930250061297535,0.06379894013164729,258.23208690074546,258.3379147726294,265.731662398576,92.91778664365887,93.00132380336498,96.94228236973328,175.59824873180526,176.17193626627324,190.37778612226242,,,
usp000a1b0,6.7,10.0,35.455999999999996,133.134,HRS018,,34.3413,132.9068,125.39473535855312,,,0.08468442444446367,0.08512287752247785,0.09375146571619107,420.59131376535896,421.7023070860415,452.2928707751821,142.75343236257842,143.1886494017245,154.3442249670071,221.11481582326863,221.2450384047437,228.83485013880627,,,
usp000a1b0,6.7,10.0,35.455999999999996,133.134,HRS019,,34.2485,132.5647,143.7183905139596,,,0.11959041291635847,0.12001471863898484,0.1300976660498153,393.3454307384699,393.75193611412493,411.63934259996137,143.74661329311292,143.90937722223703,150.75189278687984,284.1010120519984,284.3373949419677,295.92916415183527,,,
usp000a1b0,6.7,10.0,35.455999999999996,133.134,HRS020,,34.3027,133.1693,127.9859243738756,,,0.14387760277459544,0.14759531275320945,0.1805135716159355,398.1923457198428,398.95194305041395,423.55902889636513,155.05149012532266,155.69316455977508,169.81396129913063,313.8784780011017,314.952199848109,340.93660357178766,,,
usp000a1b0,6.7,10.0,35.455999999999996,133.134,HRS021,,34.9529,133.1171,55.83730089572575,,,1.270748426216667,1.27161115503305,1.3184445498742436,1490.2312721605622,1490.4013723881396,1512.9181725862506,619.7961772514763,619.9685080960899,634.5852688640615,1133.8496340738664,1134.2900699722727,1165.8965589937159,,,
usp000a1b0,6.7,10.0,35.455999999999996,133.134,HYG001,,35.6194,134.45,120.71222446241538,,,0.019455780717578485,0.0199941151465053,0.024602502843001105,155.5486007308583,156.33401728788309,171.98514414955574,42.98483806141121,43.60772562107152,50.95193631228346,70.81460500530477,74.16088872131179,96.18653590538923,,,
usp000a1b0,6.7,10.0,35.455999999999996,133.134,HYG002,,35.6411,134.6284,137.05038642205108,,,0.018594994821909384,0.018975232573742184,0.022754864672342463,159.7150742044721,160.19128804146806,172.5340525715302,40.75997982176421,41.423444017041476,48.80759997167464,59.281579191602276,59.85178393987047,68.09377455711365,,,
usp000a1b0,6.7,10.0,35.455999999999996,133.134,HYG003,,35.4615,134.8758,158.11233535877287,,,0.01131388376712042,0.011426046809553593,0.013023100283360562,115.6819863464715,115.84181504590164,121.92491853537668,26.43366339717825,26.575159451039838,29.31387069044991,34.027336941648905,35.611005401661416,46.11262653254661,,,
usp000a1b0,6.7,10.0,35.455999999999996,133.134,HYG004,,35.4582,134.5748,130.79144388703222,,,0.0051916242579473975,0.0052100607015493645,0.005647976307712421,83.78347801984187,83.85277236800252,87.26103361073655,12.280744002357595,12.289591745769243,12.755844924029127,13.506273696049124,13.673240847146811,15.803519258879811,,,
usp000a1b0,6.7,10.0,35.455999999999996,133.134,HYG005,,35.3407,134.8619,157.48691659965334,,,0.03194315574034678,0.033848126038050465,0.045043233792587685,179.54790196709735,181.08353956869817,204.61647822798733,53.661957731951844,54.91226935667732,66.56351900100715,123.3595078018726,125.5210569251359,148.71518476997934,,,
usp000a1b0,6.7,10.0,35.455999999999996,133.134,HYG006,,35.3326,134.6652,139.77726761115505,,,0.024432200897793292,0.02457983424502616,0.0272697804903682,159.53267277440713,159.9539643959199,171.5555609854051,48.18746438495514,48.512761682172396,54.121355283061504,100.71589350330879,101.10999811326464,110.02854700277253,,,
usp000a1b0,6.7,10.0,35.455999999999996,133.134,HYG007,,35.1637,134.5459,132.43257870290944,,,0.01755237536508636,0.017554442477764668,0.017823830206249367,133.82160439072348,133.82257521853748,134.33231673521198,37.58337574623425,37.58694978671922,38.10527573313026,74.9156504329387,75.04844904446801,79.51107430207628,,,
usp000a1b0,6.7,10.0,35.455999999999996,133.134,HYG008,,35.1482,134.78799999999998,154.25878730921013,,,0.03782154922464353,0.037940056742910636,0.04093644121476085,195.50459226716046,195.55939257144937,200.18869331406384,62.58795059672411,62.70640269643883,66.55885376426211,151.12901411664876,151.20324955926682,155.94073511720674,,,
usp000a1b0,6.7,10.0,35.455999999999996,133.134,HYG009,,35.169000000000004,135.1041,181.964582305944,,,0.02668600283979017,0.027172768393111817,0.032292982703119553,167.7378005470266,168.0665054310798,178.57271861476826,50.175554658319825,50.653255805778635,57.59343148479471,111.28881534764456,112.48953844757082,128.8814827698708,,,
usp000a1b0,6.7,10.0,35.455999999999996,133.134,HYG010,,35.0593,135.1777,191.11163391003925,,,0.026145748340171308,0.02700815312296712,0.033778690682575496,145.8098428916526,146.09329437931382,155.18946821848542,44.15362572452017,44.46897341092446,49.75545916239456,110.54500347739231,110.545698274076,110.93763332784175,,,
usp000a1b0,6.7,10.0,35.455999999999996,133.134,HYG011,,34.9848,134.3228,120.19428492302988,,,0.09701883415408212,0.09724628073253312,0.10389345574853444,303.77906787865436,304.21388386197367,320.47319052499887,117.58115731881651,117.75540928490028,124.15914721068336,239.46824842803397,240.1480179754626,258.2042781738674,,,
usp000a1b0,6.7,10.0,35.455999999999996,133.134,HYG012,,34.9959,134.55200000000002,138.81399523911486,,,0.029749374864932093,0.030082266164805024,0.03454516127402727,182.5225141477657,182.87709731691157,194.2597399027884,55.085173674394724,55.26827074121847,59.76331156265656,102.888243303808,104.40273343812336,122.12108943432816,,,
usp000a1b0,6.7,10.0,35.455999999999996,133.134,HYG013,,34.989000000000004,134.7634,157.1263951687102,,,0.060479544497166436,0.061661706487711875,0.07367797647435884,218.90218119147823,219.9618449994637,241.5268241365117,78.45206952466995,79.15163651555807,89.65184367481814,181.82718835089344,183.3463742254723,206.8998563042572,,,
usp000a1b0,6.7,10.0,35.455999999999996,133.134,HYG014,,35.0023,134.9999,177.15619641804489,,,0.006673492584417643,0.0066737141376175604,0.006728093512009003,83.16317818381535,83.1720124981986,84.38422426496233,16.426490188247687,16.429188280646528,16.726925843503288,30.45079867771049,30.47645278502913,31.7266664658274,,,
usp000a1b0,6.7,10.0,35.455999999999996,133.134,HYG015,,34.9515,135.2713,202.50863351385337,,,0.018912142909341314,0.019277498239242002,0.023012841455149983,135.49330165772886,135.94122835788372,146.9676862360047,38.30129967269628,38.79808227575131,44.98691347867521,96.30285357415659,97.23091241862595,110.6328049429325,,,
usp000a1b0,6.7,10.0,35.455999999999996,133.134,HYG016,,34.7551,134.39,138.41471785064576,,,0.08645567626617759,0.08645940972913288,0.08726288472437031,336.81844531626734,336.8345569628474,340.1290461630498,119.01086930424871,119.01196887689017,119.52355797069526,231.74693337512943,231.9551456914204,241.78105450187408,,,
usp000a1b0,6.7,10.0,35.455999999999996,133.134,HYG018,,34.8143,134.687,158.43019648910274,,,0.025956966985201127,0.026022835730407104,0.027873199040930552,175.32331271968232,175.37464201652318,179.61740991261857,52.834523102673685,52.83715313307739,53.36433405203255,87.6823039752082,87.69816009604162,89.36574932307968,,,
usp000a1b0,6.7,10.0,35.455999999999996,133.134,HYG019,,34.832,134.8236,168.81391729658674,,,0.04336988866968562,0.04342722852356753,0.0456581328283805,201.2907273611797,201.298489556192,203.06624972419525,68.84252301936885,68.86423910124932,70.59353124594475,158.75782592902902,159.75834334818254,177.60998124625505,,,
usp000a1b0,6.7,10.0,35.455999999999996,133.134,HYG020,,34.7976,134.9899,184.25259406860303,,,0.010364544979364995,0.010618092954799107,0.012924628314917024,126.56178008089279,127.32484188059969,141.24357683300957,24.752832015908844,25.497171730995326,31.612976949612474,18.853533175265266,18.929431685656304,20.622851524651047,,,
usp000a1b0,6.7,10.0,35.455999999999996,133.134,HYG021,,34.6898,135.1583,203.25268751020337,,,0.00993473228101074,0.011411769528028248,0.017026890031230042,103.79563664601534,106.75133696273502,131.69755424271062,21.638322533774108,23.926367679163288,34.136855828261425,38.89857270155419,44.67843057964029,66.65712937737713,,,
usp000a1b0,6.7,10.0,35.455999999999996,133.134,HYG022,,34.7463,135.3499,216.82939081954484,,,0.01586103422200239,0.01664636670349369,0.021699001445452826,194.56432094062112,194.68011162681168,201.39359655960632,35.17841534302356,36.374227948016035,45.624284854216995,42.26424218255382,45.24508867491232,61.39599830672929,,,
usp000a1b0,6.7,10.0,35.455999999999996,133.134,HYG023,,34.6444,134.9999,192.5710302184317,,,0.02074521905587684,0.020772218776315788,0.021830972390151783,163.1056356385852,163.1989980461222,168.7184714078915,45.128482344732134,45.19557376118287,47.65727416206871,55.81006384133624,55.84527143129782,57.82797545895857,,,
