USGS_eventID,magnitude,depth(km),source_lat,source_lon,station_name,elev(m),station_lat,station_lon,rdist(km),rake_angle,fault_type,Ia_geom,Ia_arith,Ia_max,CAV_geom,CAV_arith,CAV_max,CAV5_geom,CAV5_arith,CAV5_max,CAVstd_geom,CAVstd_arith,CAVstd_max, Vs30,PGA,PGV
usp000d6vk,6.6,16.0,37.226,138.779,NIG006,,38.4501,139.4961,149.81292503693268,,,0.04878632917393602,0.04884480831811183,0.051234240335443035,220.52829501922142,220.7875182608199,231.48327983665524,70.41594053944053,70.64524793039102,76.33263512420774,135.33175822667795,136.3929390525137,153.37378233718877,,,
usp000d6vk,6.6,16.0,37.226,138.779,NIG007,,38.2301,139.4864,127.70650925493223,,,0.03373853346518914,0.03378517099760457,0.03555975234420265,230.66278285831035,230.90080942385143,241.3824312759179,63.13608364953402,63.182001722942545,65.59037941694285,94.68646883696859,94.89554500164408,101.19134362809584,,,
usp000d6vk,6.6,16.0,37.226,138.779,NIG008,,38.053,139.4055,107.15658461507292,,,0.04652634832610991,0.04657266510811442,0.04864921193158562,275.04177783118166,275.0904901463486,280.267189521556,85.89625541285362,85.91869618041193,87.88227948441259,128.8710059269356,130.21955366635524,148.91169074172734,,,
usp000d6vk,6.6,16.0,37.226,138.779,NIG009,,37.9507,139.3375,94.35381197241558,,,0.020482042653250543,0.020532215660267184,0.02196672208065933,209.98051173107845,210.15340863586312,218.6763103967949,46.61060536436658,46.72948756122818,50.06062479980909,44.34754481243845,44.73829126388085,50.638289087660176,,,
usp000d6vk,6.6,16.0,37.226,138.779,NIG010,,37.9146,139.0108,79.12236636000618,,,0.15230020053752752,0.15401246622514075,0.1769141838240244,702.0484796404477,702.0650075992952,706.8823855099281,234.80098355419997,234.8238442496188,238.10042022913024,241.1229382892454,242.4391058410772,267.66704019531613,,,
usp000d6vk,6.6,16.0,37.226,138.779,NIG011,,37.8013,139.1442,71.54984216140346,,,0.10068826180459617,0.10095910541866886,0.10834929497692736,548.1908855799279,548.5904455286359,569.5243866865143,173.25191030493755,174.04320242760818,190.6206535871584,222.675191883928,222.68441184943558,224.71078797071686,,,
usp000d6vk,6.6,16.0,37.226,138.779,NIG012,,37.6863,139.4772,80.16183587376409,,,0.6674562005885332,0.670055032585541,0.7290123645225465,815.2053574236974,815.2182359227237,819.8005288704909,334.22832917514165,334.2359751810416,336.49674540707366,558.397647622529,558.4582380584152,566.6844634951243,,,
usp000d6vk,6.6,16.0,37.226,138.779,NIG013,,37.7638,138.8834,60.39853306408038,,,0.3982488475151622,0.4014018978359056,0.4516148348054944,1211.1477037118898,1211.4847434404905,1240.0596167120896,445.0604362258369,445.12598967380563,452.76502034219925,554.7199280857701,555.8103791647134,590.6095023108568,,,
usp000d6vk,6.6,16.0,37.226,138.779,NIG014,,37.641,138.9559,48.64728368117696,,,0.5479340295776733,0.5495152812278274,0.5911727359469027,1370.4865730575045,1370.588657037108,1387.316474225286,520.5468559615516,520.5803993808178,526.4899651885039,773.5884699787892,774.9804180155829,821.4080759737802,,,
usp000d6vk,6.6,16.0,37.226,138.779,NIG015,,37.6935,139.1886,63.2880097508456,,,0.06572762462276813,0.06573257703353373,0.06653945057872503,379.9782879275716,379.97934362759867,380.87504854116685,113.19492648123655,113.25846500211318,117.05168441869631,149.05055640254966,149.46956909513045,160.6536524985365,,,
usp000d6vk,6.6,16.0,37.226,138.779,NIG016,,37.6421,138.7676,46.19220966208209,,,0.1930372156008858,0.19306365536018905,0.1962587162508395,503.8289456203775,503.8376687073452,506.8024559697496,189.19158281375732,189.19160308616085,189.279185827668,306.05202439462056,306.5280289919918,323.60406253816086,,,
usp000d6vk,6.6,16.0,37.226,138.779,NIG017,,37.4416,138.8431,24.59318333600985,,,2.9150699033407483,2.944131685826643,3.3567802555871498,2079.699504519591,2082.8151995973735,2196.697272702907,878.9834510775337,880.6790143822464,935.301529017823,1555.134435341181,1559.4445622443955,1675.307544812949,,,
usp000d6vk,6.6,16.0,37.226,138.779,NIG018,,37.3724,138.5579,25.461276325854264,,,0.5543736918132979,0.592549639737329,0.8017980217576758,1341.3031450437406,1357.7240042679312,1568.2479811948251,514.9360690726409,524.3840450852819,623.477291616109,818.3128226797996,847.3589014218802,1067.3162428695225,,,
usp000d6vk,6.6,16.0,37.226,138.779,NIG019,,37.3057,138.7898,8.897039636438233,,,18.253431815038414,18.531562999177783,21.730164907236748,4866.744066446966,4870.69197324682,5066.759538015297,2242.811785025047,2245.2208440163854,2349.2013006340258,4061.541315813262,4065.728856058165,4250.209941608729,,,
usp000d6vk,6.6,16.0,37.226,138.779,NIG020,,37.2332,138.96200000000002,16.259671302106387,,,2.9234918474647165,2.972990178829148,3.513236438623616,2205.9588094409196,2209.1575279848803,2327.9965556747306,932.0054565687456,934.05217041829,995.8525424980942,1634.4810527646184,1638.907883493318,1759.2853678083338,,,
usp000d6vk,6.6,16.0,37.226,138.779,NIG021,,37.1281,138.7468,11.235027557752021,,,7.051548508840155,7.4914019171890045,10.020584850932076,1944.1578661507572,1946.332161693236,2038.3053921768872,827.4121487738863,828.5822226372061,872.6008065739114,1521.3007213395276,1523.6776646742655,1608.752579185277,,,
usp000d6vk,6.6,16.0,37.226,138.779,NIG022,,37.0364,138.8462,21.872693853363046,,,0.8078465855459491,0.8079267603172621,0.8193085114346444,995.4522358122113,995.788240218004,1021.654542097838,371.9424407323068,372.143650021767,384.3795412282877,642.838230281263,643.7890483506945,678.7654470381927,,,
usp000d6vk,6.6,16.0,37.226,138.779,NIG023,,37.0147,138.6529,25.990262052635355,,,0.5308251776808695,0.535871840932121,0.6092425479210399,597.5068504291868,597.670817951876,611.6697579638129,237.03219722306872,237.1461694853216,244.4975762326824,399.00444470369723,399.0256439301462,403.1387474496437,,,
usp000d6vk,6.6,16.0,37.226,138.779,NIG024,,37.1268,138.444,31.721585766192824,,,0.8609170167046901,0.8620155644972379,0.9055210099470682,1026.2738879930216,1026.6221240081481,1053.3595944698052,400.3744089275907,400.6118773040112,414.403502042472,697.6206736664196,697.9517738489003,719.4476872288263,,,
usp000d6vk,6.6,16.0,37.226,138.779,NIG025,,37.1607,138.2235,49.85001820320536,,,0.6738682395093774,0.6792554420085004,0.7646343110493572,973.4769392479956,974.0593071674167,1007.7369352285257,402.3447153461421,402.6745191701036,418.9686414817229,657.299722841973,657.5415936344932,675.3747568775749,,,
usp000d6vk,6.6,16.0,37.226,138.779,NIG026,,37.0228,138.2507,52.08329867188029,,,0.09260754932088168,0.09297025186813546,0.10117449108972176,407.9832226462864,408.26016907812857,423.2953177256437,125.57649420077726,125.64089013595249,129.66300132246192,205.01451098868145,205.26840882461946,215.47477671250616,,,
usp000d6vk,6.6,16.0,37.226,138.779,NIG027,,37.0235,137.8624,84.49757229067961,,,0.06785457271509115,0.06796652065879287,0.07186586574669246,335.64168331969495,335.66496680104467,339.61849128788776,109.64464192022795,109.64567208803902,110.12096759903172,174.31922565669294,174.3970413435807,179.60622514198562,,,
usp000d6vk,6.6,16.0,37.226,138.779,NIG028,,37.4261,138.8862,24.154922906716624,,,12.194125177875831,12.471104922784818,15.084870241516105,4538.23695112966,4560.950902775111,5015.5699883032785,1967.4789968077575,1980.0916951848367,2203.2273455419668,3623.71630243575,3652.491539087021,4110.066235244542,,,
usp000d6vk,6.6,16.0,37.226,138.779,SIG007,,35.1339,136.0957,334.86912627415865,,,1.0470598435284223e-05,1.0507098773718682e-05,1.1382137657257093e-05,2.4060461530556507,2.4149407126255285,2.6220169180726844,0.0,0.0,0.0,14.8117542206789,14.82662447323561,15.490499594436855,,,
usp000d6vk,6.6,16.0,37.226,138.779,SIG011,,34.8779,136.0587,357.6837322774603,,,2.4433327306549825e-06,2.533821658687029e-06,3.2049232645125215e-06,1.004459815863609,1.0161936839975962,1.1701744675774015,0.0,0.0,0.0,12.422912914044662,12.42949884105715,12.834067957406086,,,
usp000d6vk,6.6,16.0,37.226,138.779,SIT001,,36.2428,139.1937,115.22405534124478,,,0.023985329090680463,0.02419657188021873,0.02738688207929801,211.18077607325336,211.43873850890319,221.88000085283196,46.57891372712681,46.68337457482525,49.80463356669336,32.71409497123046,35.39025806019556,48.89056753000217,,,
usp000d6vk,6.6,16.0,37.226,138.779,SIT002,,36.1476,139.3884,131.4823835151034,,,0.02045673288444541,0.0204710309702564,0.021236007231094686,191.39048676413762,191.39336744328224,192.44345194737102,39.478276205084356,39.49006827662392,40.455055513580774,42.3787052022299,43.22744413405657,51.751367628872394,,,
usp000d6vk,6.6,16.0,37.226,138.779,SIT003,,36.072,139.6968,152.09921491922415,,,0.09397131991747966,0.09843134892950722,0.12772505960345726,712.8898715313817,721.6855412083879,834.0156416143499,195.6457475390424,201.2486134527111,248.40522366303054,134.52159372290114,144.81897750293533,198.45177593119567,,,
usp000d6vk,6.6,16.0,37.226,138.779,SIT004,,36.1179,139.1045,126.36295368192523,,,0.11691106289595694,0.11696148877817755,0.12039561599558672,316.99769127565764,317.2634588733572,330.24675823019265,112.01547292620012,112.19086288375988,118.46171128906649,213.60489196372632,214.43971274850517,233.3431656824592,,,
usp000d6vk,6.6,16.0,37.226,138.779,SIT005,,36.0562,139.2626,136.82760932710536,,,0.003725550404435281,0.0038844123081034155,0.004983927275421927,66.80239309221757,67.06400451409719,72.98185704856364,7.789727731131286,8.460809630706546,11.763148420398002,9.693718571276117,10.576529917747033,14.806755131833693,,,
usp000d6vk,6.6,16.0,37.226,138.779,SIT006,,35.9954,139.0709,139.03439244098752,,,0.014305276107308853,0.014629953638957015,0.01769501790772694,109.42038253964529,109.64728612949892,116.69762232303604,27.72311047367713,27.88872012761453,30.92349458722513,36.186854248198095,36.18848060109035,36.53156635590962,,,
usp000d6vk,6.6,16.0,37.226,138.779,SIT009,,35.9032,139.4837,159.7696510316959,,,0.008235504732028241,0.008247709577104046,0.008696235024536222,141.74609658876582,142.08977439521792,151.96641803221266,17.116769001869777,17.16220322147874,18.410176919905567,11.417512013314958,11.490843217973865,12.786951734211819,,,
usp000d6vk,6.6,16.0,37.226,138.779,SIT011,,35.8098,139.7212,178.3774887262178,,,0.034049289639386235,0.03442622774043499,0.03950668357524747,322.66160970963807,323.3469920769327,344.38892413616134,70.6535709318736,71.14299209204239,79.47355260038233,60.968080314809036,61.01972658643128,63.529749576330175,,,
usp000d6vk,6.6,16.0,37.226,138.779,SIT014,,35.9954,138.80100000000002,136.57432306268697,,,0.006011223638400979,0.006011374670564215,0.006053986864010668,77.50445162675237,77.50736454084117,78.17932890242889,15.339583367381891,15.3447624937827,15.743407832073627,14.560254915852726,14.87108469595428,17.89567339851075,,,
usp000d6vk,6.6,16.0,37.226,138.779,SZO010,,35.3091,138.9349,213.1675930688969,,,0.0017787561233483847,0.0017837979389587024,0.0019178193577093605,72.7742252782677,72.77447775677196,72.96617522373883,0.0,0.0,0.0,9.31823488387372,9.33454201726179,9.886061120271552,,,
usp000d6vk,6.6,16.0,37.226,138.779,TCG001,,36.9417,140.0828,120.1416204594167,,,0.00746797408248208,0.0074755726914086705,0.007812544749465418,127.88875403157387,128.05859131682863,134.65172428243363,15.761207148508193,15.816706750573196,17.14055026679483,12.050345625566163,12.098259118074145,13.173918912090185,,,
usp000d6vk,6.6,16.0,37.226,138.779,TCG002,,36.99,139.8033,94.7373073444989,,,0.01663307234355509,0.019009314964404327,0.02821230142696032,154.22711452858078,158.05879840943578,192.65042888304424,38.29373630103621,41.969879331631496,59.14720541046022,12.64550720836243,34.9733950906528,67.58059539380902,,,
usp000d6vk,6.6,16.0,37.226,138.779,TCG003,,36.8144,139.7153,95.01865721900484,,,0.0318146528996221,0.03183536084176971,0.03298342913340193,199.27849211875642,199.35112949189025,204.73215249566468,63.24168586601223,63.30015513315915,66.02023026201937,59.50582877510122,60.77044886195359,73.10348566039268,,,
usp000d6vk,6.6,16.0,37.226,138.779,TCG004,,36.8061,139.4204,73.6858908385623,,,0.032057846898197205,0.032058826620511696,0.03230945889253014,219.8780234634473,219.92247606271724,224.3440453954488,62.12474461752938,62.13841222409717,63.44163129186077,59.60503202211217,59.63796670400954,61.61969075935434,,,
usp000d6vk,6.6,16.0,37.226,138.779,TCG005,,36.8061,139.9264,112.24006516579928,,,0.06408555559092677,0.06420590512365999,0.0681352584229529,303.1050478710676,303.16319127527333,309.10040436609387,91.64226369261331,91.71518969369978,95.37189939572218,161.59741451533694,162.12493557242252,175.1928488075381,,,
usp000d6vk,6.6,16.0,37.226,138.779,TCG006,,36.7639,140.1297,130.7140501646188,,,0.011722600033487282,0.011877161230984356,0.013787032263719764,182.37221977071164,182.7191092894276,193.97283558008561,24.51145735251687,25.689189723293108,33.378333179822924,18.35353568859821,18.564820316775158,21.357718653897294,,,
usp000d6vk,6.6,16.0,37.226,138.779,TCG007,,36.5692,139.8861,122.67641371930429,,,0.005512847288461961,0.0055144205539823824,0.005646135474477265,114.64788116837342,114.64841285733554,114.99757515282144,10.131580048304633,10.159766308099293,10.916031579009623,10.092151320793233,10.097900537132222,10.438601250408091,,,
usp000d6vk,6.6,16.0,37.226,138.779,TCG008,,36.56,139.7675,115.00404199705083,,,0.009656999881283771,0.009658325117676529,0.009818316903798774,139.78232216603251,139.8040097373869,142.26643710136455,23.09286214300637,23.106332819602088,23.89521456886739,12.353765044110649,12.475191258733012,14.21153401777524,,,
usp000d6vk,6.6,16.0,37.226,138.779,TCG009,,36.7258,139.7155,100.1721163774338,,,0.22009796886809704,0.2260365952045272,0.2775091750096377,607.1390583665419,609.5285492484808,663.4471560066895,244.06275179359298,245.3729583484951,270.6961073555069,413.2787917655192,416.09378630619017,464.41230531758026,,,
usp000d6vk,6.6,16.0,37.226,138.779,TCG010,,36.6347,139.4376,88.02762246040476,,,0.017641846868923873,0.01809671799295773,0.02212864571677435,147.82992087998312,149.037638142128,167.97258138476323,37.62257996867715,38.34182154641439,45.733489558276034,31.0639731571383,31.43165733894381,36.22526295114965,,,
usp000d6vk,6.6,16.0,37.226,138.779,TCG011,,36.3867,139.6145,119.30490230234905,,,0.004364362368902923,0.004364380089934361,0.004376817224633551,82.4738923225935,82.47822274250211,83.32339250240021,9.146704945857797,9.147986686329887,9.301117501940055,9.90956046388932,10.067658216662768,11.84483389173235,,,
usp000d6vk,6.6,16.0,37.226,138.779,TCG012,,36.2859,139.8047,138.82383856401336,,,0.02545193198520923,0.025609008821134004,0.02844105596431553,274.9555430833529,274.97945122137037,278.6054575292076,53.923836125456496,53.98338656309181,56.518326865172966,23.637891829748675,26.63661265845705,38.91501661669917,,,
usp000d6vk,6.6,16.0,37.226,138.779,TCG013,,36.4368,140.0225,141.33362859594212,,,0.005723288666091929,0.005762069396750974,0.006429460269896385,112.0033447724423,112.14194974792692,117.71578622310194,12.291249218613999,12.394191319283474,13.98829643028546,11.509747213013814,11.516480610768001,11.910237833833305,,,
usp000d6vk,6.6,16.0,37.226,138.779,TCG014,,36.545,140.1742,145.5330380003127,,,0.03886685608490004,0.03993118790899069,0.04908909519716483,253.95214274788842,255.35063927027144,282.03880461546527,76.85529104772203,78.13104179721583,92.19247594484895,117.05447832592812,119.11380531150564,141.16709802783456,,,
usp000d6vk,6.6,16.0,37.226,138.779,TKY001,,35.8029,139.0956,160.4452297897049,,,0.0008473702160954992,0.0008640705956979432,0.0010331318604041594,33.3246931400891,33.42160188140022,35.964887047816504,0.8697372717097579,0.9024808044193172,1.1433722333747802,7.74309271266933,7.7955671888439575,8.698552813750354,,,
usp000d6vk,6.6,16.0,37.226,138.779,TKY002,,35.7304,139.1454,169.18013156139298,,,0.0008763349515192536,0.0008810601217908637,0.0009721863581658992,32.2356078068206,32.291335872541666,34.18763799987871,1.0258149830131773,1.0425267555132631,1.2284451693045992,6.482426088065018,6.713305902230638,8.458765197000583,,,
usp000d6vk,6.6,16.0,37.226,138.779,TKY003,,35.7968,139.2912,165.09878526457157,,,0.016009309073254055,0.016337895449686828,0.019598087272559062,137.15442916805142,137.41428668709403,145.86110533726324,37.432593671027824,37.86859085509752,43.59843416975311,29.257199112197288,31.830883984205087,44.369682783339215,,,
usp000d6vk,6.6,16.0,37.226,138.779,TKY004,,35.6282,139.4034,185.93287626679958,,,0.0055754779100680605,0.005622893225963954,0.006351573063021645,107.727259278082,107.7837652422802,111.2734154018038,12.330729448584163,12.541585098394851,14.831665456395207,11.644802359060574,11.826027201704619,13.888428082686513,,,
usp000d6vk,6.6,16.0,37.226,138.779,TKY005,,35.5782,139.4156,191.55877034033927,,,0.0058349942363701965,0.005838949758739004,0.0060538370468806,108.86522784331413,109.03145906364216,115.04986684061902,12.56655778094213,12.634003214275095,13.93771436194406,13.764039642634929,13.772052261608989,14.241771552743034,,,
usp000d6vk,6.6,16.0,37.226,138.779,TKY007,,35.7107,139.6859,186.7621892773096,,,0.009821098104927371,0.009865965523843518,0.010805810048784205,186.0477364520425,186.5001070118745,199.4820050438257,18.699017739285765,18.821185131470394,20.962153449535467,14.322661469806885,14.385657406051953,15.730464985450109,,,
usp000d6vk,6.6,16.0,37.226,138.779,TKY013,,35.6596,139.8343,197.89773710681717,,,0.02002834932046564,0.020035474343958484,0.020569754874038428,460.72002684818716,460.7453666576573,465.5775253372456,33.29029012653257,33.291004262148924,33.50905947007732,10.92269054956521,11.00790043333421,12.374905593762795,,,
usp000d6vk,6.6,16.0,37.226,138.779,TKY014,,35.689,139.8354,195.07816827325212,,,0.012948575941296048,0.013057969548434613,0.014744667452724156,329.27543611829464,329.79434255287515,348.2874642198616,20.469082834157415,20.728681192071868,23.998982690551195,10.567590622158038,10.590137844826026,11.280824470506534,,,
usp000d6vk,6.6,16.0,37.226,138.779,TKY015,,35.7313,139.8121,189.9495626276721,,,0.02289733227773455,0.02292583579540558,0.024068692514734508,349.0249060006836,349.08664467763094,355.6517405261734,42.92231563078287,42.9787400883616,45.18031236162317,32.79489303061237,33.516482286327985,40.43382107811992,,,
usp000d6vk,6.6,16.0,37.226,138.779,TKY016,,35.6485,139.799,197.49829770893604,,,0.015515187867464263,0.015613418077949984,0.017362065988235285,336.10428179313044,336.4980342425865,352.7719031571655,28.632397153193068,29.34356852295318,35.76469357414713,8.240566753652676,8.243131330842813,8.448737060618567,,,
usp000d6vk,6.6,16.0,37.226,138.779,TKY017,,35.6474,139.8093,198.035824356344,,,0.01591151794807303,0.016033753615187985,0.018009823345917032,336.40865131135087,336.8121542894873,353.29385929847604,29.62642883157433,30.23444434818829,36.26738225035132,9.829880163902887,9.884786478070662,10.925199703840649,,,
usp000d6vk,6.6,16.0,37.226,138.779,TKY020,,35.6657,139.8087,196.2117563270514,,,0.010853197644288746,0.01102993642418117,0.012996557489735924,291.5213489965039,291.96711349103407,308.09468117946636,15.575505277449972,15.866606098648553,18.891969620904934,7.679169237054299,7.7404293504744555,8.712337966736962,,,
usp000d6vk,6.6,16.0,37.226,138.779,TKY021,,35.6876,139.8193,194.51852606079547,,,0.026619553306369767,0.027432704954207472,0.03406238691293953,389.19754840624984,390.96528784371714,428.10185490753423,56.17992635407851,59.06253069391834,77.28884153348105,16.356419044720163,17.887866765348353,25.12964371913321,,,
usp000d6vk,6.6,16.0,37.226,138.779,TKY023,,35.7254,139.8249,191.083113821787,,,0.02588464690310574,0.02626437154562295,0.03071434540937393,373.72344258773217,373.8967025862709,385.27794440166014,49.18240994820411,50.41700387942103,61.505954770481395,36.97958389810043,39.14604510803357,51.98828877195579,,,
usp000d6vk,6.6,16.0,37.226,138.779,TKY024,,35.7401,139.8624,191.34177372785,,,0.014376999360261747,0.014377699710113231,0.014519609361734674,330.4443113039644,330.4716219325861,334.72015457372436,26.62518496838231,26.635218180644717,27.366226340637244,10.349624384484018,10.379875561990307,11.171766831355848,,,
