USGS_eventID,magnitude,depth(km),source_lat,source_lon,station_name,elev(m),station_lat,station_lon,rdist(km),rake_angle,fault_type,Ia_geom,Ia_arith,Ia_max,CAV_geom,CAV_arith,CAV_max,CAV5_geom,CAV5_arith,CAV5_max,CAVstd_geom,CAVstd_arith,CAVstd_max, Vs30,PGA,PGV
usp000a1b0,6.7,10.0,35.455999999999996,133.134,HYG024,,34.533,134.9904,198.00512661483933,,,0.015996879921525285,0.0165930404164733,0.021000854278130532,153.42872467878246,154.2250878501114,169.87769676418546,34.47626839249604,35.385420433367585,43.35504382313743,38.53505987830423,43.598431090388715,63.99137971776678,,,
usp000a1b0,6.7,10.0,35.455999999999996,133.134,HYG026,,34.4149,134.7925,190.51592789215874,,,0.023908820680663214,0.02423535191293176,0.028200270071423224,142.74495370654228,143.54476913968534,158.67681918859347,44.38169832704749,44.86113840639587,51.40228453874578,77.65918197402453,81.21114041134716,104.96615634560587,,,
usp000a1b0,6.7,10.0,35.455999999999996,133.134,HYG027,,34.2499,134.7292,197.9456417633794,,,0.002960417597731032,0.0029633218001756233,0.003094484822558164,64.35642572039184,64.39642087331322,66.66566960110372,7.220528090106669,7.250061319455375,7.903791566456058,9.075009239957293,9.075328219638152,9.151417567449457,,,
usp000a1b0,6.7,10.0,35.455999999999996,133.134,KGW001,,34.5466,134.2814,145.42677326478662,,,0.12812528382388227,0.12908061465271814,0.14475596868932986,299.67577683500895,300.6596808484325,324.96343500731064,114.23971837456499,114.75413773880688,125.60765670166576,244.2723617248914,245.34183800103241,268.22481794396384,,,
usp000a1b0,6.7,10.0,35.455999999999996,133.134,KGW002,,34.4727,134.3139,153.33260585555772,,,0.17974676054079794,0.1802417567754912,0.1935906503852395,333.4649779964131,333.5326391210365,340.25051146987437,130.1285258218737,130.15639724305112,132.84981713547018,270.14881728662243,270.21624707923667,276.25252939753415,,,
usp000a1b0,6.7,10.0,35.455999999999996,133.134,KGW003,,34.2652,133.7896,145.07028808649167,,,0.07507871213889987,0.07693059922211617,0.0937086825524036,268.3244000530093,268.75685643864074,283.9970735949918,96.52232690771831,96.80991429996989,104.2664493590353,194.97336478859503,195.4291928728257,208.76922472951827,,,
usp000a1b0,6.7,10.0,35.455999999999996,133.134,KGW004,,34.3435,134.0456,148.90910088098306,,,0.06202193915985953,0.06272369256999387,0.0720800098190927,250.2548410628956,250.4611842159329,260.62579554309644,85.96524275495422,86.15054597651115,91.79798877239256,163.04707520125388,163.6537927594611,177.73268308765518,,,
usp000a1b0,6.7,10.0,35.455999999999996,133.134,KGW005,,34.1138,133.6354,155.80995585555462,,,0.11130481304682599,0.11301406531924907,0.13259511617446645,371.02206501409904,371.753528776312,395.0626134926597,135.86386993983075,136.30454268311144,147.25612709016883,247.0754041716609,248.35620553764429,273.5464711667913,,,
usp000a1b0,6.7,10.0,35.455999999999996,133.134,KGW006,,34.2496,134.1856,164.80208000036708,,,0.06543933574803898,0.06648340606209656,0.07821953057034225,237.3960505838713,238.09084857731483,256.26685868530785,84.12245744047867,84.45843167741181,91.98430940581645,163.1146432006647,163.6439332621853,176.79498139677978,,,
usp000a1b0,6.7,10.0,35.455999999999996,133.134,KGW007,,34.2271,134.4009,178.9187408651531,,,0.08397759104972613,0.08477945446040015,0.09641217125777912,257.7082690510399,258.50427120789374,278.7750949563529,95.89429961759147,96.65774428132937,108.7822166577447,180.10392321824776,182.21632267760654,209.88155521856208,,,
usp000a1b0,6.7,10.0,35.455999999999996,133.134,KGW008,,34.1644,133.9243,160.49714118343974,,,0.018911608062772062,0.01911897612208709,0.02192723687156016,136.82411867318405,137.11970139573026,146.1182046135261,39.256267444782,39.42896552105756,43.11526289979614,50.082366183679596,53.125600220412025,70.84807172477245,,,
usp000a1b0,6.7,10.0,35.455999999999996,133.134,KOC003,,33.5014,133.9068,228.14938161304968,,,0.037840435066383016,0.0378957774267162,0.039943073390191666,222.48016595818248,222.55516501738288,228.33246811953447,67.93673086428953,67.98802920417353,70.62861901340996,101.19379181068868,101.5281946010662,109.7617113422264,,,
usp000a1b0,6.7,10.0,35.455999999999996,133.134,KOC004,,33.6975,133.8771,206.64594202743183,,,0.012989275397076028,0.01299970194199012,0.013520254763034352,114.23520738198887,114.23972845728764,115.25607111053476,31.156048941791,31.166606404801442,31.977759367277695,36.9975698377789,37.0897734089058,39.703414092444575,,,
usp000a1b0,6.7,10.0,35.455999999999996,133.134,KOC005,,33.5934,133.6921,212.879371853694,,,0.004232362388446144,0.004310646507131101,0.005128437386456628,68.09662967030297,68.450458329264,75.40130525837421,10.059148831823725,10.280683830205136,12.403414334970355,14.48982722711801,14.730353466102061,17.3814325227457,,,
usp000a1b0,6.7,10.0,35.455999999999996,133.134,KOC006,,33.4945,133.4165,219.1330998624977,,,0.007952224662079557,0.007952239518667498,0.007967611118152513,94.09871599338557,94.14076937774813,96.95432716647773,18.571789936227344,18.575380298296587,18.940581326484658,26.13699653012598,26.88153467074036,33.164393784105776,,,
usp000a1b0,6.7,10.0,35.455999999999996,133.134,KOC007,,33.5611,133.5271,213.280793805792,,,0.03156739142289205,0.03160328350822191,0.03310904818272194,196.17585184454015,196.23090075472882,200.87864903548268,57.672645272957105,57.673909627663704,58.0557983019884,86.77180329148199,87.01754784106298,93.55266725971501,,,
usp000a1b0,6.7,10.0,35.455999999999996,133.134,KOC008,,33.7758,133.3465,187.40654712379475,,,0.004817053601766897,0.004825820430316933,0.00511657363041776,73.8001780058709,73.82540921213194,75.7553759580905,12.760010400027365,12.76716429105325,13.194503296924253,18.843424567006267,19.04706234300837,21.824819439298967,,,
usp000a1b0,6.7,10.0,35.455999999999996,133.134,KOC009,,33.5742,133.1718,208.78023429353792,,,0.002184808922732831,0.0022299516364161203,0.002676375506635825,51.22391870699115,51.37862410585449,55.362738475479716,4.630934985659176,4.808854894878482,6.104820387704022,14.374087454015124,14.376260320980007,14.626201675919928,,,
usp000a1b0,6.7,10.0,35.455999999999996,133.134,KOC010,,33.3925,133.2896,229.35061582271047,,,0.002037584226224504,0.002047761076459436,0.002251662884453868,49.0653524328286,49.10208348666919,51.00097615718853,4.229470375392462,4.377459580958396,5.506057262420662,13.137820624973376,13.201700875839267,14.498842055957859,,,
usp000a1b0,6.7,10.0,35.455999999999996,133.134,KOC011,,33.3995,132.8972,229.16369913118805,,,0.0012434287502184444,0.0012481956768562149,0.001357179119877348,43.89565954097666,43.89809639594103,44.360633583629856,1.2676433136419645,1.4241375228937934,2.0731738188687485,12.381314350170484,12.440187439698146,13.649037511909714,,,
usp000a1b0,6.7,10.0,35.455999999999996,133.134,KOC013,,33.0797,133.1015,263.6135123531235,,,0.011749866596521549,0.011771739429928476,0.012489014948874921,135.30885474330884,135.3325298514967,137.86382676422605,31.892875997226408,31.961315288146054,34.051802210807445,32.582364821221624,32.958984081298105,37.927297107676665,,,
usp000a1b0,6.7,10.0,35.455999999999996,133.134,KOC014,,32.9895,132.9377,274.1971776188009,,,0.005624115937588092,0.00566401568927378,0.006335129426957007,117.4305284882131,117.67765130159498,125.30002592101332,9.815372220024363,9.925397599562439,11.399163419417775,25.69164046774405,25.69311815227261,25.96867297951502,,,
usp000a1b0,6.7,10.0,35.455999999999996,133.134,KOC015,,32.937,132.7252,281.95072278882327,,,0.00336262910849354,0.00336272320266045,0.0033878790453792914,67.05696003632185,67.05968544643474,67.66427031384788,7.0170280835241305,7.0175713192515055,7.104887387732491,27.87368854323009,28.049963328718142,31.189697352076784,,,
usp000a1b0,6.7,10.0,35.455999999999996,133.134,KOC017,,33.7691,133.6565,193.17126586778,,,0.003770659159645953,0.0038379809857307045,0.0045536817252919476,63.046043013385784,63.11603681670525,66.08766327405176,8.893156331592238,9.37000047158793,12.321047624620054,10.094581468474956,10.262961439174765,12.114393986774092,,,
usp000a1b0,6.7,10.0,35.455999999999996,133.134,KYT002,,35.6037,134.8941,160.47040634032894,,,0.016213253742972257,0.016299696254144385,0.0179761511576132,149.48705961094532,149.48757358979827,149.8795769559243,34.45253044271911,34.46165740379766,35.25473817536814,53.886765911794306,53.92393402136675,55.925713207040516,,,
usp000a1b0,6.7,10.0,35.455999999999996,133.134,KYT003,,35.6767,135.2919,197.14623023558482,,,0.0030867432600014664,0.003092766336128776,0.003285690302309588,66.15923082536385,66.17586510682307,67.65954271084152,6.425208195804213,6.463343407326378,7.164419467108568,16.646103532557813,16.75987050197705,18.7093566974672,,,
usp000a1b0,6.7,10.0,35.455999999999996,133.134,KYT004,,35.5354,135.196,187.29781921794984,,,0.013387412532893621,0.013387421674955671,0.013403067031956938,137.61368090958902,137.66127798116597,141.2809854170873,31.634289683938647,31.71306518676888,33.94694515957521,45.077266783941496,45.692660479335224,53.16656447719126,,,
usp000a1b0,6.7,10.0,35.455999999999996,133.134,KYT006,,35.2759,135.1827,187.25126890724255,,,0.014942604776152902,0.015828155614481837,0.02104822004511344,114.71141458429315,115.52462882775184,129.20787514798778,30.777828894713803,31.47158332071372,38.04317409010483,49.93034053395483,54.74337358955576,77.18881958933437,,,
usp000a1b0,6.7,10.0,35.455999999999996,133.134,KYT007,,35.3057,135.713,234.9219163940612,,,0.0009409524761594668,0.0009475767885821977,0.001059425829119516,33.917871924075044,33.93335027684691,34.958155211080104,1.0608945114105115,1.1134263388249048,1.4513923839360716,12.577867956760045,12.65899873856737,14.089902902150355,,,
usp000a1b0,6.7,10.0,35.455999999999996,133.134,KYT008,,35.2612,135.3966,206.7713432811148,,,0.0018421339061619074,0.0018966175402282146,0.002347949752318152,44.233535619146366,44.453346049385146,48.86858122048262,3.2115876085242165,3.431517574366405,4.640243306680897,15.918074632186014,16.156835317361256,18.92418558006527,,,
usp000a1b0,6.7,10.0,35.455999999999996,133.134,KYT010,,35.2098,135.7738,241.54432257627025,,,0.0016820449673466665,0.0016976668934606679,0.0019274441964654406,42.13615444482087,42.17082457392107,43.88048355939969,2.5333069214016604,2.7449609385819005,3.8019219578815115,14.667796839177262,14.820338651362581,16.941228470682073,,,
usp000a1b0,6.7,10.0,35.455999999999996,133.134,KYT011,,35.016999999999996,135.5638,226.46440899564632,,,0.0076299451942207,0.007675484848608319,0.008510352499439454,122.6471309714561,122.79562239523253,128.83268657437046,18.688632536293884,18.811830580322773,20.961245316046146,22.315856065043928,22.41938053435749,24.571400894059078,,,
usp000a1b0,6.7,10.0,35.455999999999996,133.134,KYT013,,34.8784,135.8047,251.59402428547557,,,0.00190494946382982,0.0019204882385467574,0.0021642968000266877,60.77352323275865,60.9212826595591,65.16174899750379,1.5748133075435626,1.6639209996752369,2.2011324473789755,16.20551434439239,16.209522444109954,16.56997035962193,,,
usp000a1b0,6.7,10.0,35.455999999999996,133.134,MIE002,,35.0279,136.5073,310.66870584218026,,,0.0037756969745498647,0.0038491526910304492,0.004597543494850184,86.97162996646759,87.51033914808241,97.20544300457821,6.394100699981843,6.504137050727063,7.695470342938862,17.733413253014103,17.997815304899973,21.071479266219672,,,
usp000a1b0,6.7,10.0,35.455999999999996,133.134,MIE003,,34.9704,136.6357,323.33350505578704,,,0.0066987814185466045,0.006699755748487178,0.006814012459107131,137.69412156182378,137.71133800090215,139.88883686804607,13.628473042897935,13.687232769123307,14.954143734884966,32.27566274301983,32.27975151702552,32.79351459447767,,,
usp000a1b0,6.7,10.0,35.455999999999996,133.134,MIE004,,34.8569,136.4493,309.2795299642113,,,0.0021583333433999184,0.002160571176923905,0.0022588818544847762,59.774393482398146,59.803459479228074,61.667768867476866,3.439242029379576,3.4521935166431064,3.750948164643358,25.204155725845546,25.243051446586104,26.643829973805857,,,
usp000a1b0,6.7,10.0,35.455999999999996,133.134,MIE005,,34.7677,136.1151,282.27899263848167,,,0.0016563529930269196,0.001725221873907688,0.0022078037599128717,53.73208018142742,53.9289036717733,58.532186263148525,0.4780593961567063,2.277440026627872,4.504139891592399,21.67328342110333,21.8207908198613,24.35371358865449,,,
usp000a1b0,6.7,10.0,35.455999999999996,133.134,MIE007,,34.650999999999996,136.3404,305.82758972984175,,,0.002748624459758252,0.002779279484475361,0.0031909322896938987,57.442547646922215,57.50614684469584,60.20996724457303,5.4775411744615266,5.7388948332361736,7.451044531429504,31.986624525381732,32.261664585906914,36.465335996211074,,,
usp000a1b0,6.7,10.0,35.455999999999996,133.134,MIE008,,34.6285,136.1073,286.38483655784813,,,0.001341034862726224,0.0014409558046774619,0.001968193064349546,44.24461185515375,44.94883294366025,52.87422913463175,1.7515467692523246,1.9758577493058544,2.890241564021393,26.45297741956875,26.90459578568193,31.81349179504298,,,
usp000a1b0,6.7,10.0,35.455999999999996,133.134,MYZ002,,32.6978,131.6831,333.96347549777266,,,0.00024010717014477778,0.00024019488874858267,0.0002466857612639508,19.006559039414785,19.010120873991944,19.37810066287217,0.0,0.0,0.0,20.31727616791177,20.43962588715954,22.67269452109057,,,
usp000a1b0,6.7,10.0,35.455999999999996,133.134,NAR001,,34.7154,135.7272,250.3382660312764,,,0.002713484382797209,0.0027142458345355137,0.0027785338941503,78.25815501455294,78.25858703255693,78.5186217427262,1.9852671638745285,2.161963539653354,3.0180012928114994,19.622493947331353,19.66926621179732,21.02490797771348,,,
usp000a1b0,6.7,10.0,35.455999999999996,133.134,NAR002,,34.6683,135.8352,261.4271910149171,,,0.006152633340992381,0.006266703748324217,0.007456946933799241,134.176164230999,134.64268195370025,145.8412870427847,10.627547875875504,11.044240812115063,14.049316728287895,28.207070713951,28.63946478686471,33.59729748031368,,,
usp000a1b0,6.7,10.0,35.455999999999996,133.134,OIT001,,33.6783,131.5936,242.6258444435013,,,0.00529227143351411,0.005324916589369643,0.005913643824814511,110.11704899848793,110.69282619035549,121.96834346775213,11.129326983344193,11.13761306225308,11.567154238716025,18.661047895939763,18.71826354005034,20.18068665947233,,,
usp000a1b0,6.7,10.0,35.455999999999996,133.134,OIT003,,33.5583,131.4489,261.2606232047413,,,0.0015572397632232836,0.0016076788168114676,0.002007222929345506,51.069933775527524,51.24322677026144,55.45394571026117,1.5467448066739662,2.2976852418979026,3.9967844072977736,19.551108297279125,19.551199768930672,19.611005727648735,,,
usp000a1b0,6.7,10.0,35.455999999999996,133.134,OIT004,,33.5666,131.7378,245.6901337935593,,,0.0030659970578143345,0.0030878033812576505,0.003454125319967337,68.98037304336123,69.01644205466064,71.24745274111056,6.024147474049026,6.1808753308128015,7.563939706017012,18.945117164522784,19.02786746786422,20.80051407593639,,,
usp000a1b0,6.7,10.0,35.455999999999996,133.134,OIT009,,33.2569,131.3439,294.3138894124816,,,0.002778518564100594,0.002780399236299262,0.0028826464962229065,80.24638272075484,80.25152561184014,81.16005368623985,1.657807730801949,1.6616114876163537,1.7739781351231811,25.68011951746324,25.680126880087066,25.699572861016684,,,
usp000a1b0,6.7,10.0,35.455999999999996,133.134,OIT011,,33.2461,131.8811,270.88291477559267,,,0.0015841343080167695,0.0015890806496733085,0.0017143635508624722,47.86795723682566,47.9416545851892,50.59889268875122,1.3919661720006573,1.4569503162087512,1.8872227879131536,22.562658020787328,22.56556185719346,22.92756319396636,,,
usp000a1b0,6.7,10.0,35.455999999999996,133.134,OKY002,,35.1787,134.05,88.79541036948126,,,0.16299093123326247,0.16840562842000045,0.21076612911639409,447.91318287753097,451.37731900638636,507.191875511948,183.8208860464509,185.673432600151,211.83648721196042,351.2657221135595,355.0552146402765,406.79106208952993,,,
usp000a1b0,6.7,10.0,35.455999999999996,133.134,OKY003,,35.1737,134.3386,113.9314691915037,,,0.08467348919321993,0.08476670319218008,0.08874089467181674,320.9039688923984,321.0219816583105,329.72574273816946,122.26686901550077,122.34322790356752,126.66505101547784,208.82411072008583,209.2534089190061,222.65042075710213,,,
usp000a1b0,6.7,10.0,35.455999999999996,133.134,OKY004,,34.9579,133.5018,64.61773646411206,,,4.8103888199976375,5.2069993599361055,7.200238365880129,2258.8809036784533,2273.541922310353,2531.3207722951224,1002.3907406419622,1011.3544038037027,1145.7066764618205,1914.4284225150625,1932.801166747984,2198.6661047312728,,,
usp000a1b0,6.7,10.0,35.455999999999996,133.134,OKY005,,35.0098,133.7317,73.55798632175548,,,0.8039906715472476,0.8052179861794543,0.8496590182545724,1134.6934519355975,1136.5314376655485,1201.1416453466566,458.01933604098684,458.90126981758436,487.3382748069457,833.4109160965161,835.6867080588803,897.3188340765178,,,
usp000a1b0,6.7,10.0,35.455999999999996,133.134,OKY006,,35.0684,134.005,90.17130588961818,,,0.17820893510930608,0.1783356278341866,0.18505661007048552,494.5971799656615,494.69858463261016,504.7145322923584,200.6259552557774,200.6813700715421,205.39712785773614,364.6708166002928,364.7064107608138,369.80166052026084,,,
usp000a1b0,6.7,10.0,35.455999999999996,133.134,OKY007,,34.7807,133.6121,86.67340542287913,,,0.2754728419739104,0.2775493496779618,0.3114367343731035,663.6474943104537,664.6113045707989,700.3910398794255,279.70710391763043,280.23318431377425,297.3963311304179,509.05185732793626,510.9336187062056,554.7442255862381,,,
usp000a1b0,6.7,10.0,35.455999999999996,133.134,OKY008,,34.8701,133.9036,95.61026496666315,,,0.294720491341497,0.2949258314469613,0.3059293780619393,568.6971850251842,568.8588053922872,582.4180169022311,240.71092346943428,240.80171844618408,247.41374756949267,456.8670161686868,457.2212372600089,475.2153846055742,,,
usp000a1b0,6.7,10.0,35.455999999999996,133.134,OKY009,,34.9176,134.0923,105.7635171828838,,,0.2474991640621035,0.2481010011956,0.2653715131399256,566.4442418036155,566.8668122881129,588.7506830886306,238.6292804193185,238.88744956712074,249.99060620124587,463.15845643136254,463.7433120173077,487.0264320165612,,,
usp000a1b0,6.7,10.0,35.455999999999996,133.134,OKY010,,34.7454,134.1884,124.32557753662044,,,0.1389913725796035,0.16267509516834153,0.24720074178797305,375.44612562753633,386.1782249696732,476.58745122451757,146.033172638809,152.47745965771318,196.33732961549296,297.9680513951675,315.9854564549446,421.1607816924095,,,
usp000a1b0,6.7,10.0,35.455999999999996,133.134,OKY011,,34.654,133.9067,113.51366631816772,,,0.3637239854673014,0.3742380598565807,0.4623231768798324,633.5426715089748,635.0448601096869,678.6986999064684,263.8965359467068,264.93081232113764,288.3178521608934,523.3488020222097,525.9097773239482,577.7472667195833,,,
usp000a1b0,6.7,10.0,35.455999999999996,133.134,OKY012,,34.5893,133.7545,111.58836264220079,,,0.09813307952625684,0.09874580495059958,0.1097290967174246,378.1818187268007,378.3562606843557,389.84416665269447,139.75906146692705,139.86594053166252,145.33275484077004,253.64409818535745,254.0347215212193,268.1170222600969,,,
usp000a1b0,6.7,10.0,35.455999999999996,133.134,OKY013,,34.5095,133.5099,110.4717313584513,,,0.1758936136779724,0.17857427579193247,0.2093997302397968,473.78089890627325,474.73637375548964,504.84093151798754,191.99150442349887,192.4691290831129,206.02006555309845,374.79763592272866,375.2435548120517,393.5317350036128,,,
usp000a1b0,6.7,10.0,35.455999999999996,133.134,OKY014,,34.4462,133.7876,126.94111003908495,,,0.08607431554795901,0.08607578878457227,0.08657939362636759,331.69036057424637,331.716150054196,335.8524417393004,123.90953209561545,123.91770284414366,125.34070460631328,223.62011835411357,223.87868745799244,234.6355162288592,,,
usp000a1b0,6.7,10.0,35.455999999999996,133.134,OKY015,,35.2793,133.9256,74.56215399420111,,,0.26663794197097,0.2689388982359103,0.3040435829066336,650.1704353213953,652.4421222565592,706.8399892058279,273.3877905890298,274.8066691334592,302.69611798199884,488.1514427559545,492.0041867877333,553.4557022445457,,,
