USGS_eventID,magnitude,source_lat,source_lon,depth(km),station_name,station_lat,station_lon,elev,rdist(km),rake_angle,fault_type,Ia,CAV,CAV5,CAVstd,Vs30,PGA,PGV
