USGS_eventID,magnitude,depth(km),source_lat,source_lon,rake_angle,station_name,station_type,elev(m),station_lat,station_lon,rdist(km),fault_type,Ia_geom,Ia_arith,Ia_max,CAV_geom,CAV_arith,CAV_max,CAV5_geom,CAV5_arith,CAV5_max,CAVstd_geom,CAVstd_arith,CAVstd_max,Vs30,PGA,PGV
usp000d6vk,6.6,16,37.226,138.779,,NGN020,Knet,,35.8282,137.9532,181.7715325,,8.41E-06,8.41E-06,8.50E-06,38.57635633,38.58170494,39.22411301,0,0,0,0,0,0,569.4,,
usp000d6vk,6.6,16,37.226,138.779,,NGN022,Knet,,35.6079,137.6125,218.010412,,3.60E-06,3.62E-06,4.00E-06,26.83277806,26.89608223,28.74033292,0,0,0,0,0,0,424.5,,
usp000d6vk,6.6,16,37.226,138.779,,NGN023,Knet,,35.5787,138.0338,204.1661922,,2.08E-06,2.08E-06,2.11E-06,19.10244098,19.12396228,20.03098045,0,0,0,0,0,0,442.1,,
usp000d6vk,6.6,16,37.226,138.779,,NGN024,Knet,,35.5232,137.8374,216.8147042,,2.38E-05,2.42E-05,2.85E-05,69.88552055,70.09938458,75.57092337,3.231360392,3.725851838,5.58065154,0,0,0,233.8,,
usp000d6vk,6.6,16,37.226,138.779,,NIG001,Knet,,38.2584,138.4337,113.9574478,,0.000260765,0.00026497,0.000311986,194.9857873,195.5771104,210.7741121,49.64440667,50.17088025,57.42002584,39.83402736,41.82521917,54.57665923,558.3,,
usp000d6vk,6.6,16,37.226,138.779,,NIG002,Knet,,38.0745,138.4398,94.7743365,,0.00034283,0.000343064,0.000355743,294.94345,294.945657,296.0866547,70.45108557,70.45202705,70.81624864,46.964192,47.05569404,49.98878306,248,,
usp000d6vk,6.6,16,37.226,138.779,,NIG003,Knet,,37.9976,138.3226,91.97211552,,0.001902622,0.001905206,0.002004388,798.2424306,798.407905,814.6622781,244.1910592,244.3871604,254.1754598,357.9389608,358.2163737,372.3114346,187.3,,
usp000d6vk,6.6,16,37.226,138.779,,NIG005,Knet,,37.9204,138.4981,77.07769878,,0.000199454,0.000205292,0.000253902,180.4278991,181.6232601,202.426669,44.66748808,45.41597448,53.62732312,16.72316598,22.94513954,38.65549116,288.7,,
usp000d6vk,6.6,16,37.226,138.779,,NIG006,Knet,,38.4501,139.4961,140.0543614,,0.000522014,0.000522447,0.000543697,244.5609804,244.6672778,251.8786369,73.02545928,73.17018445,77.76998762,110.0641365,111.9999957,132.7336614,216.3,,
usp000d6vk,6.6,16,37.226,138.779,,NIG007,Knet,,38.2301,139.4864,117.6570665,,0.000356132,0.00035663,0.000375473,243.2062563,243.4532679,254.4173237,63.52637578,63.57620892,66.09293726,81.5044873,81.69342573,87.24629508,291.3,,
usp000d6vk,6.6,16,37.226,138.779,,NIG008,Knet,,38.053,139.4055,97.00382146,,0.000488421,0.000488989,0.00051256,284.3369404,284.4301547,291.7114466,86.93196001,86.97574747,89.73527205,118.0345513,119.0425721,134.5015071,220.6,,
usp000d6vk,6.6,16,37.226,138.779,,NIG009,Knet,,37.9507,139.3375,84.18067209,,0.000249695,0.000250441,0.000269763,235.4462183,235.6154712,244.5445556,52.98312209,53.09351216,56.51547179,32.26770373,33.56381166,42.80095132,179.6,,
usp000d6vk,6.6,16,37.226,138.779,,NIG010,Knet,,37.9146,139.0108,70.36788606,,0.001583752,0.001601554,0.001839686,703.8188876,703.835873,708.7256112,234.8009836,234.8238442,238.1004202,240.672618,242.3384726,270.7044067,173.1,,
usp000d6vk,6.6,16,37.226,138.779,,NIG011,Knet,,37.8013,139.1442,61.70760528,,0.001046978,0.001049794,0.001126639,548.2926482,548.6921718,569.6271023,173.2519103,174.0432024,190.6206536,222.245881,222.2489824,223.4230948,150,,
usp000d6vk,6.6,16,37.226,138.779,,NIG012,Knet,,37.6863,139.4772,69.54902852,,0.006940384,0.006967408,0.00758047,815.9583356,815.971901,820.6769808,334.2283292,334.2359752,336.4967454,562.4107696,562.4207149,565.7653751,213,,
usp000d6vk,6.6,16,37.226,138.779,,NIG013,Knet,,37.7638,138.8834,52.49493531,,0.00414108,0.004173867,0.004695995,1211.610909,1211.954282,1240.801941,445.0604362,445.1259897,452.7650203,545.0939606,547.1219291,594.1854966,174.6,,
usp000d6vk,6.6,16,37.226,138.779,,NIG014,Knet,,37.641,138.9559,39.63336674,,0.005697538,0.00571398,0.00614714,1370.832283,1370.931858,1387.454934,520.546856,520.5803994,526.4899652,773.0527011,774.4881024,821.6192178,128.1,,
usp000d6vk,6.6,16,37.226,138.779,,NIG015,Knet,,37.6935,139.1886,52.95718225,,0.00068345,0.000683502,0.000691892,380.1349335,380.1360094,381.0404173,113.1949265,113.258465,117.0516844,146.9052914,147.3039295,158.1336578,488.6,,
usp000d6vk,6.6,16,37.226,138.779,,NIG016,Knet,,37.6421,138.7676,39.94716497,,0.002007245,0.00200752,0.002040741,504.1919709,504.2016752,507.3298926,189.1915828,189.1916031,189.2791858,299.568506,299.5805489,302.2667119,290.7,,
usp000d6vk,6.6,16,37.226,138.779,,NIG017,Knet,,37.4416,138.8431,16.84781927,,0.030311516,0.030613706,0.034904515,2079.922116,2083.042031,2197.007349,878.9834511,880.6790144,935.301529,1561.101285,1565.405638,1681.412484,274.1,,
usp000d6vk,6.6,16,37.226,138.779,,NIG018,Knet,,37.3724,138.5579,28.8447444,,0.005764496,0.006161458,0.008337267,1341.454614,1357.872837,1568.39163,514.9360691,524.3840451,623.4772916,816.6515414,844.7859665,1060.988624,198.3,,
usp000d6vk,6.6,16,37.226,138.779,,NIG019,Knet,,37.3057,138.7898,7.036502498,,0.189813187,0.192706093,0.225971579,4880.485984,4884.581898,5084.574076,2242.811785,2245.220844,2349.201301,4060.14883,4063.96004,4239.922205,372.3,,
usp000d6vk,6.6,16,37.226,138.779,,NIG020,Knet,,37.2332,138.962,10.59074069,,0.030399149,0.030913848,0.036531472,2207.163397,2210.375303,2329.491713,932.0054566,934.0521704,995.8525425,1638.434244,1642.681726,1760.734612,331.6,,
usp000d6vk,6.6,16,37.226,138.779,,NIG021,Knet,,37.1281,138.7468,20.99262593,,0.073323553,0.077897231,0.10419619,1945.144213,1947.307451,2039.069649,827.4121488,828.5822226,872.6008066,1523.299499,1525.631964,1609.961822,333.5,,
usp000d6vk,6.6,16,37.226,138.779,,NIG022,Knet,,37.0364,138.8462,28.31602217,,0.00840016,0.008400994,0.008519343,995.5211227,995.8563973,1021.695485,371.9424407,372.14365,384.3795412,641.9212941,642.8100592,676.6009525,193.2,,
usp000d6vk,6.6,16,37.226,138.779,,NIG023,Knet,,37.0147,138.6529,36.08327833,,0.005519633,0.005572109,0.006335033,597.5788106,597.7428936,611.7476049,237.0321972,237.1461695,244.4975762,394.4543126,394.5235941,401.9169398,597.1,,
usp000d6vk,6.6,16,37.226,138.779,,NIG024,Knet,,37.1268,138.444,41.73706472,,0.008951998,0.00896342,0.009415799,1026.361335,1026.709481,1053.444643,400.3744089,400.6118773,414.403502,698.5481273,698.8456399,719.2354006,295.2,,
usp000d6vk,6.6,16,37.226,138.779,,NIG025,Knet,,37.1607,138.2235,58.91143937,,0.007007026,0.007063043,0.007950831,973.7020026,974.2842348,1007.96183,402.3447153,402.6745192,418.9686415,662.45391,662.5745685,675.2187749,134.5,,
usp000d6vk,6.6,16,37.226,138.779,,NIG026,Knet,,37.0228,138.2507,62.31324949,,0.000962955,0.000966727,0.001052037,408.2727872,408.5529184,423.6796621,125.5764942,125.6408901,129.6630013,201.2526423,201.341153,207.3105635,257.2,,
usp000d6vk,6.6,16,37.226,138.779,,NIG027,Knet,,37.0235,137.8624,94.04467485,,0.000706359,0.0007075,0.000747662,337.7836249,337.8016479,341.2910705,109.7556517,109.7572206,110.3440645,161.987089,162.0904364,167.8777115,302.3,,
usp000d6vk,6.6,16,37.226,138.779,,NIG028,Knet,,37.4261,138.8862,15.09016193,,0.126797113,0.129677205,0.156855686,4538.979489,4561.68053,5016.20716,1967.478997,1980.091695,2203.227346,3619.836671,3648.277867,4102.935832,405.6343355,,
usp000d6vk,6.6,16,37.226,138.779,,SIG007,Knet,,35.1339,136.0957,345.4981817,,1.37E-06,1.37E-06,1.47E-06,17.22098753,17.24304497,18.11493268,0,0,0,0,0,0,225.8,,
usp000d6vk,6.6,16,37.226,138.779,,SIG011,Knet,,34.8779,136.0587,368.2971207,,1.00E-06,1.00E-06,1.08E-06,13.4345985,13.44620402,14.0047429,0,0,0,0,0,0,285,,
usp000d6vk,6.6,16,37.226,138.779,,SIT001,Knet,,36.2428,139.1937,119.9233071,,0.000251151,0.000253335,0.000286525,217.403351,217.6434387,227.8634865,46.65922621,46.76563823,49.91865718,36.10527446,38.55185479,52.06683402,292.5,,
usp000d6vk,6.6,16,37.226,138.779,,SIT002,Knet,,36.1476,139.3884,135.1650236,,0.00021631,0.000216426,0.000223521,201.2173267,201.2175748,201.5335922,39.58523486,39.59830311,40.61554962,27.74559269,28.28777151,33.79958641,299,,
usp000d6vk,6.6,16,37.226,138.779,,SIT003,Knet,,36.072,139.6968,154.2712379,,0.000982486,0.001029112,0.001335371,726.1565431,735.0427532,848.9924084,196.1895008,201.9240712,249.704928,106.9646682,115.4952361,159.0579417,99.9,,
usp000d6vk,6.6,16,37.226,138.779,,SIT004,Knet,,36.1179,139.1045,131.8996563,,0.001226578,0.001227159,0.001264897,334.6300198,334.9706805,350.0738806,113.9908858,114.2042612,121.1821716,199.4071183,199.8474808,213.1070724,243.1,,
usp000d6vk,6.6,16,37.226,138.779,,SIT005,Knet,,36.0562,139.2626,141.5167472,,3.96E-05,4.12E-05,5.26E-05,73.03166941,73.25886905,79.02403669,7.789727731,8.460809631,11.76314842,0,3.847244441,7.694488882,210.7,,
usp000d6vk,6.6,16,37.226,138.779,,SIT006,Knet,,35.9954,139.0709,144.925507,,0.000150297,0.000153722,0.00018599,117.8523076,118.1394099,126.3706777,27.72311047,27.88872013,30.92349459,24.37065584,24.49641794,26.97545525,484.4,,
usp000d6vk,6.6,16,37.226,138.779,,SIT009,Knet,,35.9032,139.4837,163.5908225,,8.85E-05,8.86E-05,9.40E-05,153.1753632,153.5823312,164.7555391,17.116769,17.16220322,18.41017692,0,0,0,312.8,,
usp000d6vk,6.6,16,37.226,138.779,,SIT011,Knet,,35.8098,139.7212,181.2867253,,0.000359878,0.000363556,0.000415139,340.701678,341.2407883,360.414787,70.79656424,71.27560579,79.52536164,43.9090097,44.12411169,48.47567458,130.4,,
usp000d6vk,6.6,16,37.226,138.779,,SIT014,Knet,,35.9954,138.801,143.8950836,,6.50E-05,6.50E-05,6.61E-05,87.77086113,87.7991863,90.02922008,15.33958337,15.34476249,15.74340783,0,3.615893358,7.231786716,239.6,,
usp000d6vk,6.6,16,37.226,138.779,,SZO010,Knet,,35.3091,138.9349,220.005282,,1.96E-05,1.96E-05,2.12E-05,82.10697791,82.11034856,82.85433739,0,0,0,0,0,0,400.9,,
usp000d6vk,6.6,16,37.226,138.779,,TCG001,Knet,,36.9417,140.0828,114.7973384,,8.45E-05,8.45E-05,8.68E-05,140.0519524,140.1606786,145.680321,16.97674408,17.099303,19.14290847,0,0,0,506.1,,
usp000d6vk,6.6,16,37.226,138.779,,TCG002,Knet,,36.99,139.8033,89.64400484,,0.000174122,0.00019895,0.000295193,157.108511,160.9903237,196.1300461,38.46495397,42.23492755,59.67730185,0,31.20576722,62.41153444,543.6,,
usp000d6vk,6.6,16,37.226,138.779,,TCG003,Knet,,36.8144,139.7153,92.14747847,,0.000334407,0.000334597,0.00034585,204.9581313,205.0170744,209.9328878,64.0963619,64.14019839,66.51115597,46.64296092,46.77976859,50.35481344,360.5,,
usp000d6vk,6.6,16,37.226,138.779,,TCG004,Knet,,36.8061,139.4204,72.93295202,,0.000333344,0.000333355,0.000335961,219.979229,220.0235505,224.4396132,62.12474462,62.13841222,63.44163129,59.26387461,59.29666706,61.26844068,429.8,,
usp000d6vk,6.6,16,37.226,138.779,,TCG005,Knet,,36.8061,139.9264,108.5202372,,0.000714854,0.00071542,0.000743863,331.0963197,331.1043857,333.4155219,102.0369386,102.0542186,103.9321685,151.3885172,152.1514061,167.36874,263.7,,
usp000d6vk,6.6,16,37.226,138.779,,TCG006,Knet,,36.7639,140.1297,126.6688011,,0.000130197,0.000131724,0.000151719,198.1396443,198.4554252,209.6463655,25.943025,27.10279195,34.94631064,0,2.552903859,5.105807718,464.7,,
usp000d6vk,6.6,16,37.226,138.779,,TCG007,Knet,,36.5692,139.8861,121.0775051,,6.20E-05,6.21E-05,6.36E-05,124.7554176,124.7572944,125.4416022,10.70991169,10.74757028,11.64649109,0,0,0,505.5,,
usp000d6vk,6.6,16,37.226,138.779,,TCG008,Knet,,36.56,139.7675,114.0969715,,0.000106617,0.000106617,0.000106854,152.2911065,152.2927885,153.0085487,24.08296615,24.08915345,24.63509782,0,0,0,265.6,,
usp000d6vk,6.6,16,37.226,138.779,,TCG009,Knet,,36.7258,139.7155,98.16925082,,0.002303762,0.002364622,0.00289765,619.1669323,621.445756,674.61659,247.2353812,248.4921565,273.4524876,409.3563673,412.0858997,459.4372804,225,,
usp000d6vk,6.6,16,37.226,138.779,,TCG010,Knet,,36.6347,139.4376,88.80806454,,0.00018398,0.00018876,0.000230969,150.1276383,151.3597923,170.6335815,37.62257997,38.34182155,45.73348956,25.50847466,26.47968454,33.58541559,518.6,,
usp000d6vk,6.6,16,37.226,138.779,,TCG011,Knet,,36.3867,139.6145,120.4842976,,5.01E-05,5.01E-05,5.16E-05,92.55212624,92.55690167,93.49710134,9.877391103,9.892171208,10.43272296,0,0,0,346.1,,
usp000d6vk,6.6,16,37.226,138.779,,TCG012,Knet,,36.2859,139.8047,139.447946,,0.000272363,0.00027396,0.000303498,289.448872,289.4732919,293.233242,55.35010262,55.40925846,57.96895817,0,12.84272903,25.68545807,356.8,,
usp000d6vk,6.6,16,37.226,138.779,,TCG013,Knet,,36.4368,140.0225,140.0065723,,6.34E-05,6.38E-05,7.10E-05,123.5234372,123.6675166,129.6353564,12.41433585,12.52677278,14.20137774,0,0,0,369.1,,
usp000d6vk,6.6,16,37.226,138.779,,TCG014,Knet,,36.545,140.1742,142.9018902,,0.000441883,0.000452728,0.000551225,289.739679,291.0403515,318.5249764,87.3422916,88.6712,103.9651795,82.27273183,84.25852513,102.4435919,382.9,,
usp000d6vk,6.6,16,37.226,138.779,,TKY001,Knet,,35.8029,139.0956,166.3967355,,9.91E-06,1.00E-05,1.15E-05,41.18666261,41.21925361,42.85806171,0.869737272,0.902480804,1.143372233,0,0,0,446.4,,
usp000d6vk,6.6,16,37.226,138.779,,TKY002,Knet,,35.7304,139.1454,174.963633,,9.83E-06,9.92E-06,1.12E-05,38.83596243,39.00644023,42.64929642,1.025814983,1.042526756,1.228445169,0,0,0,383.7,,
usp000d6vk,6.6,16,37.226,138.779,,TKY003,Knet,,35.7968,139.2912,170.104314,,0.000172088,0.000175422,0.000209461,156.5132194,156.7425778,165.2188875,37.43259367,37.86859086,43.59843417,0,12.49888099,24.99776198,215,,
usp000d6vk,6.6,16,37.226,138.779,,TKY004,Knet,,35.6282,139.4034,190.6774315,,6.04E-05,6.08E-05,6.77E-05,119.6041267,119.612658,121.0412353,12.33072945,12.5415851,14.83166546,0,0,0,302.3,,
usp000d6vk,6.6,16,37.226,138.779,,TKY005,Knet,,35.5782,139.4156,196.3256651,,6.33E-05,6.34E-05,6.59E-05,122.6355348,122.8071674,129.2976194,12.56655778,12.63400321,13.93771436,0,0,0,242.3,,
usp000d6vk,6.6,16,37.226,138.779,,TKY007,Knet,,35.7107,139.6859,190.0889562,,0.000105293,0.000105805,0.000116198,200.3777361,200.8890725,215.2132592,18.69901774,18.82118513,20.96215345,0,0,0,261.7,,
usp000d6vk,6.6,16,37.226,138.779,,TKY013,Knet,,35.6596,139.8343,200.7149968,,0.000209993,0.00021008,0.000216109,471.7432843,471.7560008,475.219808,33.29029013,33.29100426,33.50905947,0,0,0,152.2391993,,
usp000d6vk,6.6,16,37.226,138.779,,TKY014,Knet,,35.689,139.8354,197.8140189,,0.000136104,0.000137257,0.00015501,339.8447907,340.3858857,359.5710216,20.46908283,20.72868119,23.99898269,0,0,0,151.1439978,,
usp000d6vk,6.6,16,37.226,138.779,,TKY015,Knet,,35.7313,139.8121,192.6707395,,0.000240252,0.000240554,0.000252592,361.4433174,361.5034881,368.0989586,42.92231563,42.97874009,45.18031236,19.89665412,21.1069966,28.15174358,144.3192013,,
usp000d6vk,6.6,16,37.226,138.779,,TKY016,Knet,,35.6485,139.799,200.4907362,,0.000162275,0.000163295,0.000181514,344.3501344,344.7441659,361.2221769,28.63239715,29.34356852,35.76469357,0,0,0,153.4959998,,
usp000d6vk,6.6,16,37.226,138.779,,TKY017,Knet,,35.6474,139.8093,200.9880206,,0.0001669,0.000168201,0.000189078,346.2549702,346.6980164,364.2197213,29.62642883,30.23444435,36.26738225,0,0,0,153.0651112,,
usp000d6vk,6.6,16,37.226,138.779,,TKY020,Knet,,35.6657,139.8087,199.1204024,,0.000113701,0.000115569,0.000136264,299.2207922,299.709052,316.8097357,15.57550528,15.8666061,18.89196962,0,0,0,150.8823955,,
usp000d6vk,6.6,16,37.226,138.779,,TKY021,Knet,,35.6876,139.8193,197.32598,,0.000278987,0.000287505,0.000356969,401.1659176,403.012662,441.5498167,56.17992635,59.06253069,77.28884153,0,5.981615018,11.96323004,151.3999939,,
usp000d6vk,6.6,16,37.226,138.779,,TKY023,Knet,,35.7254,139.8249,193.7653692,,0.000271885,0.000275875,0.000322628,387.3718639,387.578898,400.2454371,49.18240995,50.41700388,61.50595477,23.15937294,25.98311805,37.7630106,143.8096029,,
usp000d6vk,6.6,16,37.226,138.779,,TKY024,Knet,,35.7401,139.8624,193.8225509,,0.000151048,0.000151058,0.000152799,340.8373396,340.8548561,344.3104062,26.62518497,26.63521818,27.36622634,0,0,0,156.2988591,,
usp000d6vk,6.6,16,37.226,138.779,,TKY025,Knet,,35.7138,139.8971,197.8554079,,0.000116464,0.000116799,0.000125643,299.6537924,299.7664352,307.98351,18.35732566,18.35934748,18.6318076,0,0,0,142.6624004,,
usp000d6vk,6.6,16,37.226,138.779,,TYM001,Knet,,36.976,137.6257,115.70317,,2.63E-05,2.76E-05,3.59E-05,66.6431435,67.12962035,75.19667391,3.845366686,4.585690292,7.084031844,0,0,0,277,,
usp000d6vk,6.6,16,37.226,138.779,,TYM002,Knet,,36.866,136.9747,174.7453901,,0.000141549,0.000142566,0.000159561,251.5950251,252.1322756,268.5830435,26.34874728,26.52406097,29.56861794,0,0,0,163.4,,
usp000d6vk,6.6,16,37.226,138.779,,TYM003,Knet,,36.8163,137.4192,139.1372932,,1.47E-05,1.48E-05,1.67E-05,64.63709095,64.89186693,70.63650501,0.67000289,0.970564424,1.672769116,0,0,0,527,,
usp000d6vk,6.6,16,37.226,138.779,,TYM004,Knet,,36.8624,137.5274,128.2641304,,6.36E-05,6.39E-05,7.06E-05,107.5065444,107.5651635,111.1158415,14.32749918,14.49332056,16.67943767,0,0,0,396.2,,
usp000d6vk,6.6,16,37.226,138.779,,TYM005,Knet,,36.7824,137.0803,168.680718,,5.38E-05,5.38E-05,5.52E-05,144.8895029,144.9006435,146.697431,6.371122461,6.454448801,7.488232099,0,0,0,181.7,,
usp000d6vk,6.6,16,37.226,138.779,,TYM007,Knet,,36.6686,137.2114,162.7838618,,2.17E-05,2.21E-05,2.62E-05,69.9342032,70.12721949,75.32665567,1.911895732,2.498634494,4.107307565,0,0,0,255.4,,
usp000d6vk,6.6,16,37.226,138.779,,TYM008,Knet,,36.6086,137.2831,160.1158306,,1.76E-05,1.76E-05,1.88E-05,66.63083095,66.63306618,67.17884583,1.012203992,1.015412633,1.096071751,0,0,0,360.7,,
usp000d6vk,6.6,16,37.226,138.779,,TYM009,Knet,,36.5864,137.1406,172.5257981,,3.98E-05,3.98E-05,4.06E-05,100.6402657,100.6403479,100.7689904,7.303896754,7.33104948,7.961429272,0,0,0,343,,
usp000d6vk,6.6,16,37.226,138.779,,TYM011,Knet,,36.5781,137.385,153.9146054,,1.97E-05,2.01E-05,2.38E-05,59.78926105,59.99357356,64.94060618,2.080305946,2.399964427,3.596691805,0,0,0,381.9,,
usp000d6vk,6.6,16,37.226,138.779,,YMN001,Knet,,35.7895,138.9198,166.6871079,,8.88E-06,8.91E-06,9.53E-06,38.76409914,38.84377367,41.33041199,0.273191532,0.277838119,0.328438586,0,0,0,682.6,,
usp000d6vk,6.6,16,37.226,138.779,,YMN002,Knet,,35.6132,138.947,186.3191992,,1.29E-05,1.30E-05,1.45E-05,51.4721942,51.57059627,54.75487398,0.33350307,0.363380243,0.507674745,0,0,0,287.9,,
usp000d6vk,6.6,16,37.226,138.779,,YMN003,Knet,,35.4648,138.813,202.7041101,,9.57E-06,9.57E-06,9.83E-06,49.08808961,49.09385001,49.84589204,0,0,0,0,0,0,409.8,,
usp000d6vk,6.6,16,37.226,138.779,,YMN004,Knet,,35.702,138.7266,176.7766015,,1.06E-05,1.07E-05,1.16E-05,49.62089453,49.6583007,51.58538514,0.075677339,0.081848092,0.113025818,0,0,0,301.1,,
usp000d6vk,6.6,16,37.226,138.779,,YMN005,Knet,,35.6548,138.5677,183.5359339,,1.85E-05,1.85E-05,1.91E-05,78.76436626,78.83110411,82.07418622,0,0.051516202,0.103032404,0,0,0,190.5,,
usp000d6vk,6.6,16,37.226,138.779,,YMN009,Knet,,35.4965,138.4627,202.4048131,,1.82E-05,1.84E-05,2.13E-05,68.84172326,68.94971298,72.80718095,0,0.445738224,0.891476448,0,0,0,241.3,,
usp000d6vk,6.6,16,37.226,138.779,,YMN010,Knet,,35.7918,138.4096,171.3315376,,1.30E-05,1.30E-05,1.31E-05,60.33237606,60.3414027,61.38508796,0.255258771,0.277906714,0.38779348,0,0,0,523.5,,
usp000d6vk,6.6,16,37.226,138.779,,YMT003,Knet,,38.7292,139.8013,179.4845786,,0.00018578,0.000188188,0.000218199,176.8388826,177.1513926,187.6692586,40.21171124,40.5051044,45.37149537,0,10.42588044,20.85176088,369,,
usp000d6vk,6.6,16,37.226,138.779,,YMT004,Knet,,38.6276,139.5889,161.350621,,2.53E-05,2.53E-05,2.62E-05,61.44771755,61.4676156,63.03151317,4.895604488,4.920670922,5.416714285,0,0,0,411.9,,
usp000d6vk,6.6,16,37.226,138.779,,YMT005,Knet,,38.607,140.1621,185.1811331,,9.37E-05,9.38E-05,9.73E-05,120.4802676,120.5061702,123.0046075,20.57283793,20.5971608,21.59784671,0,3.873331848,7.746663697,146,,
usp000d6vk,6.6,16,37.226,138.779,,YMT007,Knet,,38.4306,140.3907,184.324493,,5.55E-05,5.56E-05,6.00E-05,108.0072762,108.0077571,108.3300732,13.44202229,13.53124529,15.08257892,0,0,0,323.6,,
usp000d6vk,6.6,16,37.226,138.779,,YMT008,Knet,,38.3856,139.9921,156.7418123,,0.000224319,0.000224327,0.000226201,191.3512361,191.3525578,192.0637655,48.7592332,48.78044398,50.21880873,15.74551787,16.38753293,20.92954817,264.8,,
