USGS_eventID,magnitude,depth(km),source_lat,source_lon,rake_angle,station_name,station_type,elev(m),station_lat,station_lon,rdist(km),fault_type,Ia_geom,Ia_arith,Ia_max,CAV_geom,CAV_arith,CAV_max,CAV5_geom,CAV5_arith,CAV5_max,CAVstd_geom,CAVstd_arith,CAVstd_max,Vs30,PGA,PGV
usp000a1b0,6.7,10,35.456,133.134,,NARH06,KIKnet,,34.6413,136.0512,257.0500761,,5.95E-06,6.13E-06,7.64E-06,42.09477845,42.31868145,46.66614354,0,0,0,0,0,0,371.220773,,
usp000a1b0,6.7,10,35.456,133.134,,NGNH10,KIKnet,,35.9632,137.7669,407.7066903,,1.16E-06,1.30E-06,1.89E-06,21.73229507,22.00104107,25.42932918,0,0,0,0,0,0,511.1139177,,
usp000a1b0,6.7,10,35.456,133.134,,NGNH13,KIKnet,,35.5143,137.8767,412.484164,,1.18E-06,1.18E-06,1.21E-06,18.80161036,18.80431167,19.12303579,0,0,0,0,0,0,513.0481283,,
usp000a1b0,6.7,10,35.456,133.134,,NGNH14,KIKnet,,35.3095,137.6261,389.3973976,,1.77E-06,1.80E-06,2.15E-06,21.98438503,22.01492352,23.17409236,0,0,0,0,0,0,504,,
usp000a1b0,6.7,10,35.456,133.134,,NGSH02,KIKnet,,33.2122,129.7652,401.5187508,,2.84E-06,3.42E-06,5.32E-06,32.11757797,32.91072202,40.09242161,0,0,0,0,0,0,642.1434169,,
usp000a1b0,6.7,10,35.456,133.134,,NGSH03,KIKnet,,33.1256,129.8102,403.8590049,,1.45E-06,1.47E-06,1.66E-06,21.1916358,21.19343831,21.46984231,0,0,0,0,0,0,634.4902386,,
usp000a1b0,6.7,10,35.456,133.134,,OITH01,KIKnet,,33.4122,131.0326,296.8051841,,4.69E-06,4.74E-06,5.39E-06,39.66512367,39.67386554,40.50667451,0,0,0,0,0,0,865.3846154,,
usp000a1b0,6.7,10,35.456,133.134,,OITH02,KIKnet,,33.4581,131.4429,267.134135,,2.39E-06,5.31E-06,1.00E-05,26.56165115,33.77330234,54.63270403,0,0.067171122,0.134342245,0,0,0,532.5443787,,
usp000a1b0,6.7,10,35.456,133.134,,OITH04,KIKnet,,33.1306,131.3473,301.0448391,,5.35E-06,5.41E-06,6.22E-06,48.82160564,49.05111133,53.79055701,0,0,0,0,0,0,459.1304348,,
usp000a1b0,6.7,10,35.456,133.134,,OITH05,KIKnet,,33.1525,131.542,288.4204574,,1.16E-06,1.16E-06,1.23E-06,19.79565099,19.80944996,20.5487128,0,0,0,0,0,0,1269.398431,,
usp000a1b0,6.7,10,35.456,133.134,,OITH06,KIKnet,,32.9726,131.3984,312.4586021,,3.00E-06,3.05E-06,3.62E-06,30.63840459,30.79934907,33.94387874,0,0,0,0,0,0,711.9397218,,
usp000a1b0,6.7,10,35.456,133.134,,OITH07,KIKnet,,32.987,131.5881,301.389102,,5.10E-05,5.11E-05,5.36E-05,119.54178,119.5468326,120.6459295,8.321411638,8.399634648,9.543300054,0,0,0,276.3583192,,
usp000a1b0,6.7,10,35.456,133.134,,OITH08,KIKnet,,32.8392,131.5357,317.917944,,1.10E-06,1.12E-06,1.33E-06,19.78765664,19.85559718,21.49675039,0,0,0,0,0,0,657.4440758,,
usp000a1b0,6.7,10,35.456,133.134,,OITH10,KIKnet,,32.9278,131.8695,294.0945654,,1.76E-06,1.76E-06,1.84E-06,24.34416495,24.34580277,24.62819515,0,0,0,0,0,0,836.9094626,,
usp000a1b0,6.7,10,35.456,133.134,,OKYH01,KIKnet,,34.507,133.8905,99.00607459,,0.003242256,0.003633413,0.005273372,674.4028489,685.9961714,811.5809813,257.9413312,264.780026,324.5690874,435.7015075,451.6716958,570.7158776,240.8450704,,
usp000a1b0,6.7,10,35.456,133.134,,OKYH02,KIKnet,,34.7501,134.0702,88.38026728,,0.000170373,0.000171862,0.000194437,165.2269378,165.4911634,174.8391145,38.205758,38.38510573,42.09137035,20.91379711,22.12797273,29.35709907,1050.168129,,
usp000a1b0,6.7,10,35.456,133.134,,OKYH03,KIKnet,,34.7783,133.789,68.66567601,,0.002102204,0.002140502,0.002543595,596.1599158,597.7391556,641.1609584,221.7359029,222.7326817,243.7811232,397.3177745,399.6048897,442.2974406,307.281814,,
usp000a1b0,6.7,10,35.456,133.134,,OKYH04,KIKnet,,34.6429,133.6861,77.03780161,,0.000260174,0.000260559,0.000274706,216.4477615,216.4499203,217.416635,56.49761793,56.50543189,57.44511327,48.0221109,48.52672249,55.5066695,360.1617309,,
usp000a1b0,6.7,10,35.456,133.134,,OKYH05,KIKnet,,34.8684,133.8527,64.87794564,,0.001771789,0.00179895,0.002110376,492.8099962,494.6113469,536.7858905,185.9386879,186.9875882,206.7654166,333.3673308,339.0447214,400.8310131,607.9187602,,
usp000a1b0,6.7,10,35.456,133.134,,OKYH06,KIKnet,,34.6756,133.5283,68.8944439,,0.001732438,0.001732462,0.001741677,556.9570844,557.1411751,571.462321,205.8285925,205.8971777,211.2111508,356.5313178,356.7492714,369.2177124,549.7432386,,
usp000a1b0,6.7,10,35.456,133.134,,OKYH07,KIKnet,,35.0493,133.3169,25.50162233,,0.002888789,0.002892652,0.003042097,673.5987089,674.441449,708.1467514,241.1096114,241.7291886,259.0253117,427.2482725,428.42936,460.2197698,929.2475154,,
usp000a1b0,6.7,10,35.456,133.134,,OKYH08,KIKnet,,34.9103,133.4055,41.16480247,,0.006013068,0.006013074,0.006021404,1010.866425,1011.482074,1046.767436,393.3580704,393.6632811,409.1619045,700.2531124,700.9826233,732.9547499,694.214876,,
usp000a1b0,6.7,10,35.456,133.134,,OKYH09,KIKnet,,35.1809,133.6765,32.04248007,,0.012466575,0.012532257,0.013813655,1538.61191,1539.087886,1577.362037,629.4529783,629.6476552,645.3038914,1085.978945,1087.336748,1141.659246,511.0007097,,
usp000a1b0,6.7,10,35.456,133.134,,OKYH10,KIKnet,,35.2826,133.9263,52.88660418,,0.00643533,0.007324755,0.01082312,879.7669668,890.301326,1026.853642,373.2221086,379.0694907,445.3939694,668.9187613,682.3304198,816.9502273,553.6517456,,
usp000a1b0,6.7,10,35.456,133.134,,OKYH11,KIKnet,,35.0732,134.1162,73.83346541,,0.003719431,0.003836471,0.004776867,761.8943566,766.579771,851.2056218,311.497132,314.2562474,355.8077313,559.4162081,567.0505105,659.7855497,531.9751993,,
usp000a1b0,6.7,10,35.456,133.134,,OKYH12,KIKnet,,35.0999,134.319,90.88329513,,0.00110624,0.001124266,0.001324783,410.1169308,412.1420229,452.9482735,150.4495687,151.6081547,170.3153682,242.9408305,247.4598874,294.535877,719.5744681,,
usp000a1b0,6.7,10,35.456,133.134,,OKYH13,KIKnet,,34.7283,134.2744,104.4829605,,0.000209528,0.00020954,0.000211806,173.5368036,173.5369339,173.7496099,45.74112624,45.75051893,46.67753129,38.34140943,38.50094565,42.00225096,1433.962264,,
usp000a1b0,6.7,10,35.456,133.134,,OKYH14,KIKnet,,34.9363,133.6205,45.47481723,,0.008973169,0.009557836,0.012849411,978.9980501,984.2247912,1085.522656,388.830131,391.984201,441.6102335,723.7514564,728.9226442,815.5947308,709.8591549,,
usp000a1b0,6.7,10,35.456,133.134,,OSKH01,KIKnet,,34.3977,135.2836,202.4275658,,0.000108618,0.000109671,0.000124833,182.8762875,183.6732648,200.7651238,27.44077547,27.57769877,30.32238655,0,0,0,500,,
usp000a1b0,6.7,10,35.456,133.134,,OSKH02,KIKnet,,34.6628,135.3896,198.7927218,,0.000359432,0.000359471,0.000364771,421.8724014,421.9203243,428.2793346,99.64952945,99.69480376,102.6989972,0,0,0,500,,
usp000a1b0,6.7,10,35.456,133.134,,OSKH03,KIKnet,,34.5248,135.6608,227.5474089,,4.88E-06,4.98E-06,5.96E-06,38.871948,38.88229702,39.77933653,0,0,0,0,0,0,391.7029825,,
usp000a1b0,6.7,10,35.456,133.134,,OSKH04,KIKnet,,34.763,135.7052,222.8465033,,5.77E-06,5.85E-06,6.83E-06,46.57993507,46.64608471,49.12940253,0,0,0,0,0,0,511.2777018,,
usp000a1b0,6.7,10,35.456,133.134,,SAGH02,KIKnet,,33.2656,129.8798,389.3932001,,2.61E-06,2.68E-06,3.29E-06,26.95455659,27.06402453,29.49575284,0,0,0,0,0,0,557.8888265,,
usp000a1b0,6.7,10,35.456,133.134,,SAGH04,KIKnet,,33.3654,130.4046,343.8402898,,1.77E-06,1.77E-06,1.84E-06,22.11954669,22.13877779,23.06134833,0,0,0,0,0,0,724.137931,,
usp000a1b0,6.7,10,35.456,133.134,,SAGH05,KIKnet,,33.1806,130.1046,378.4631664,,4.22E-06,4.34E-06,5.37E-06,40.25245153,40.43526481,44.27594006,0,0,0,0,0,0,1000,,
usp000a1b0,6.7,10,35.456,133.134,,SIGH01,KIKnet,,35.2383,136.3599,274.3823184,,6.15E-06,6.26E-06,7.47E-06,39.21399975,39.31806412,42.17680336,0,0.160128159,0.320256318,0,0,0,562.5,,
usp000a1b0,6.7,10,35.456,133.134,,SIGH02,KIKnet,,35.2482,135.8671,229.5161363,,2.37E-05,2.37E-05,2.54E-05,64.87489041,64.93766296,67.79224957,4.357554118,4.418925836,5.152838396,0,0,0,569.1891892,,
usp000a1b0,6.7,10,35.456,133.134,,SIGH03,KIKnet,,34.853,136.0316,249.5452727,,2.29E-05,2.35E-05,2.89E-05,78.83531779,79.27876954,87.65229738,1.944858651,2.140253479,3.033679348,0,0,0,392.5925926,,
usp000a1b0,6.7,10,35.456,133.134,,SIGH04,KIKnet,,34.9638,136.261,268.069889,,9.17E-06,9.17E-06,9.44E-06,50.0693314,50.0694428,50.17506402,0.295125553,0.309101922,0.400998095,0,0,0,482.7586207,,
usp000a1b0,6.7,10,35.456,133.134,,SMNH01,KIKnet,,35.2963,133.2604,7.959212373,,0.052490233,0.052597765,0.055959367,2485.512714,2486.557046,2558.615985,1083.73186,1084.368739,1121.52808,1990.023914,1991.243825,2060.934507,464.4128114,,
usp000a1b0,6.7,10,35.456,133.134,,SMNH02,KIKnet,,35.2235,133.0856,24.36970861,,0.01773217,0.019486118,0.027565657,1593.801958,1623.92656,1935.266874,654.0602743,670.5666624,818.4341921,1184.840373,1218.067221,1500.628797,502.6611736,,
usp000a1b0,6.7,10,35.456,133.134,,SMNH03,KIKnet,,35.2243,132.7223,56.98311639,,0.004858231,0.004916747,0.005673052,898.1724827,898.7245002,930.2192411,346.7277521,347.1551448,364.3760756,546.7979405,547.4083379,573.2521122,434.5735547,,
usp000a1b0,6.7,10,35.456,133.134,,SMNH04,KIKnet,,35.0918,132.5308,76.98242614,,0.001015296,0.001030051,0.001203773,415.0613463,417.0913445,458.1920554,130.3128673,131.7126321,150.8639783,184.31372,186.4738889,214.7751941,281.25,,
usp000a1b0,6.7,10,35.456,133.134,,SMNH05,KIKnet,,34.8697,132.6396,78.68310065,,0.001675167,0.001692702,0.001935712,517.6851894,517.8507213,530.9432478,182.229725,182.2947412,187.1630041,333.2121558,333.7390091,352.484287,710.5263158,,
usp000a1b0,6.7,10,35.456,133.134,,SMNH06,KIKnet,,34.8839,132.2026,112.9862073,,0.000744481,0.000758499,0.000903645,329.4926275,329.8767989,345.7925402,102.5463395,102.9489889,112.0452836,121.2066599,122.8259585,142.7046325,287.6146789,,
usp000a1b0,6.7,10,35.456,133.134,,SMNH07,KIKnet,,34.694,132.0402,135.609074,,0.000334134,0.000343962,0.000425594,227.4456727,229.1268112,256.831713,60.50744323,61.76484163,74.16423578,57.64522748,58.90840029,71.04212907,318.2926829,,
usp000a1b0,6.7,10,35.456,133.134,,SMNH08,KIKnet,,34.8801,132.4208,95.146762,,0.001107984,0.001114947,0.001239355,406.3343075,406.3764711,412.2302544,142.9595886,142.989511,145.9146241,211.5231498,212.2451988,229.7375261,533.2032393,,
usp000a1b0,6.7,10,35.456,133.134,,SMNH09,KIKnet,,34.5725,132.0122,144.7596771,,0.000137985,0.000138037,0.000141856,152.7678494,152.7686118,153.2512421,29.91673597,29.9169374,30.02671935,10.62738693,10.62888502,10.80733321,473.0375427,,
usp000a1b0,6.7,10,35.456,133.134,,SMNH10,KIKnet,,35.5579,133.3004,31.31747591,,0.003245269,0.003564361,0.005038435,534.0107623,541.1775715,628.959515,193.9750267,198.8205176,242.4471978,314.8618486,322.8400612,394.1683267,967.2710348,,
usp000a1b0,6.7,10,35.456,133.134,,SMNH11,KIKnet,,35.4259,132.8008,52.11593416,,0.000431217,0.000431337,0.000441541,253.0532265,253.0801538,256.7718714,74.24085316,74.25790277,75.84908051,77.32496528,77.69087474,85.22225993,670.7317073,,
usp000a1b0,6.7,10,35.456,133.134,,SMNH12,KIKnet,,35.1634,132.8558,46.3171033,,0.009928186,0.009967648,0.010853726,1276.519293,1280.200416,1377.213814,515.5546517,517.6540106,564.2273491,935.8522644,940.5867055,1034.841094,590.1995494,,
usp000a1b0,6.7,10,35.456,133.134,,SMNH13,KIKnet,,35.0087,132.3069,99.20585738,,0.000442457,0.000443369,0.000471791,253.8190844,254.4678823,272.6276052,75.42057921,75.79956197,83.36988739,94.67206508,95.05124195,103.5329098,650,,
usp000a1b0,6.7,10,35.456,133.134,,SMNH14,KIKnet,,34.3904,131.8925,165.3704148,,7.37E-05,7.42E-05,8.30E-05,101.3037084,101.3126929,102.6619237,15.3692717,15.38926175,16.17339465,0,0,0,604.7191011,,
usp000a1b0,6.7,10,35.456,133.134,,TKSH02,KIKnet,,34.0112,134.0918,156.3213264,,0.000520744,0.000522843,0.000569639,279.394108,279.6376762,291.30654,90.85587581,91.10608617,97.85358699,109.2261986,109.2867626,112.9246227,349.366012,,
usp000a1b0,6.7,10,35.456,133.134,,TKSH03,KIKnet,,33.8778,134.1294,171.190552,,0.000138638,0.000144463,0.000185073,137.371781,138.0759916,152.0034199,27.7723514,28.71041269,35.98944385,0,12.20130376,24.40260752,388.578762,,
usp000a1b0,6.7,10,35.456,133.134,,TTRH01,KIKnet,,35.2604,134.2173,79.39275468,,0.000338365,0.000342217,0.000393419,232.6842273,233.2471922,249.4429642,69.77740974,70.16471096,77.52675921,71.52416959,72.96071261,87.36761198,426.0663507,,
usp000a1b0,6.7,10,35.456,133.134,,TTRH02,KIKnet,,35.2313,133.3909,6.65525658,,0.112256203,0.112717071,0.122899557,3964.387461,3980.198024,4334.610728,1799.582337,1812.534365,2028.831011,3156.199515,3171.872189,3486.797266,310.2099928,,
usp000a1b0,6.7,10,35.456,133.134,,TTRH04,KIKnet,,35.4668,133.6307,33.35882617,,0.004432399,0.004519079,0.005399934,793.5456305,795.9251839,857.4250269,290.486021,291.7131808,318.4424049,471.3894323,473.6164538,519.4918111,254.2600897,,
usp000a1b0,6.7,10,35.456,133.134,,TYMH02,KIKnet,,36.7142,137.0378,369.1043491,,5.95E-06,5.95E-06,6.01E-06,69.94530713,69.9456752,70.17258835,0,0,0,0,0,0,480,,
usp000a1b0,6.7,10,35.456,133.134,,TYMH06,KIKnet,,36.5711,137.1595,372.9221681,,1.16E-06,1.17E-06,1.29E-06,26.79683923,26.82577247,28.0713552,0,0,0,0,0,0,570,,
usp000a1b0,6.7,10,35.456,133.134,,TYMH07,KIKnet,,36.4406,137.0392,357.708416,,3.70E-07,3.77E-07,4.52E-07,11.81595028,11.83276711,12.46339876,0,0,0,0,0,0,425.8769027,,
usp000a1b0,6.7,10,35.456,133.134,,WKYH01,KIKnet,,33.9804,135.2122,223.6803023,,9.27E-06,9.28E-06,9.81E-06,44.6905142,44.69062459,44.78995531,0.913989492,0.949389745,1.206224508,0,0,0,462.9080285,,
usp000a1b0,6.7,10,35.456,133.134,,WKYH02,KIKnet,,34.1373,135.5369,237.3406474,,5.27E-06,5.27E-06,5.43E-06,39.16368951,39.16591862,39.58377697,0,0,0,0,0,0,368.9281115,,
usp000a1b0,6.7,10,35.456,133.134,,WKYH04,KIKnet,,33.5559,135.5454,278.2149521,,4.62E-06,4.70E-06,5.55E-06,34.11366773,34.18303578,36.3596407,0,0,0,0,0,0,586.3456978,,
usp000a1b0,6.7,10,35.456,133.134,,WKYH06,KIKnet,,33.6948,135.5953,271.2224209,,7.14E-06,7.18E-06,7.90E-06,40.41807496,40.4246628,41.15444302,0,0.012515089,0.025030178,0,0,0,751.9671906,,
usp000a1b0,6.7,10,35.456,133.134,,WKYH07,KIKnet,,33.6894,135.4396,260.8987388,,1.88E-05,1.99E-05,2.62E-05,60.22365632,60.57091455,67.04755792,2.712775361,3.190250708,4.869104311,0,0,0,316.2897791,,
usp000a1b0,6.7,10,35.456,133.134,,WKYH08,KIKnet,,34.3228,135.4483,219.7061967,,6.96E-05,7.18E-05,8.91E-05,125.4574929,126.2654387,140.5265213,14.19576441,14.68083228,18.42343957,0,0,0,343.8871858,,
usp000a1b0,6.7,10,35.456,133.134,,WKYH09,KIKnet,,34.2868,135.0714,192.505035,,1.63E-05,1.65E-05,1.94E-05,58.09502249,58.18722929,61.46167812,4.39574656,4.397329379,4.515303287,0,0,0,348.5714286,,
usp000a1b0,6.7,10,35.456,133.134,,WKYH10,KIKnet,,33.8248,135.2172,235.6077954,,9.03E-06,9.24E-06,1.12E-05,51.2361723,51.31113391,54.08369787,0,0.130778964,0.261557928,0,0,0,465.8952497,,
usp000a1b0,6.7,10,35.456,133.134,,YMGH01,KIKnet,,34.0494,131.5618,212.8102804,,6.92E-06,7.16E-06,8.97E-06,40.77302604,40.82101084,42.79971578,0,0.121832978,0.243665956,0,0,0,1387.665198,,
usp000a1b0,6.7,10,35.456,133.134,,YMGH02,KIKnet,,34.1111,131.1434,239.6765455,,1.29E-05,1.49E-05,2.24E-05,55.7272728,56.80018926,67.78802648,0,1.17592597,2.351851939,0,0,0,398.3552658,,
usp000a1b0,6.7,10,35.456,133.134,,YMGH03,KIKnet,,34.1891,132.126,164.4825466,,4.39E-05,4.39E-05,4.46E-05,81.61807274,81.64560676,83.76582011,9.57429697,9.578379256,9.857998104,0,0,0,521.8982326,,
usp000a1b0,6.7,10,35.456,133.134,,YMGH04,KIKnet,,34.027,132.0626,181.8750529,,3.33E-05,3.33E-05,3.45E-05,75.33258461,75.3371879,76.17000018,6.599772002,6.612384133,7.02059174,0,0,0,701.5263191,,
usp000a1b0,6.7,10,35.456,133.134,,YMGH05,KIKnet,,34.1974,131.9943,172.2489136,,6.75E-05,6.76E-05,7.02E-05,99.3046315,99.31779411,100.9347017,14.77285983,14.78920701,15.4843734,0,0,0,432.4413362,,
usp000a1b0,6.7,10,35.456,133.134,,YMGH06,KIKnet,,33.9893,131.3012,235.6959872,,9.26E-06,9.57E-06,1.20E-05,48.82338874,49.03248129,53.55585766,0,0,0,0,0,0,2100,,
usp000a1b0,6.7,10,35.456,133.134,,YMGH07,KIKnet,,34.1149,131.0506,246.6497321,,1.03E-05,1.03E-05,1.10E-05,51.34744415,51.4044032,53.82362772,0.100541692,0.104596138,0.133435697,0,0,0,351.457207,,
usp000a1b0,6.7,10,35.456,133.134,,YMGH08,KIKnet,,34.1349,130.9323,254.8152456,,1.23E-05,1.23E-05,1.27E-05,53.78112032,53.81189786,55.63163629,0.193498225,0.232966975,0.362705361,0,0,0,341.6424829,,
usp000a1b0,6.7,10,35.456,133.134,,YMGH09,KIKnet,,34.6257,131.6681,169.4017021,,0.000243152,0.000244399,0.000269059,204.3827276,204.3891905,206.014558,48.95922353,48.98328281,50.51834851,42.21416394,43.93752087,56.12235172,303.1456052,,
usp000a1b0,6.7,10,35.456,133.134,,YMGH10,KIKnet,,34.4837,131.6329,179.6162974,,7.80E-05,7.82E-05,8.46E-05,120.0063106,120.0469591,123.1707094,16.41649978,16.44505724,17.41378964,0,0,0,525.6781193,,
usp000a1b0,6.7,10,35.456,133.134,,YMGH11,KIKnet,,34.2091,131.6859,192.7194539,,4.12E-05,4.27E-05,5.40E-05,95.46452307,96.26326742,108.6383024,5.537953438,6.651268472,10.33507683,0,0,0,710.9375,,
usp000a1b0,6.7,10,35.456,133.134,,YMGH12,KIKnet,,34.2176,131.3597,216.5227546,,7.13E-06,7.28E-06,8.73E-06,40.5228739,40.66076339,44.00656231,0,0.01269303,0.025386059,0,0,0,1287.938931,,
usp000a1b0,6.7,10,35.456,133.134,,YMGH13,KIKnet,,34.3408,131.177,223.9576233,,3.61E-05,3.85E-05,5.20E-05,82.42467502,83.50178644,96.87045452,7.374963133,8.093733327,11.42816551,0,0,0,403.8461538,,
usp000d6vk,6.6,16,37.226,138.779,,CHB001,Knet,,35.9595,139.8733,173.0116457,,0.000502245,0.000502521,0.000519154,309.7406356,309.8609152,318.493728,81.81622693,82.0396827,88.09067837,90.43400049,90.51420796,94.32385334,226.5,,
usp000d6vk,6.6,16,37.226,138.779,,CHB003,Knet,,35.7943,140.0564,197.2959584,,0.000385515,0.000385621,0.00039464,264.110728,264.227722,272.0898118,66.24962636,66.45617157,71.69160347,68.70575879,68.70595109,68.86850466,187.2,,
usp000d6vk,6.6,16,37.226,138.779,,CHB007,Knet,,35.7234,140.2267,212.353448,,0.000143113,0.000143113,0.000143503,176.082718,176.095738,178.2370868,30.23854144,30.24028855,30.56534735,0,4.676415011,9.352830022,235.5,,
usp000d6vk,6.6,16,37.226,138.779,,CHB008,Knet,,35.6537,139.9023,204.0051642,,0.000185088,0.000185167,0.000190584,295.9810761,296.4020483,312.1937177,31.07765108,31.13340061,32.99572092,0,0,0,143.4,,
usp000d6vk,6.6,16,37.226,138.779,,CHB012,Knet,,35.5727,140.3333,231.6046674,,6.37E-05,6.38E-05,6.68E-05,136.2898586,136.3674116,140.9658224,11.86160552,11.87995888,12.54006292,0,0,0,244.7,,
usp000d6vk,6.6,16,37.226,138.779,,CHB014,Knet,,35.4769,140.0489,227.5219207,,9.72E-05,9.72E-05,9.81E-05,190.9456064,191.11199,199.0849516,19.12675123,19.13989449,19.84908317,0,0,0,166,,
usp000d6vk,6.6,16,37.226,138.779,,CHB024,Knet,,35.6335,140.0784,213.5832914,,8.89E-05,8.90E-05,9.21E-05,170.5134748,170.6198273,176.6431451,16.51952389,16.52120434,16.75683834,0,0,0,231.6,,
usp000d6vk,6.6,16,37.226,138.779,,CHB026,Knet,,35.3872,140.237,244.4431363,,3.31E-05,3.31E-05,3.36E-05,178.6808516,178.6808739,178.7701507,1.92607737,1.995180311,2.515728522,0,0,0,294.5953308,,
usp000d6vk,6.6,16,37.226,138.779,,FKS001,Knet,,37.7949,140.9196,189.8187652,,4.29E-05,4.33E-05,4.96E-05,100.2789257,100.3253521,103.3771298,6.80421395,6.917857775,8.166628659,0,0,0,242.2,,
usp000d6vk,6.6,16,37.226,138.779,,FKS004,Knet,,37.6799,140.7346,170.7183373,,1.25E-05,1.25E-05,1.29E-05,51.42346612,51.42678992,52.01147227,0.439041342,0.439150738,0.448952288,0,0,0,306.8,,
usp000d6vk,6.6,16,37.226,138.779,,FKS005,Knet,,37.6385,140.9849,191.2878919,,3.01E-05,3.03E-05,3.41E-05,84.41993316,84.58598448,89.88349859,4.393743181,4.495003947,5.443730116,0,0,0,426.4,,
usp000d6vk,6.6,16,37.226,138.779,,FKS006,Knet,,37.5031,140.7588,169.1555152,,0.000167383,0.000186292,0.000268071,154.7810939,155.5750259,171.2722126,30.65544292,32.50816997,43.32597632,0,33.0401661,66.0803322,222,,
usp000d6vk,6.6,16,37.226,138.779,,FKS007,Knet,,37.4061,140.9632,186.1660233,,3.27E-05,3.27E-05,3.41E-05,80.63140694,80.68768122,83.70067234,5.59184664,5.592168799,5.652194118,0,0,0,431,,
usp000d6vk,6.6,16,37.226,138.779,,FKS008,Knet,,37.4363,140.5668,151.4373556,,0.000114419,0.000119353,0.000153317,128.3600623,128.8764908,140.4023001,24.21471738,25.3283373,32.7561319,8.946621846,9.06545163,10.52845225,324,,
usp000d6vk,6.6,16,37.226,138.779,,FKS009,Knet,,37.2778,140.6349,156.7802653,,2.77E-05,2.77E-05,2.94E-05,70.43043902,70.50979587,73.85413046,4.401451873,4.415676242,4.769820407,0,0,0,283.2,,
