USGS_eventID,magnitude,depth(km),source_lat,source_lon,rake_angle,station_name,station_type,elev(m),station_lat,station_lon,rdist(km),fault_type,Ia_geom,Ia_arith,Ia_max,CAV_geom,CAV_arith,CAV_max,CAV5_geom,CAV5_arith,CAV5_max,CAVstd_geom,CAVstd_arith,CAVstd_max,Vs30,PGA,PGV
usp000a1b0,6.7,10,35.456,133.134,,YMG015,Knet,,34.0966,132.0758,175.2173643,,0.000213132,0.000215749,0.000249251,165.4404879,165.690183,174.7831301,39.82606149,40.03017765,44.06749725,34.05510997,36.30109845,48.87166858,359.9,,
usp000a1b0,6.7,10,35.456,133.134,,YMG016,Knet,,34.1699,132.1766,162.9818348,,0.000468257,0.000475451,0.00055785,280.5863465,281.65514,306.1688099,81.83366579,82.57860867,93.64557544,103.3854791,104.8152929,122.0689398,239,,
usp000a1b0,6.7,10,35.456,133.134,,YMG017,Knet,,33.9649,132.1011,185.013962,,0.000250423,0.000303403,0.000474697,201.9737588,207.7667048,256.4863556,44.34417177,49.61412762,71.86623063,0,37.16930341,74.33860682,133,,
usp000a1b0,6.7,10,35.456,133.134,,YMG018,Knet,,33.9091,132.3561,176.8877871,,0.000265441,0.000267693,0.00030234,194.9070409,195.1495048,204.8744533,47.23355883,47.39258078,51.27170872,32.08760019,42.48776635,70.33729425,222.5,,
usp000a1b0,6.7,10,35.456,133.134,,YMG019,Knet,,33.8388,132.1205,195.2353365,,2.89E-05,2.89E-05,2.97E-05,69.50089249,69.52363724,71.30186086,5.415847222,5.459647754,6.149830682,0,0,0,1288.9,,
usp000a1b0,6.7,10,35.456,133.134,,AICH04,KIKnet,,34.9319,137.0568,340.5608715,,2.10E-05,2.18E-05,2.74E-05,93.64550378,94.03913085,102.6343476,0,0,0,0,0,0,241.1538462,,
usp000a1b0,6.7,10,35.456,133.134,,AICH05,KIKnet,,34.8886,136.8763,324.9053948,,3.10E-05,3.12E-05,3.43E-05,145.0450389,145.1027982,149.1965422,0.783329877,0.783329947,0.783661227,0,0,0,301.3245033,,
usp000a1b0,6.7,10,35.456,133.134,,AICH06,KIKnet,,34.6158,137.0419,345.5761999,,6.72E-06,6.85E-06,8.18E-06,50.87255267,51.12004351,56.14420839,0,0,0,0,0,0,219.4776589,,
usp000a1b0,6.7,10,35.456,133.134,,AICH07,KIKnet,,35.2194,137.4039,369.4363944,,1.51E-06,1.60E-06,2.13E-06,20.99426449,20.99446899,21.08713274,0,0,0,0,0,0,428.1007217,,
usp000a1b0,6.7,10,35.456,133.134,,AICH08,KIKnet,,34.9189,137.2993,362.7173255,,6.55E-07,6.70E-07,8.07E-07,14.90013358,14.90498804,15.28536647,0,0,0,0,0,0,448.53364,,
usp000a1b0,6.7,10,35.456,133.134,,AICH09,KIKnet,,34.6643,137.3902,375.6010994,,1.10E-05,1.12E-05,1.30E-05,70.18591529,70.33342087,74.8861547,0,0,0,0,0,0,274.027568,,
usp000a1b0,6.7,10,35.456,133.134,,AICH10,KIKnet,,35.0002,137.6243,391.1722605,,5.97E-07,6.08E-07,7.24E-07,15.42908961,15.44919328,16.23708089,0,0,0,0,0,0,504.859335,,
usp000a1b0,6.7,10,35.456,133.134,,AICH11,KIKnet,,35.3059,137.057,337.6481655,,1.09E-06,1.13E-06,1.45E-06,17.66483555,17.68121925,18.4422049,0,0,0,0,0,0,382.2042467,,
usp000a1b0,6.7,10,35.456,133.134,,AICH12,KIKnet,,34.7884,137.1057,347.4181333,,1.95E-05,1.95E-05,2.09E-05,80.93440668,80.98038929,83.70899063,0.311135922,0.360289999,0.541958162,0,0,0,163.255814,,
usp000a1b0,6.7,10,35.456,133.134,,EHMH03,KIKnet,,33.9154,133.6497,153.7199068,,8.55E-05,8.56E-05,8.92E-05,112.9735508,112.978242,114.0077999,20.15363006,20.17165546,21.02422751,0,0,0,625.7266701,,
usp000a1b0,6.7,10,35.456,133.134,,EHMH04,KIKnet,,33.9023,133.0658,154.7450284,,0.00010087,0.000102197,0.000118612,149.7637775,149.8119373,153.6102923,21.84677029,21.96332943,24.22307895,0,3.567613829,7.135227657,254.3478261,,
usp000a1b0,6.7,10,35.456,133.134,,EHMH05,KIKnet,,33.7112,132.8032,180.7895441,,1.78E-05,1.86E-05,2.43E-05,61.40374732,62.18011835,71.97536889,1.601527288,1.766332773,2.511344054,0,0,0,362.1434316,,
usp000a1b0,6.7,10,35.456,133.134,,EHMH06,KIKnet,,33.3348,132.798,221.3567846,,7.84E-06,7.92E-06,9.00E-06,46.88918882,47.00610357,50.31937152,0,0.025258985,0.050517969,0,0,0,717.2178706,,
usp000a1b0,6.7,10,35.456,133.134,,EHMH07,KIKnet,,33.5022,132.748,204.4943901,,9.61E-06,9.70E-06,1.10E-05,49.63408602,49.66255328,51.34383339,0.241752637,0.319688922,0.528869872,0,0,0,421.0750853,,
usp000a1b0,6.7,10,35.456,133.134,,EHMH08,KIKnet,,33.5388,133.0016,195.4949521,,5.56E-05,5.57E-05,5.99E-05,107.5980569,107.7480042,113.4304825,11.13701371,11.23756141,12.73746547,0,0,0,363.8475836,,
usp000a1b0,6.7,10,35.456,133.134,,FKIH01,KIKnet,,36.0955,136.3617,287.7229913,,2.94E-06,2.94E-06,3.07E-06,29.42516981,29.42517811,29.44727026,0,0,0,0,0,0,715.7612064,,
usp000a1b0,6.7,10,35.456,133.134,,FKIH02,KIKnet,,35.9483,136.0556,256.5888388,,1.14E-05,1.15E-05,1.23E-05,51.04872287,51.06074019,52.16847792,0.806411092,0.808027933,0.859118945,0,0,0,342.8571429,,
usp000a1b0,6.7,10,35.456,133.134,,FKIH03,KIKnet,,35.9415,136.699,312.6629287,,1.60E-06,1.64E-06,2.01E-06,22.9646009,23.01241499,24.49509809,0,0,0,0,0,0,760.0373483,,
usp000a1b0,6.7,10,35.456,133.134,,FKIH04,KIKnet,,35.5587,135.8694,231.3676042,,4.48E-05,4.48E-05,4.53E-05,112.3320544,112.3383186,113.5246571,5.220506363,5.230219199,5.54881955,0,0,0,300,,
usp000a1b0,6.7,10,35.456,133.134,,FKIH05,KIKnet,,35.639,136.0303,247.0210956,,7.41E-05,7.46E-05,8.37E-05,156.2469773,156.6283351,167.5515865,12.12740667,12.22114034,13.73186162,0,0,0,187.4081333,,
usp000a1b0,6.7,10,35.456,133.134,,FKIH06,KIKnet,,35.4907,135.4841,195.7804045,,0.000152315,0.000153005,0.000167516,164.1037536,164.2641517,171.5215334,30.65077525,30.86580702,34.50284144,15.04663107,17.34559408,25.975109,395.6043956,,
usp000a1b0,6.7,10,35.456,133.134,,FKIH07,KIKnet,,35.4573,135.7266,217.3418348,,4.64E-05,4.64E-05,4.65E-05,96.84753023,96.85172612,97.75324727,9.085746226,9.128422343,10.01007419,0,0,0,384.1217729,,
usp000a1b0,6.7,10,35.456,133.134,,FKOH01,KIKnet,,33.8849,130.9798,266.3976424,,7.90E-06,8.30E-06,1.08E-05,43.76356529,44.18395051,50.26439746,0,0.141484017,0.282968034,0,0,0,588.4677564,,
usp000a1b0,6.7,10,35.456,133.134,,FKOH02,KIKnet,,33.6963,130.5963,307.4382431,,4.86E-06,4.94E-06,5.81E-06,36.1043449,36.14260242,37.80512731,0,0,0,0,0,0,273.4046344,,
usp000a1b0,6.7,10,35.456,133.134,,FKOH03,KIKnet,,33.5608,130.5499,319.8321761,,2.15E-06,2.50E-06,3.78E-06,24.67303123,25.2449724,30.58820747,0,0,0,0,0,0,518.1695828,,
usp000a1b0,6.7,10,35.456,133.134,,FKOH05,KIKnet,,33.5293,130.9503,293.4247633,,1.54E-06,1.54E-06,1.57E-06,21.63933374,21.64134107,21.93609277,0,0,0,0,0,0,776.9929364,,
usp000a1b0,6.7,10,35.456,133.134,,FKOH06,KIKnet,,33.5925,131.1348,276.0735049,,7.38E-06,7.39E-06,7.78E-06,44.01134723,44.01644667,44.68644109,0,0,0,0,0,0,1001.785714,,
usp000a1b0,6.7,10,35.456,133.134,,FKOH08,KIKnet,,33.4654,130.8285,306.5836388,,3.14E-06,3.14E-06,3.24E-06,30.89991161,30.90148394,31.21320856,0,0,0,0,0,0,535.7787132,,
usp000a1b0,6.7,10,35.456,133.134,,FKOH09,KIKnet,,33.8501,130.5432,301.9753198,,6.02E-06,8.23E-06,1.38E-05,40.03351801,42.28365892,55.89340719,0,0,0,0,0,0,566.7453512,,
usp000a1b0,6.7,10,35.456,133.134,,GIFH03,KIKnet,,35.6325,136.6134,299.2852667,,7.09E-06,7.38E-06,9.43E-06,46.52374564,46.86845587,52.5423652,0,0,0,0,0,0,421.2373429,,
usp000a1b0,6.7,10,35.456,133.134,,GIFH06,KIKnet,,35.5038,136.7939,314.3226996,,2.73E-06,2.81E-06,3.48E-06,26.57382106,26.69600084,29.24717608,0,0,0,0,0,0,300,,
usp000a1b0,6.7,10,35.456,133.134,,GIFH07,KIKnet,,35.4179,136.4347,281.2709093,,1.76E-06,1.77E-06,1.91E-06,23.81763973,23.81808849,23.96429705,0,0,0,0,0,0,424.3025407,,
usp000a1b0,6.7,10,35.456,133.134,,GIFH08,KIKnet,,35.8323,136.9621,333.6481551,,1.37E-06,1.68E-06,2.66E-06,22.08651357,22.6985026,27.93376177,0,0,0,0,0,0,384.8383824,,
usp000a1b0,6.7,10,35.456,133.134,,GIFH09,KIKnet,,35.2768,136.7002,305.2382766,,8.00E-05,8.03E-05,8.71E-05,185.0057846,185.0857215,190.5248361,8.370473566,8.69100071,11.02951853,0,0,0,216.3636364,,
usp000a1b0,6.7,10,35.456,133.134,,HRSH01,KIKnet,,34.3736,133.0236,104.5509581,,0.005601794,0.00560223,0.00567215,923.2600386,923.747219,953.744315,366.9931867,367.242936,380.7845371,663.6591524,664.1967498,690.9147582,402.6503165,,
usp000a1b0,6.7,10,35.456,133.134,,HRSH02,KIKnet,,34.5482,132.948,88.71990304,,0.001353427,0.00135423,0.001400877,488.4348703,488.656763,503.3812149,169.3968501,169.4819865,174.8532912,259.525215,260.457624,282.4766307,390.7771175,,
usp000a1b0,6.7,10,35.456,133.134,,HRSH03,KIKnet,,34.5183,133.1375,86.38766438,,0.024591537,0.025158358,0.030468657,2009.360915,2020.074387,2227.84648,915.3440946,920.8232498,1021.126021,1716.257757,1728.880329,1937.414513,486.7774086,,
usp000a1b0,6.7,10,35.456,133.134,,HRSH04,KIKnet,,34.3785,133.3493,99.78900366,,0.000136558,0.00013656,0.000137338,145.9016706,145.911815,147.6323553,31.2315952,31.26708859,32.75648111,0,11.36034238,22.72068477,447.7477477,,
usp000a1b0,6.7,10,35.456,133.134,,HRSH05,KIKnet,,34.5566,133.4179,80.30820122,,0.001970045,0.002026472,0.00250135,533.4063542,535.6935821,585.143306,196.9264437,198.1325081,219.9606209,327.3828723,330.7148563,377.5418902,370.5882353,,
usp000a1b0,6.7,10,35.456,133.134,,HRSH06,KIKnet,,34.9137,132.9123,56.48097822,,0.005478323,0.005486217,0.005780421,879.4930683,880.3099483,918.2249574,347.0472815,347.4853825,364.9288747,591.4911609,593.4046706,641.020946,279.1889935,,
usp000a1b0,6.7,10,35.456,133.134,,HRSH07,KIKnet,,34.2883,132.6411,127.2998808,,0.001234,0.001237487,0.001330313,450.1159292,450.2418556,460.8898071,154.3448541,154.4888042,161.1563867,220.0809763,221.5413881,246.9372642,461.4628117,,
usp000a1b0,6.7,10,35.456,133.134,,HRSH08,KIKnet,,34.3935,132.1611,146.1325926,,0.00015387,0.000161707,0.000211437,148.8257648,149.7493915,166.355776,31.11829563,31.94986931,39.19181838,0,25.83580715,51.67161431,781.1531308,,
usp000a1b0,6.7,10,35.456,133.134,,HRSH09,KIKnet,,34.7016,132.9524,73.30670621,,0.000569537,0.000581095,0.000696413,314.5227308,316.0329218,346.8916233,95.38690463,96.18233656,108.5265778,146.0514805,148.1946805,173.3069954,495.1456311,,
usp000a1b0,6.7,10,35.456,133.134,,HYGH01,KIKnet,,34.2937,134.7941,171.7927086,,0.000133259,0.000134211,0.000150172,147.5832086,147.6175782,150.802845,34.12431922,34.14524256,35.34041102,0,5.537665656,11.07533131,347.7865395,,
usp000a1b0,6.7,10,35.456,133.134,,HYGH02,KIKnet,,35.0671,134.4234,100.9854545,,0.000117168,0.000119848,0.000145051,134.8822245,135.1457278,143.5809669,25.46467287,25.84136347,30.23755524,0,8.705656952,17.4113139,612.0599115,,
usp000a1b0,6.7,10,35.456,133.134,,HYGH03,KIKnet,,35.2193,134.5237,107.4717098,,0.000849402,0.000898486,0.001191392,338.984202,341.1252491,379.2847355,120.760247,122.0130612,139.452954,165.2472904,168.8894679,203.7747855,508.8750209,,
usp000a1b0,6.7,10,35.456,133.134,,HYGH04,KIKnet,,35.0708,135.2811,177.8559843,,0.000358432,0.000369324,0.000458356,179.7256583,180.4756974,196.912397,48.4922125,48.92362839,55.40643195,79.50556133,81.60825415,100.0140375,472.047723,,
usp000a1b0,6.7,10,35.456,133.134,,HYGH05,KIKnet,,34.8995,134.3284,99.01968705,,0.001289724,0.001302502,0.001484503,457.1820674,459.293859,503.2871104,162.4257308,163.5143266,182.3509124,261.5466596,264.7739396,305.9878199,532.5443787,,
usp000a1b0,6.7,10,35.456,133.134,,HYGH06,KIKnet,,34.7935,134.4792,116.6186321,,0.000359268,0.000359694,0.000377197,222.2895642,222.3669679,228.2336601,68.32972236,68.38852595,71.22393128,86.97108049,87.02284491,90.02396047,368.5647426,,
usp000a1b0,6.7,10,35.456,133.134,,HYGH07,KIKnet,,35.0322,134.6701,123.7774644,,0.000238203,0.00024588,0.000306843,181.8613089,182.3695952,195.9759755,46.96989922,47.46680323,54.317057,51.43284861,58.5428863,86.50592655,519.4479297,,
usp000a1b0,6.7,10,35.456,133.134,,HYGH09,KIKnet,,34.9082,135.0844,163.8241827,,0.000397826,0.000417494,0.000544128,241.1368051,242.6448186,269.654987,68.34698226,69.57382176,82.58176893,72.80786211,76.61625459,100.4713522,364.430275,,
usp000a1b0,6.7,10,35.456,133.134,,HYGH10,KIKnet,,34.8164,134.8078,142.945555,,0.000482631,0.00049828,0.000622175,301.7396965,303.0863533,331.6256795,86.05791793,87.22338141,101.4343992,96.6417034,102.4590396,136.4919053,223.8717633,,
usp000a1b0,6.7,10,35.456,133.134,,HYGH11,KIKnet,,35.2925,134.9071,142.1122441,,0.000714257,0.000724733,0.000847515,318.1230663,318.7973058,339.5201658,107.9959508,108.4443183,118.2954497,132.6102353,134.3477982,155.8851233,270.6589958,,
usp000a1b0,6.7,10,35.456,133.134,,HYGH12,KIKnet,,34.9313,134.5423,115.7373322,,0.000799071,0.000806769,0.000917953,318.0450892,318.0486431,319.5521718,110.5477621,110.6044234,114.1443063,148.3750614,149.447485,167.3190239,677.4381046,,
usp000a1b0,6.7,10,35.456,133.134,,ISKH07,KIKnet,,36.515,136.6357,327.2357882,,2.43E-06,2.43E-06,2.52E-06,37.2580768,37.25831105,37.39043002,0,0,0,0,0,0,440,,
usp000a1b0,6.7,10,35.456,133.134,,KGWH01,KIKnet,,34.2186,133.9493,129.8994722,,0.001128541,0.001148621,0.001362459,386.0788296,388.0009802,426.5742601,139.7378912,141.0396936,160.1581906,201.0785879,203.2197706,232.6421543,255.244808,,
usp000a1b0,6.7,10,35.456,133.134,,KMMH01,KIKnet,,33.1089,130.6949,342.8434102,,9.39E-07,9.44E-07,1.04E-06,18.91860752,18.92053979,19.19093839,0,0,0,0,0,0,574.6309924,,
usp000a1b0,6.7,10,35.456,133.134,,KMMH02,KIKnet,,33.122,131.0629,318.4693944,,3.78E-06,3.87E-06,4.70E-06,43.0889607,43.167065,45.7626318,0,0,0,0,0,0,576.6687657,,
usp000a1b0,6.7,10,35.456,133.134,,KMMH04,KIKnet,,32.9514,131.0199,335.5641051,,0.000128972,0.000129496,0.000141143,291.8376447,291.8380876,292.3465382,24.12347713,24.28221404,27.0541754,0,0,0,120,,
usp000a1b0,6.7,10,35.456,133.134,,KMMH05,KIKnet,,32.9553,131.2207,323.6921805,,1.89E-05,1.90E-05,2.05E-05,78.95626285,79.16152919,84.85856872,0.157743894,0.509215666,0.993382434,0,0,0,230.1947333,,
usp000a1b0,6.7,10,35.456,133.134,,KMMH06,KIKnet,,32.8114,131.101,343.1826492,,2.38E-06,2.38E-06,2.43E-06,31.54060246,31.54062698,31.57995802,0,0,0,0,0,0,567.8233438,,
usp000a1b0,6.7,10,35.456,133.134,,KMMH08,KIKnet,,32.6501,131.0251,361.8279795,,1.65E-06,1.71E-06,2.13E-06,22.15871254,22.26696563,24.45995831,0,0,0,0,0,0,525.0578032,,
usp000a1b0,6.7,10,35.456,133.134,,KMMH12,KIKnet,,32.2054,130.7371,417.7452529,,3.14E-06,3.15E-06,3.37E-06,36.7765207,36.80477518,38.24664921,0,0,0,0,0,0,409.7560976,,
usp000a1b0,6.7,10,35.456,133.134,,KMMH13,KIKnet,,32.2209,130.9096,407.2696185,,6.82E-06,6.84E-06,7.32E-06,55.52539072,55.52633001,55.84930017,0,0,0,0,0,0,402.5229358,,
usp000a1b0,6.7,10,35.456,133.134,,KOCH01,KIKnet,,33.5421,134.1197,205.3108911,,1.61E-05,1.62E-05,1.77E-05,56.20607604,56.26371024,58.80970823,2.231693714,2.250063627,2.536994795,0,0,0,358.635883,,
usp000a1b0,6.7,10,35.456,133.134,,KOCH02,KIKnet,,33.7079,133.3641,174.1821403,,3.09E-05,3.09E-05,3.10E-05,70.28785492,70.33140713,72.80613544,6.378917184,6.388496713,6.738219184,0,0,0,385.8632677,,
usp000a1b0,6.7,10,35.456,133.134,,KOCH04,KIKnet,,32.8414,132.7066,276.6253729,,1.18E-06,1.19E-06,1.32E-06,21.05746462,21.09125472,22.28465722,0,0,0,0,0,0,1097.560976,,
usp000a1b0,6.7,10,35.456,133.134,,KOCH05,KIKnet,,33.6472,133.1444,181.8422902,,0.000713593,0.000736624,0.000919379,347.8507564,349.1743289,379.5480551,122.1483792,123.0917463,138.3019883,132.6501743,137.7821329,175.035957,775.5,,
usp000a1b0,6.7,10,35.456,133.134,,KOCH06,KIKnet,,33.0754,132.9524,246.9904837,,9.03E-06,9.04E-06,9.39E-06,50.28062792,50.28705885,51.09126252,0,0,0,0,0,0,775.5,,
usp000a1b0,6.7,10,35.456,133.134,,KYTH01,KIKnet,,35.5243,135.1243,163.9235971,,0.000117204,0.000118299,0.000134361,150.2464159,150.7830414,163.4928834,26.64307847,26.77249069,29.40167826,0,0,0,240.1524778,,
usp000a1b0,6.7,10,35.456,133.134,,KYTH02,KIKnet,,35.7101,135.2496,179.3388887,,3.45E-05,3.50E-05,4.12E-05,91.23656841,91.4067968,96.98273495,6.105590475,6.189638337,7.206195121,0,0,0,518.2512733,,
usp000a1b0,6.7,10,35.456,133.134,,KYTH03,KIKnet,,35.313,135.1334,162.714796,,0.000156405,0.000161032,0.000199359,136.7259855,137.171608,148.2194547,30.48229333,30.85818708,35.66001002,25.71703544,35.41703909,59.76864572,637.0584819,,
usp000a1b0,6.7,10,35.456,133.134,,KYTH04,KIKnet,,35.2685,135.5508,200.6903864,,1.63E-05,1.64E-05,1.68E-05,52.71774222,52.71780123,52.79667869,2.176824193,2.213804628,2.616752969,0,0,0,1068.942392,,
usp000a1b0,6.7,10,35.456,133.134,,MIEH01,KIKnet,,34.9849,136.4563,285.4160097,,7.44E-06,7.45E-06,7.78E-06,58.92782839,58.97639086,61.36923853,0,0.102969472,0.205938943,0,0,0,342.0391614,,
usp000a1b0,6.7,10,35.456,133.134,,MIEH02,KIKnet,,34.7662,136.2835,274.1114047,,2.55E-06,2.55E-06,2.58E-06,27.29091854,27.29110714,27.39256735,0,0,0,0,0,0,423.1493618,,
usp000a1b0,6.7,10,35.456,133.134,,MIEH04,KIKnet,,34.3532,136.5866,313.8060907,,9.23E-07,9.36E-07,1.09E-06,19.00340445,19.09821946,20.99890506,0,0,0,0,0,0,490.2836944,,
usp000a1b0,6.7,10,35.456,133.134,,MIEH05,KIKnet,,34.0637,136.1689,291.7563762,,1.93E-06,1.98E-06,2.39E-06,25.9813211,26.11966858,28.804448,0,0,0,0,0,0,590.078831,,
usp000a1b0,6.7,10,35.456,133.134,,MIEH06,KIKnet,,34.358,136.3293,291.4693282,,5.72E-07,5.72E-07,5.97E-07,15.27958126,15.30094997,16.10932276,0,0,0,0,0,0,939.0255808,,
usp000a1b0,6.7,10,35.456,133.134,,MIEH07,KIKnet,,34.2544,136.8216,337.898365,,1.03E-06,1.03E-06,1.06E-06,20.74669607,20.74671589,20.77539465,0,0,0,0,0,0,616.7086145,,
usp000a1b0,6.7,10,35.456,133.134,,MIEH08,KIKnet,,34.5424,136.5033,299.9287096,,1.23E-06,1.23E-06,1.30E-06,19.92152991,19.94622138,20.93838746,0,0,0,0,0,0,1009.772344,,
usp000a1b0,6.7,10,35.456,133.134,,MIEH09,KIKnet,,33.7644,135.9969,295.7492456,,2.77E-06,2.78E-06,3.08E-06,32.04175506,32.0613843,33.18312223,0,0,0,0,0,0,608.1538239,,
usp000a1b0,6.7,10,35.456,133.134,,MIEH10,KIKnet,,34.8224,136.4245,285.4478292,,1.13E-05,1.16E-05,1.41E-05,75.24287948,75.35959579,79.55218042,0,0.54659545,1.0931909,0,0,0,421.8571223,,
usp000a1b0,6.7,10,35.456,133.134,,MYZH01,KIKnet,,32.6536,131.2257,350.8400904,,3.59E-06,3.66E-06,4.38E-06,32.51922337,32.7083435,36.22058582,0,0,0,0,0,0,546.8441501,,
usp000a1b0,6.7,10,35.456,133.134,,MYZH02,KIKnet,,32.6972,131.6829,324.8457722,,7.89E-07,8.09E-07,9.88E-07,16.61474908,16.66640945,17.97763663,0,0,0,0,0,0,918.9186275,,
usp000a1b0,6.7,10,35.456,133.134,,MYZH03,KIKnet,,32.4754,131.1043,373.6183515,,5.03E-07,5.07E-07,5.71E-07,13.40021016,13.42124462,14.1723603,0,0,0,0,0,0,535.6442119,,
usp000a1b0,6.7,10,35.456,133.134,,MYZH04,KIKnet,,32.5181,131.3349,358.1430479,,1.10E-06,1.10E-06,1.11E-06,20.48391052,20.4876457,20.87884376,0,0,0,0,0,0,484.4218095,,
usp000a1b0,6.7,10,35.456,133.134,,MYZH05,KIKnet,,32.347,131.2668,377.7509786,,5.80E-07,5.81E-07,6.19E-07,14.46320293,14.46603913,14.7524814,0,0,0,0,0,0,1072.486857,,
usp000a1b0,6.7,10,35.456,133.134,,MYZH06,KIKnet,,32.3607,131.4643,367.4327588,,1.09E-06,1.10E-06,1.27E-06,19.73666781,19.79125423,21.26016123,0,0,0,0,0,0,743.4884022,,
usp000a1b0,6.7,10,35.456,133.134,,MYZH07,KIKnet,,32.1987,131.1946,395.3998312,,4.74E-07,4.87E-07,5.99E-07,13.42619246,13.49099932,14.81176377,0,0,0,0,0,0,877.7602524,,
usp000a1b0,6.7,10,35.456,133.134,,MYZH10,KIKnet,,32.0215,131.29,408.385642,,1.42E-06,1.45E-06,1.73E-06,23.03684593,23.06230819,24.14572336,0,0,0,0,0,0,494.7453517,,
usp000a1b0,6.7,10,35.456,133.134,,MYZH11,KIKnet,,32.0208,131.47,400.9392455,,6.81E-06,6.94E-06,8.31E-06,61.03850898,61.23855733,66.18439653,0,0,0,0,0,0,509.5588235,,
usp000a1b0,6.7,10,35.456,133.134,,MYZH12,KIKnet,,31.8643,130.9454,439.2738772,,1.36E-06,1.37E-06,1.49E-06,24.1615493,24.17853881,25.08478079,0,0,0,0,0,0,319.4726166,,
usp000a1b0,6.7,10,35.456,133.134,,MYZH13,KIKnet,,31.7301,131.0791,446.2559286,,4.89E-06,4.90E-06,5.09E-06,44.38427181,44.41020975,45.92782181,0,0,0,0,0,0,251.1627907,,
usp000a1b0,6.7,10,35.456,133.134,,NARH01,KIKnet,,33.9666,135.6489,256.5088934,,2.63E-05,2.81E-05,3.81E-05,81.64439643,82.8786672,97.12879029,3.919664089,4.418490377,6.457924279,0,0,0,338.4088508,,
usp000a1b0,6.7,10,35.456,133.134,,NARH03,KIKnet,,34.2925,136.0022,266.6332437,,2.19E-06,2.22E-06,2.58E-06,26.87191456,26.92071254,28.54088877,0,0,0,0,0,0,492.1200474,,
usp000a1b0,6.7,10,35.456,133.134,,NARH04,KIKnet,,34.3061,135.8369,252.2466838,,1.37E-06,1.39E-06,1.63E-06,21.71906164,21.77669928,23.36004789,0,0,0,0,0,0,632.662326,,
usp000a1b0,6.7,10,35.456,133.134,,NARH05,KIKnet,,34.4237,136.0294,263.144395,,8.08E-06,8.10E-06,8.57E-06,47.63871112,47.67622929,49.56727187,0,0.066697024,0.133394048,0,0,0,396.9758442,,
