USGS_eventID,magnitude,depth(km),source_lat,source_lon,rake_angle,station_name,station_type,elev(m),station_lat,station_lon,rdist(km),fault_type,Ia_geom,Ia_arith,Ia_max,CAV_geom,CAV_arith,CAV_max,CAV5_geom,CAV5_arith,CAV5_max,CAVstd_geom,CAVstd_arith,CAVstd_max,Vs30,PGA,PGV
usp000d6vk,6.6,16,37.226,138.779,,IWTH25,KIKnet,,39.0092,140.8638,258.8436765,,7.57E-07,7.58E-07,7.81E-07,17.89283483,17.89294065,17.95447921,0,0,0,0,0,0,506.4444444,,
usp000d6vk,6.6,16,37.226,138.779,,IWTH26,KIKnet,,38.969,141.0013,264.0078154,,3.96E-06,3.97E-06,4.07E-06,42.23428443,42.23430679,42.27776728,0,0,0,0,0,0,371.0586793,,
usp000d6vk,6.6,16,37.226,138.779,,KNGH10,KIKnet,,35.4991,139.5195,207.276213,,0.000360803,0.00036082,0.000364285,339.3463514,339.3567507,342.0134473,75.70583793,75.73078289,77.67438271,14.30754528,14.31287079,14.70327879,364.8288035,,
usp000d6vk,6.6,16,37.226,138.779,,KNGH11,KIKnet,,35.404,139.3539,213.9037773,,5.17E-05,5.17E-05,5.30E-05,120.0387209,120.0434762,121.1119528,7.368803343,7.377615703,7.738102526,0,0,0,171.0455367,,
usp000d6vk,6.6,16,37.226,138.779,,KNGH18,KIKnet,,35.6437,139.1283,184.2910159,,2.53E-05,3.63E-05,6.23E-05,58.60913571,64.31564861,90.8009628,4.427935269,6.76482806,11.8791499,0,0,0,388.4210526,,
usp000d6vk,6.6,16,37.226,138.779,,KNGH19,KIKnet,,35.4173,139.0436,208.5194966,,1.10E-06,1.10E-06,1.18E-06,18.6537931,18.65457762,18.82565986,0,0,0,0,0,0,751.7899761,,
usp000d6vk,6.6,16,37.226,138.779,,KNGH20,KIKnet,,35.3663,139.126,214.8366259,,7.46E-06,7.46E-06,7.61E-06,51.4396337,51.45940695,52.88581775,0,0,0,0,0,0,272.7272727,,
usp000d6vk,6.6,16,37.226,138.779,,KNGH21,KIKnet,,35.4628,139.2146,205.2513856,,2.09E-06,2.09E-06,2.23E-06,23.42202404,23.45568827,24.7119136,0,0,0,0,0,0,792.4528302,,
usp000d6vk,6.6,16,37.226,138.779,,MYGH01,KIKnet,,38.24,140.9969,215.1985093,,7.70E-05,7.71E-05,7.95E-05,149.1028913,149.1636888,153.4220754,14.24425474,14.24763825,14.55812555,0,0,0,210,,
usp000d6vk,6.6,16,37.226,138.779,,MYGH02,KIKnet,,38.8587,140.6513,234.0639173,,9.45E-06,9.45E-06,9.70E-06,50.02626298,50.02819562,50.46793328,0,0.01256058,0.025121159,0,0,0,398.5857834,,
usp000d6vk,6.6,16,37.226,138.779,,MYGH05,KIKnet,,38.5793,140.7804,220.763891,,4.20E-05,4.21E-05,4.44E-05,138.3993254,138.4696696,142.8828476,5.889020053,5.90908786,6.395669981,0,0,0,305.3311793,,
usp000d6vk,6.6,16,37.226,138.779,,MYGH06,KIKnet,,38.5907,141.071,241.5353117,,4.05E-06,4.05E-06,4.05E-06,44.67963317,44.68065346,44.98260251,0,0,0,0,0,0,593.1232092,,
usp000d6vk,6.6,16,37.226,138.779,,MYGH08,KIKnet,,38.1133,140.8441,196.7901977,,1.09E-05,1.12E-05,1.39E-05,53.55904345,53.64146981,56.61403572,0,1.203588803,2.407177606,0,0,0,203.4482759,,
usp000d6vk,6.6,16,37.226,138.779,,MYGH09,KIKnet,,38.0091,140.6027,172.6633656,,4.36E-05,4.42E-05,5.10E-05,124.6525622,125.0468232,134.9688566,7.382382049,7.411459986,8.067336808,0,0,0,358.245329,,
usp000d6vk,6.6,16,37.226,138.779,,MYGH10,KIKnet,,37.9411,140.8924,192.822142,,3.13E-05,3.14E-05,3.26E-05,123.5011821,123.5047735,124.4466379,2.680942583,2.728316799,3.23453752,0,0,0,347.5372651,,
usp000d6vk,6.6,16,37.226,138.779,,MYGH11,KIKnet,,38.5158,141.3421,256.6274554,,5.93E-07,5.99E-07,6.82E-07,12.89563114,12.91281996,13.57886573,0,0,0,0,0,0,859.1879595,,
usp000d6vk,6.6,16,37.226,138.779,,NGNH07,KIKnet,,36.7434,138.376,74.84903986,,0.000221874,0.000223349,0.000248971,179.5103922,179.573642,184.3393507,37.37404812,37.44720791,39.78684611,45.26501743,45.52645745,50.39847192,391.7999878,,
usp000d6vk,6.6,16,37.226,138.779,,NGNH08,KIKnet,,36.2541,137.8591,146.0708679,,1.77E-05,1.77E-05,1.81E-05,69.69628245,69.7107343,71.13013184,1.396864988,1.426142176,1.713630805,0,0,0,432.6923077,,
usp000d6vk,6.6,16,37.226,138.779,,NGNH09,KIKnet,,36.2859,138.2491,124.4293064,,2.13E-05,2.14E-05,2.31E-05,64.5842622,64.60550364,66.26205907,2.386706115,2.433099584,2.90597114,0,0,0,900,,
usp000d6vk,6.6,16,37.226,138.779,,NGNH10,KIKnet,,35.9632,137.7669,177.1778142,,9.20E-06,9.28E-06,1.05E-05,45.71447352,45.8537132,49.42441691,0.413660117,0.498533952,0.776780979,0,0,0,511.1139177,,
usp000d6vk,6.6,16,37.226,138.779,,NGNH11,KIKnet,,35.9157,138.3052,160.6808434,,1.93E-05,1.95E-05,2.26E-05,80.36696778,80.49125651,84.96259463,0,0.305946088,0.611892176,0,0,0,372.1330112,,
usp000d6vk,6.6,16,37.226,138.779,,NGNH12,KIKnet,,35.9696,138.4797,150.672318,,1.58E-05,1.58E-05,1.59E-05,71.12896713,71.15383989,73.03505392,0.251092186,0.454581062,0.833522557,0,0,0,296.5,,
usp000d6vk,6.6,16,37.226,138.779,,NGNH13,KIKnet,,35.5143,137.8767,216.2390915,,4.35E-06,4.37E-06,4.72E-06,30.38029118,30.38539982,30.94256228,0,0,0,0,0,0,513.0481283,,
usp000d6vk,6.6,16,37.226,138.779,,NGNH14,KIKnet,,35.3095,137.6261,246.5059739,,3.33E-06,3.37E-06,3.93E-06,27.19740839,27.25569755,29.03727709,0,0,0,0,0,0,504,,
usp000d6vk,6.6,16,37.226,138.779,,NGNH15,KIKnet,,36.0088,137.9305,165.097533,,3.91E-06,3.93E-06,4.38E-06,28.65414959,28.65837442,29.15044713,0,0.122108843,0.244217685,0,0,0,728.135282,,
usp000d6vk,6.6,16,37.226,138.779,,NGNH16,KIKnet,,35.9465,138.1848,161.1963226,,1.85E-05,1.96E-05,2.60E-05,64.19036819,64.60008263,71.86419359,2.21274169,2.569516321,3.875727763,0,0,0,276.2084118,,
usp000d6vk,6.6,16,37.226,138.779,,NGNH17,KIKnet,,36.1425,138.5504,130.5524136,,1.72E-05,1.72E-05,1.74E-05,49.74054414,49.74818979,50.62034544,2.493643374,2.518784804,2.873777213,0,0,0,608.6956522,,
usp000d6vk,6.6,16,37.226,138.779,,NGNH18,KIKnet,,35.9324,137.595,188.8852042,,6.81E-05,6.81E-05,6.90E-05,111.7861467,111.7945429,113.1646647,15.06437085,15.0764288,15.67928554,0,0,0,379.472693,,
usp000d6vk,6.6,16,37.226,138.779,,NGNH19,KIKnet,,35.9735,138.5845,148.3709002,,9.14E-06,9.16E-06,9.80E-06,41.29449716,41.35130525,43.51808873,0.306874178,0.343758987,0.498673416,0,0,0,473.4959625,,
usp000d6vk,6.6,16,37.226,138.779,,NGNH20,KIKnet,,35.787,137.7173,196.0917334,,3.06E-06,3.12E-06,3.74E-06,26.46055956,26.51417574,28.19949552,0,0,0,0,0,0,529.7678615,,
usp000d6vk,6.6,16,37.226,138.779,,NGNH22,KIKnet,,35.7946,138.0824,180.3022759,,7.96E-07,8.04E-07,9.14E-07,16.09825653,16.10522628,16.57898807,0,0,0,0,0,0,938.5026738,,
usp000d6vk,6.6,16,37.226,138.779,,NGNH23,KIKnet,,35.6056,137.6105,218.3223506,,5.66E-06,5.67E-06,6.04E-06,35.59578478,35.61608075,36.81829283,0,0.086789804,0.173579609,0,0,0,524.2718447,,
usp000d6vk,6.6,16,37.226,138.779,,NGNH24,KIKnet,,35.6152,137.8797,205.9434828,,9.39E-06,9.39E-06,9.61E-06,53.50949869,53.50950034,53.52279478,0,0.117515512,0.235031023,0,0,0,464.2392718,,
usp000d6vk,6.6,16,37.226,138.779,,NGNH25,KIKnet,,35.2986,137.9268,236.6635469,,5.72E-07,5.72E-07,5.82E-07,12.98862556,12.9929933,13.32986249,0,0,0,0,0,0,622.9166667,,
usp000d6vk,6.6,16,37.226,138.779,,NGNH26,KIKnet,,36.4663,138.1474,111.7664853,,0.000181643,0.000182285,0.000197567,166.4794889,166.4795058,166.554556,38.35126867,38.36179973,39.26061547,27.56330306,29.02796704,38.13220753,300.4651163,,
usp000d6vk,6.6,16,37.226,138.779,,NGNH27,KIKnet,,36.577,138.0479,107.718539,,0.000117459,0.000117462,0.000118261,200.382081,200.3820956,200.4586081,27.77276609,27.80065116,29.04550791,0,0,0,477.5426309,,
usp000d6vk,6.6,16,37.226,138.779,,NGNH28,KIKnet,,36.7075,138.0964,94.32995932,,0.00018544,0.000185917,0.000199229,245.5957643,245.6069483,247.9507948,39.02676233,39.04123591,40.10421458,10.96786142,11.00104977,11.85493033,1172.093023,,
usp000d6vk,6.6,16,37.226,138.779,,NGNH29,KIKnet,,36.9102,138.4408,56.75720744,,0.002134392,0.002137665,0.002255911,558.165785,558.2547593,568.2213402,196.0476388,196.1141939,201.2230431,338.8052325,338.8245093,342.4387199,464.921466,,
usp000d6vk,6.6,16,37.226,138.779,,NGNH30,KIKnet,,36.064,137.6849,172.3473689,,1.97E-05,1.97E-05,2.04E-05,58.21492182,58.21607073,58.58181459,2.979733632,2.99352142,3.280502207,0,0,0,456.558295,,
usp000d6vk,6.6,16,37.226,138.779,,NGNH31,KIKnet,,36.1184,137.9389,154.3031486,,1.77E-05,1.80E-05,2.12E-05,68.46849069,68.55910256,72.08278339,1.263512385,1.433117753,2.109403895,0,0,0,526.8718373,,
usp000d6vk,6.6,16,37.226,138.779,,NGNH32,KIKnet,,36.2578,137.9898,138.8471855,,6.23E-05,6.23E-05,6.28E-05,104.0429527,104.0565325,105.7375877,13.09860392,13.09946094,13.2493021,0,0,0,309.598268,,
usp000d6vk,6.6,16,37.226,138.779,,NGNH33,KIKnet,,36.4598,137.9637,122.4511503,,3.40E-05,3.40E-05,3.51E-05,89.87234108,89.89731978,92.0163791,5.942580932,5.973026817,6.575340036,0,0,0,435.3967232,,
usp000d6vk,6.6,16,37.226,138.779,,NGNH34,KIKnet,,36.5327,137.8201,125.6385437,,1.41E-05,1.42E-05,1.59E-05,60.5717159,60.60060668,62.47163931,0.595419978,0.715553886,1.112407025,0,0,0,572.6567915,,
usp000d6vk,6.6,16,37.226,138.779,,NGNH35,KIKnet,,36.3824,137.8201,137.4307659,,5.37E-05,5.46E-05,6.45E-05,102.4748546,102.6757356,109.0953033,12.04703357,12.46473032,15.66449346,0,0,0,511.9251887,,
usp000d6vk,6.6,16,37.226,138.779,,NGNH36,KIKnet,,36.6984,137.8482,112.0255519,,3.53E-05,3.54E-05,3.80E-05,85.00235471,85.00265408,85.22825505,5.905383855,5.946729319,6.646751543,0,0,0,488.75,,
usp000d6vk,6.6,16,37.226,138.779,,NGNH37,KIKnet,,36.3308,138.4967,111.5625443,,5.26E-05,5.26E-05,5.30E-05,130.8826712,130.9569434,135.3668654,6.771192393,6.872953362,8.051274833,0,0,0,338.3705052,,
usp000d6vk,6.6,16,37.226,138.779,,NIGH01,KIKnet,,37.4272,138.8876,15.2258406,,0.08028715,0.081031647,0.091990726,2855.972438,2861.025114,3030.98434,1261.330788,1264.323239,1351.259391,2301.746855,2308.56641,2485.880494,399.6000061,,
usp000d6vk,6.6,16,37.226,138.779,,NIGH02,KIKnet,,38.2799,139.5486,125.1077717,,0.000371863,0.000374569,0.000419516,332.9005168,333.1781578,346.7770826,68.0260112,68.24032665,73.64439749,58.5257802,59.97477122,73.07844382,360,,
usp000d6vk,6.6,16,37.226,138.779,,NIGH03,KIKnet,,38.1327,139.4289,105.745649,,0.000246235,0.000248939,0.000285532,310.9281153,311.0700938,320.4674524,48.79034929,49.18043726,55.36244543,20.7227575,26.96580533,44.22042728,251.396648,,
usp000d6vk,6.6,16,37.226,138.779,,NIGH04,KIKnet,,38.1313,139.5428,110.6760377,,0.000798063,0.000809152,0.000942653,438.7841,439.3812803,462.2815664,120.876039,121.5859499,134.705645,179.4284366,180.195169,196.8004405,392.0792079,,
usp000d6vk,6.6,16,37.226,138.779,,NIGH05,KIKnet,,37.9759,139.2788,84.25988017,,0.001407588,0.001428126,0.001669458,657.8538741,658.7786973,693.6735743,168.1668184,169.8305009,193.5437931,220.8539346,222.135375,245.9610835,244.8405253,,
usp000d6vk,6.6,16,37.226,138.779,,NIGH06,KIKnet,,37.6527,139.0676,43.89078737,,0.026340008,0.026677526,0.030907697,1953.433987,1955.812468,2052.238962,820.9431866,822.2486843,868.5648071,1449.321328,1452.587802,1549.948008,482.1428571,,
usp000d6vk,6.6,16,37.226,138.779,,NIGH07,KIKnet,,37.6658,139.261,54.26657347,,0.00140391,0.00140813,0.001517072,469.9995669,470.3489712,488.4752468,152.2996613,152.5149475,160.6157122,239.2749905,239.6052917,252.1820459,528.1930671,,
usp000d6vk,6.6,16,37.226,138.779,,NIGH08,KIKnet,,37.6708,139.4648,67.62023347,,0.002545133,0.002547214,0.002650161,690.6436169,690.6890924,698.6148018,235.7913097,235.8534944,241.2691246,358.7348497,359.1431157,376.2628476,326.8792711,,
usp000d6vk,6.6,16,37.226,138.779,,NIGH09,KIKnet,,37.5386,139.1279,35.8969416,,0.015277717,0.015364938,0.016999772,1296.335634,1297.921032,1362.053155,519.9244368,520.7717857,550.4674565,933.9856405,935.4509271,987.7888697,462.934947,,
usp000d6vk,6.6,16,37.226,138.779,,NIGH10,KIKnet,,37.5438,139.3648,52.24037739,,0.003098431,0.003155988,0.003755977,640.2487763,641.2498817,677.0676887,229.6020475,230.1903995,246.6378856,406.6691663,408.3741392,445.6518364,653.2810271,,
usp000d6vk,6.6,16,37.226,138.779,,NIGH11,KIKnet,,37.1728,138.744,17.06525721,,0.019790134,0.020120263,0.023750081,1519.209994,1519.239045,1528.634281,601.7030298,601.7083462,604.2377302,1021.372826,1021.383496,1026.052286,375,,
usp000d6vk,6.6,16,37.226,138.779,,NIGH12,KIKnet,,37.2239,138.9821,12.63775867,,0.018354079,0.018864352,0.023222281,1489.265508,1491.620671,1575.408937,592.5330992,594.4452469,642.0863839,1082.168465,1087.233158,1192.053732,552.9837556,,
usp000d6vk,6.6,16,37.226,138.779,,NIGH13,KIKnet,,37.0544,138.3966,49.34295672,,0.000871403,0.000905543,0.001151847,451.1658217,452.1891488,482.5935505,124.2328224,125.6419658,144.4065441,159.413467,166.868311,216.1874732,461.0979335,,
usp000d6vk,6.6,16,37.226,138.779,,NIGH15,KIKnet,,37.0533,138.9951,28.72872857,,0.003746595,0.003881777,0.004897269,679.6070461,686.5327484,783.8028747,246.6003463,249.8138198,289.7539474,442.8303912,449.0781182,523.7266341,685.7764877,,
usp000d6vk,6.6,16,37.226,138.779,,NIGH16,KIKnet,,36.9378,137.848,98.68479394,,0.000185926,0.000188861,0.000222028,167.1873584,167.6614579,180.261126,42.31288467,42.75553273,48.89192985,13.04078459,16.85807134,27.54135298,525,,
usp000d6vk,6.6,16,37.226,138.779,,NIGH17,KIKnet,,36.8569,138.0966,83.75084015,,0.000466867,0.000468102,0.000502075,309.3482422,309.6692309,323.7652447,73.74122882,73.94197098,79.38680746,72.08709469,75.82251711,99.32793947,383.3837743,,
usp000d6vk,6.6,16,37.226,138.779,,NIGH18,KIKnet,,36.9425,138.2594,66.42220659,,0.002059716,0.00209481,0.002476646,622.074204,622.9494521,655.9601257,208.8475949,209.5546994,226.7551112,302.8767316,310.0775055,376.5135264,311.0979929,,
usp000d6vk,6.6,16,37.226,138.779,,NIGH19,KIKnet,,36.8114,138.7849,53.7240073,,0.000456372,0.000461284,0.000528423,252.4015828,252.5215979,260.3060947,68.08582658,68.14623519,71.01496123,85.94885577,86.16915114,92.3268131,625,,
usp000d6vk,6.6,16,37.226,138.779,,SITH03,KIKnet,,35.899,139.3843,161.2558801,,4.92E-05,4.94E-05,5.45E-05,126.5822537,126.972119,136.9145559,7.711098135,7.739407707,8.400767823,0,0,0,266.5880029,,
usp000d6vk,6.6,16,37.226,138.779,,SITH04,KIKnet,,35.8028,139.5353,175.6492137,,4.12E-05,4.18E-05,4.88E-05,142.3829882,142.6549729,151.4598558,1.82580887,2.391102465,3.935056147,0,0,0,254.3738927,,
usp000d6vk,6.6,16,37.226,138.779,,SITH05,KIKnet,,36.1509,139.0504,127.5760354,,0.000106242,0.000107639,0.000124927,111.9356006,112.1111774,118.3831316,22.32099606,22.56583045,25.88092304,18.98751127,19.05608487,20.6712586,670.212766,,
usp000d6vk,6.6,16,37.226,138.779,,SITH06,KIKnet,,36.1131,139.2894,136.0539621,,0.000473853,0.000480871,0.000562729,288.6084887,289.8020398,316.0767905,73.23747312,74.19917128,86.106713,94.21966919,95.8133966,113.2162959,369.4029851,,
usp000d6vk,6.6,16,37.226,138.779,,SITH07,KIKnet,,35.9118,139.1485,155.1084657,,2.18E-05,2.18E-05,2.22E-05,56.69818995,56.73083315,58.65506959,3.91094975,3.929423595,4.310004521,0,0,0,705.4455446,,
usp000d6vk,6.6,16,37.226,138.779,,SITH08,KIKnet,,36.0274,138.9691,140.5200937,,6.12E-05,6.19E-05,7.07E-05,96.81272105,96.87552933,100.3633977,13.97725825,14.07858616,15.76465848,0,0,0,520.5971354,,
usp000d6vk,6.6,16,37.226,138.779,,SITH09,KIKnet,,36.0715,139.0993,136.9133955,,3.07E-05,3.16E-05,3.89E-05,62.52270684,62.55798224,64.6585231,6.289989428,6.416243371,7.682818276,0,0,0,1112.787431,,
usp000d6vk,6.6,16,37.226,138.779,,SITH10,KIKnet,,35.9964,139.2191,147.0726536,,3.99E-05,4.01E-05,4.37E-05,72.38701609,72.47832717,76.11533293,7.844042652,7.855558488,8.280757313,0,0,0,542.0021569,,
usp000d6vk,6.6,16,37.226,138.779,,SITH11,KIKnet,,35.8637,139.2726,162.4934896,,0.000381549,0.000414082,0.000574968,227.4211971,230.397427,267.3104803,60.23348303,63.21892502,82.41684167,67.71478385,68.88772377,81.54578581,371.6216216,,
usp000d6vk,6.6,16,37.226,138.779,,SZOH29,KIKnet,,35.307,138.1973,228.2218104,,5.03E-07,5.08E-07,5.77E-07,12.43238926,12.4441447,12.98491673,0,0,0,0,0,0,519.763068,,
usp000d6vk,6.6,16,37.226,138.779,,SZOH30,KIKnet,,35.2233,137.9181,244.7709525,,3.68E-07,3.68E-07,3.69E-07,10.74324714,10.74353521,10.82220894,0,0,0,0,0,0,505.7293962,,
usp000d6vk,6.6,16,37.226,138.779,,SZOH32,KIKnet,,35.0086,137.8409,269.5630319,,2.99E-07,2.99E-07,3.10E-07,10.15496794,10.16032856,10.49033269,0,0,0,0,0,0,579.1701948,,
usp000d6vk,6.6,16,37.226,138.779,,SZOH33,KIKnet,,35.0146,138.3526,256.7987884,,4.90E-07,4.91E-07,5.09E-07,13.09481031,13.09481427,13.10499636,0,0,0,0,0,0,519.7912485,,
usp000d6vk,6.6,16,37.226,138.779,,SZOH34,KIKnet,,35.1304,138.4243,243.0281366,,3.60E-06,3.60E-06,3.69E-06,35.29566153,35.29704598,35.60966695,0,0,0,0,0,0,430.1860137,,
usp000d6vk,6.6,16,37.226,138.779,,SZOH35,KIKnet,,34.9467,139.0855,260.8689201,,4.66E-06,4.68E-06,5.03E-06,38.36484982,38.37710106,39.34673196,0,0,0,0,0,0,158.3333333,,
usp000d6vk,6.6,16,37.226,138.779,,SZOH37,KIKnet,,35.2028,138.5659,233.2888825,,2.47E-06,2.54E-06,3.11E-06,30.71019856,30.73182933,31.8846686,0,0,0,0,0,0,365.9517426,,
usp000d6vk,6.6,16,37.226,138.779,,SZOH38,KIKnet,,35.0854,138.9779,244.9421127,,1.77E-06,1.78E-06,1.88E-06,26.59638541,26.60729172,27.3690369,0,0,0,0,0,0,588.4689714,,
usp000d6vk,6.6,16,37.226,138.779,,SZOH39,KIKnet,,34.7988,138.7724,276.6655433,,6.08E-07,6.13E-07,6.90E-07,16.59798614,16.62291803,17.53300587,0,0,0,0,0,0,376.8203883,,
usp000d6vk,6.6,16,37.226,138.779,,SZOH40,KIKnet,,34.7832,138.97,278.4195664,,2.38E-07,2.39E-07,2.56E-07,9.351371412,9.356319275,9.660561106,0,0,0,0,0,0,492.7536232,,
usp000d6vk,6.6,16,37.226,138.779,,SZOH41,KIKnet,,34.6749,138.834,290.2944243,,3.50E-07,3.52E-07,3.93E-07,11.08399889,11.08819062,11.39305076,0,0,0,0,0,0,609.8984772,,
usp000d6vk,6.6,16,37.226,138.779,,SZOH42,KIKnet,,34.9756,138.9128,256.9533671,,8.18E-06,8.32E-06,9.86E-06,61.61930156,61.9063282,67.86075056,0,0,0,0,0,0,152.9411765,,
usp000d6vk,6.6,16,37.226,138.779,,SZOH43,KIKnet,,34.9739,138.4924,259.3097338,,2.19E-06,2.23E-06,2.65E-06,35.27194235,35.37371455,38.05508799,0,0,0,0,0,0,323.4672304,,
usp000d6vk,6.6,16,37.226,138.779,,TCGH06,KIKnet,,36.4458,139.9509,134.6758345,,7.43E-05,7.44E-05,7.88E-05,178.0380818,178.2685548,187.3305125,10.95450921,10.96894074,11.53142539,0,0,0,0,,
usp000d6vk,6.6,16,37.226,138.779,,TCGH07,KIKnet,,36.8817,139.4534,69.1490204,,0.002257709,0.002276559,0.002568912,601.4463744,601.8452954,623.7546176,205.5410301,205.7903918,215.9180898,359.8131427,360.1746108,376.3069562,419.4915254,,
usp000d6vk,6.6,16,37.226,138.779,,TCGH08,KIKnet,,36.8828,139.6459,82.75285093,,0.000321182,0.000324953,0.000374314,233.3772677,234.0122327,251.2394199,61.94047944,62.34085947,69.39491968,67.09985048,67.25064219,71.75163539,723.2319531,,
usp000d6vk,6.6,16,37.226,138.779,,TCGH09,KIKnet,,36.8625,139.8364,98.44748215,,0.000143752,0.000144767,0.000161876,180.4921649,180.7095893,189.5715358,33.28410167,33.49233096,37.22124627,8.425650694,8.433296292,8.7923182,514.2857143,,
usp000d6vk,6.6,16,37.226,138.779,,TCGH10,KIKnet,,36.8578,140.0225,113.4423268,,0.000234532,0.000234532,0.000234671,297.8776106,297.927008,303.352062,52.29902708,52.31423137,53.57540938,24.45410468,24.50996601,26.16380947,371.4622642,,
usp000d6vk,6.6,16,37.226,138.779,,TCGH11,KIKnet,,36.7084,139.7694,103.1123721,,0.000372001,0.000381013,0.000463392,250.2741458,251.0849555,271.2469699,68.35594275,68.77924585,76.39828457,78.42968617,78.72802997,85.57544047,328.9791573,,
usp000d6vk,6.6,16,37.226,138.779,,TCGH12,KIKnet,,36.6959,139.9842,119.381996,,0.000300401,0.000300489,0.000307754,338.4025889,338.4857023,345.9862716,56.88514409,57.00199692,60.65001483,44.87931831,45.74419142,54.59731721,343.6781609,,
usp000d6vk,6.6,16,37.226,138.779,,TCGH13,KIKnet,,36.7342,140.1781,132.0338904,,0.000201412,0.00020256,0.000224098,210.0187141,210.35414,222.228649,44.81175904,45.14679206,50.63669956,10.55590746,10.59720321,11.53183335,573.5963581,,
usp000d6vk,6.6,16,37.226,138.779,,TCGH14,KIKnet,,36.5509,139.6154,105.7952558,,0.000200629,0.00020067,0.000204699,191.9143181,191.9202235,193.4257787,44.58090087,44.58138901,44.79001338,23.92945485,24.31517856,28.62900507,849.0051348,,
usp000d6vk,6.6,16,37.226,138.779,,TCGH15,KIKnet,,36.5595,139.8637,120.316104,,9.79E-05,9.80E-05,0.000101792,187.5951927,187.5961126,188.1835939,19.96216907,20.0201728,21.54304023,0,0,0,423.0005954,,
usp000d6vk,6.6,16,37.226,138.779,,TCGH16,KIKnet,,36.548,140.0751,135.5965573,,0.000305155,0.000308432,0.000353272,371.9666086,372.4113114,390.6054589,68.55799439,69.47011156,80.69053068,0,14.69666147,29.39332295,213.1979695,,
