USGS_eventID,magnitude,depth(km),source_lat,source_lon,rake_angle,station_name,station_type,elev(m),station_lat,station_lon,rdist(km),fault_type,Ia_geom,Ia_arith,Ia_max,CAV_geom,CAV_arith,CAV_max,CAV5_geom,CAV5_arith,CAV5_max,CAVstd_geom,CAVstd_arith,CAVstd_max,Vs30,PGA,PGV
usp000d6vk,6.6,16,37.226,138.779,,YMT009,Knet,,38.3898,140.2743,173.8312689,,6.17E-05,6.26E-05,7.33E-05,121.1651417,121.4585888,129.8964338,11.61363381,11.87233384,14.33725177,0,0,0,356.3,,
usp000d6vk,6.6,16,37.226,138.779,,YMT010,Knet,,38.2604,140.3488,169.1671295,,3.79E-05,3.80E-05,3.99E-05,84.00920085,84.02951688,85.87718559,8.614505524,8.680942538,9.752883734,0,0,0,491.6,,
usp000d6vk,6.6,16,37.226,138.779,,YMT011,Knet,,38.1502,140.2674,156.0030077,,0.00022621,0.000226823,0.000243494,203.4127544,203.6033775,212.4117096,46.23218282,46.33016785,49.34176609,20.19433705,20.38202493,23.14167914,189.6,,
usp000d6vk,6.6,16,37.226,138.779,,YMT012,Knet,,38.1074,140.0428,137.7042188,,0.000110837,0.000110929,0.000115445,118.6940229,118.8091406,124.0379851,23.78562318,23.80790731,24.83775233,7.617660054,7.649960099,8.352202807,293.8,,
usp000d6vk,6.6,16,37.226,138.779,,YMT013,Knet,,38.0621,139.7575,116.1707621,,0.000208145,0.000208407,0.000218857,168.8350323,168.9269739,174.4996207,41.64662072,41.74670412,44.63569837,35.53805052,36.99000915,47.25196521,307.4,,
usp000d6vk,6.6,16,37.226,138.779,,YMT014,Knet,,37.9207,139.8697,112.7981523,,0.000765638,0.000837603,0.001177276,341.4056747,346.6683562,406.844053,112.2663315,116.3103737,146.7138905,142.4886683,149.1789082,193.3527247,279.1,,
usp000d6vk,6.6,16,37.226,138.779,,YMT015,Knet,,37.9043,140.0996,128.3804229,,0.000414858,0.000414901,0.000420885,291.1410196,291.1893802,296.4961504,72.32206246,72.34622016,74.21567259,76.51072697,76.96402315,85.30485755,132.5,,
usp000d6vk,6.6,16,37.226,138.779,,AICH05,KIKnet,,34.8886,136.8763,321.232715,,4.97E-06,4.98E-06,5.28E-06,51.39205684,51.41376783,52.90776141,0,0,0,0,0,0,301.3245033,,
usp000d6vk,6.6,16,37.226,138.779,,AICH07,KIKnet,,35.2194,137.4039,264.813753,,4.68E-07,4.68E-07,4.73E-07,11.30340424,11.30577674,11.53738068,0,0,0,0,0,0,428.1007217,,
usp000d6vk,6.6,16,37.226,138.779,,AICH14,KIKnet,,35.1842,137.0474,285.3033143,,3.84E-06,3.85E-06,4.11E-06,33.66827775,33.71828611,35.55401247,0,0,0,0,0,0,394.9468085,,
usp000d6vk,6.6,16,37.226,138.779,,AICH16,KIKnet,,35.1543,137.535,265.6159327,,2.54E-06,2.68E-06,3.54E-06,22.59806223,22.63239638,23.87857036,0,0,0,0,0,0,363.6363636,,
usp000d6vk,6.6,16,37.226,138.779,,AICH18,KIKnet,,34.9635,137.2377,296.9894257,,6.39E-07,6.49E-07,7.63E-07,12.82071284,12.86302244,13.9054565,0,0,0,0,0,0,499.1071429,,
usp000d6vk,6.6,16,37.226,138.779,,AKTH01,KIKnet,,39.8147,140.579,317.3997094,,2.41E-06,2.41E-06,2.45E-06,27.95288506,27.95288542,27.95734117,0,0,0,0,0,0,475.0866551,,
usp000d6vk,6.6,16,37.226,138.779,,AKTH02,KIKnet,,39.6634,140.5721,302.4581275,,2.54E-06,2.55E-06,2.71E-06,27.59098161,27.60368293,28.44096708,0,0,0,0,0,0,620.4044118,,
usp000d6vk,6.6,16,37.226,138.779,,AKTH03,KIKnet,,39.2223,140.1283,241.1249076,,1.21E-05,1.21E-05,1.24E-05,75.41767564,75.41783272,75.57175585,0,0.155863002,0.311726003,0,0,0,320.2300674,,
usp000d6vk,6.6,16,37.226,138.779,,AKTH04,KIKnet,,39.174,140.7129,264.1959727,,7.38E-06,7.51E-06,8.95E-06,39.8560081,39.96259021,42.8793066,0,0.141012119,0.282024238,0,0,0,458.7304659,,
usp000d6vk,6.6,16,37.226,138.779,,AKTH05,KIKnet,,39.0718,140.3185,235.0364156,,1.61E-05,1.61E-05,1.66E-05,51.81333264,51.82052297,52.6837502,1.722401289,1.723940878,1.796782827,0,0,0,829.4623656,,
usp000d6vk,6.6,16,37.226,138.779,,AKTH06,KIKnet,,38.9801,140.4952,235.6340344,,1.02E-05,1.02E-05,1.14E-05,47.65429765,47.69268719,49.60588529,0.556622642,0.595034335,0.805360499,0,0,0,605.7692308,,
usp000d6vk,6.6,16,37.226,138.779,,AKTH08,KIKnet,,40.3188,140.2341,356.4683898,,1.81E-06,1.81E-06,1.82E-06,26.64526774,26.64586021,26.82354967,0,0,0,0,0,0,471.9794344,,
usp000d6vk,6.6,16,37.226,138.779,,AKTH12,KIKnet,,39.9155,140.2221,314.3332008,,3.57E-06,3.69E-06,4.61E-06,34.14441839,34.28748916,37.41648344,0,0,0,0,0,0,389.2405063,,
usp000d6vk,6.6,16,37.226,138.779,,AKTH15,KIKnet,,39.6884,140.4075,298.1246365,,1.57E-06,1.57E-06,1.67E-06,19.42882905,19.45770018,20.5172745,0,0,0,0,0,0,498.053903,,
usp000d6vk,6.6,16,37.226,138.779,,AKTH16,KIKnet,,39.545,140.3481,281.648781,,1.01E-05,1.01E-05,1.04E-05,74.70497241,74.7781856,78.08637836,0,0.038582532,0.077165064,0,0,0,375,,
usp000d6vk,6.6,16,37.226,138.779,,AKTH18,KIKnet,,39.3548,140.3869,264.8393543,,3.73E-06,3.75E-06,4.03E-06,35.74228377,35.74485866,36.17389393,0,0,0,0,0,0,777.7777778,,
usp000d6vk,6.6,16,37.226,138.779,,AKTH19,KIKnet,,39.1913,140.471,253.3890405,,2.02E-05,2.02E-05,2.06E-05,75.85234324,75.88204196,78.00485072,1.81339233,2.007610247,2.869066663,0,0,0,287.9581152,,
usp000d6vk,6.6,16,37.226,138.779,,CHBH04,KIKnet,,35.7966,140.0206,195.3670194,,8.04E-05,8.05E-05,8.27E-05,145.6578103,145.6600136,146.4611674,16.23999171,16.28543632,17.50120982,0,0,0,232.3000031,,
usp000d6vk,6.6,16,37.226,138.779,,CHBH10,KIKnet,,35.5458,140.2417,229.5669334,,5.86E-05,5.87E-05,6.27E-05,214.9423936,215.382618,229.1463219,4.971477277,5.00809968,5.612645871,0,0,0,267.7000122,,
usp000d6vk,6.6,16,37.226,138.779,,CHBH11,KIKnet,,35.2867,140.1529,250.6089939,,1.47E-05,1.47E-05,1.48E-05,106.0275424,106.0282569,106.4174971,0,0,0,0,0,0,477.1000061,,
usp000d6vk,6.6,16,37.226,138.779,,CHBH12,KIKnet,,35.3445,139.8554,233.5148189,,3.87E-05,3.87E-05,4.04E-05,163.7783901,163.7842383,165.1683068,1.524409604,1.54949886,1.827207476,0,0,0,187.8264012,,
usp000d6vk,6.6,16,37.226,138.779,,CHBH13,KIKnet,,35.8307,140.298,206.5620355,,6.89E-05,6.94E-05,7.77E-05,140.7507232,140.9062143,147.5240033,12.87928476,13.05574651,15.19503165,0,0,0,242.0640027,,
usp000d6vk,6.6,16,37.226,138.779,,CHBH14,KIKnet,,35.7342,140.823,246.0440996,,8.19E-06,8.52E-06,1.09E-05,43.41488055,43.48902111,46.02734797,0,0.115733321,0.231466642,0,0,0,200.7434944,,
usp000d6vk,6.6,16,37.226,138.779,,CHBH16,KIKnet,,35.1384,139.9649,258.4501931,,1.88E-05,1.91E-05,2.18E-05,87.67781097,87.7745553,91.89450937,0,0,0,0,0,0,361.4285714,,
usp000d6vk,6.6,16,37.226,138.779,,CHBH17,KIKnet,,35.1714,140.3398,269.8951684,,2.68E-06,2.69E-06,2.78E-06,38.68961117,38.691848,39.10788789,0,0,0,0,0,0,526.4150943,,
usp000d6vk,6.6,16,37.226,138.779,,FKSH01,KIKnet,,37.7565,139.715,91.03993331,,0.000486265,0.000493975,0.000580913,254.3133672,255.0709615,274.7154691,76.58573905,76.96551704,84.60196829,112.1371681,112.8057816,125.0695455,703.5726919,,
usp000d6vk,6.6,16,37.226,138.779,,FKSH03,KIKnet,,37.6078,139.7533,85.94497798,,0.000795574,0.000795947,0.000820288,403.6578669,403.6647305,406.0186916,111.9556464,111.9570914,112.5259142,138.1752028,138.3282675,144.8338728,349.7449254,,
usp000d6vk,6.6,16,37.226,138.779,,FKSH04,KIKnet,,37.4508,139.8126,85.61550625,,0.000603552,0.000641005,0.000856904,356.8851938,358.6193832,393.8446646,95.82013883,97.1844537,113.4115617,117.2802177,122.4221638,157.5296662,245.8849482,,
usp000d6vk,6.6,16,37.226,138.779,,FKSH05,KIKnet,,37.2544,139.8725,89.27262886,,0.000679236,0.000685335,0.000776565,336.521141,336.9258427,353.4347854,102.5666712,102.8675155,110.7290485,144.6483023,146.0014802,165.8332947,596.0264901,,
usp000d6vk,6.6,16,37.226,138.779,,FKSH06,KIKnet,,37.1723,139.5199,59.41756752,,0.002935065,0.003107509,0.004128295,645.1601915,655.557003,771.8467767,232.0326216,237.4481421,287.8711793,409.2215086,421.5272162,522.6358258,680.2325581,,
usp000d6vk,6.6,16,37.226,138.779,,FKSH07,KIKnet,,37.0103,139.3755,54.87297056,,0.002444971,0.002487836,0.002947667,667.3678093,670.4904028,735.1246612,225.2768017,226.5356607,250.3845221,403.8916875,405.5867533,442.6288809,828.9473684,,
usp000d6vk,6.6,16,37.226,138.779,,FKSH08,KIKnet,,37.2822,140.2144,119.4856631,,5.64E-05,5.64E-05,5.79E-05,103.3255849,103.3791416,106.7063667,12.57970914,12.59284351,13.16784419,0,0,0,562.5,,
usp000d6vk,6.6,16,37.226,138.779,,FKSH09,KIKnet,,37.353,140.4264,138.3868811,,3.64E-05,3.65E-05,3.98E-05,76.48110413,76.49898657,78.15296899,7.634821501,7.700181525,8.701328948,0,0,0,584.6235215,,
usp000d6vk,6.6,16,37.226,138.779,,FKSH10,KIKnet,,37.1616,140.093,109.746899,,0.000451302,0.000451383,0.00045991,314.5415258,314.5416886,314.8616796,82.34652268,82.35078477,83.18861274,78.39749689,78.41877972,80.24566073,487.0225269,,
usp000d6vk,6.6,16,37.226,138.779,,FKSH11,KIKnet,,37.2006,140.3386,130.9502696,,0.000126607,0.00012985,0.000158693,220.4614268,221.5440991,243.419819,25.64638775,27.09057149,35.81764772,0,0,0,239.8255814,,
usp000d6vk,6.6,16,37.226,138.779,,FKSH12,KIKnet,,37.2169,140.5703,151.3294269,,8.53E-05,8.82E-05,0.000110644,136.8828761,137.560393,151.196373,18.1645435,18.98855723,24.52160927,0,0,0,448.5488127,,
usp000d6vk,6.6,16,37.226,138.779,,FKSH13,KIKnet,,36.9951,140.5853,156.1513297,,3.11E-05,3.11E-05,3.23E-05,73.12042875,73.12728518,74.1286533,5.440495825,5.460129032,5.922745735,0,0,0,561.861521,,
usp000d6vk,6.6,16,37.226,138.779,,FKSH14,KIKnet,,37.0264,140.9702,189.1091677,,6.15E-05,6.52E-05,8.67E-05,146.3079136,147.3028168,164.3941673,10.06043078,12.3731885,19.57621052,0,0,0,236.5612648,,
usp000d6vk,6.6,16,37.226,138.779,,FKSH15,KIKnet,,37.6461,140.1735,122.1097594,,2.60E-05,2.63E-05,3.05E-05,62.9005403,63.07813441,67.80815247,5.273304178,5.512695051,7.119577051,0,0,0,803.5714286,,
usp000d6vk,6.6,16,37.226,138.779,,FKSH16,KIKnet,,37.7643,140.3766,143.4030378,,7.67E-06,7.67E-06,7.97E-06,48.4897093,48.49060445,48.78524305,0,0,0,0,0,0,531.6062176,,
usp000d6vk,6.6,16,37.226,138.779,,FKSH17,KIKnet,,37.6636,140.5974,158.5430287,,9.24E-06,9.53E-06,1.18E-05,48.05994224,48.65277174,56.22470344,0.194506768,0.205259114,0.270821459,0,0,0,543.956044,,
usp000d6vk,6.6,16,37.226,138.779,,FKSH18,KIKnet,,37.4894,140.538,149.6022192,,7.66E-05,7.85E-05,9.57E-05,112.5470276,113.1270769,124.5683237,16.89335349,17.35553278,21.33411621,0,0,0,307.1808511,,
usp000d6vk,6.6,16,37.226,138.779,,FKSH19,KIKnet,,37.4703,140.7227,165.549427,,7.21E-05,7.82E-05,0.000108282,111.1025606,112.0673488,126.7408518,15.71118446,17.2332603,24.31449913,0,0,0,338.0637813,,
usp000d6vk,6.6,16,37.226,138.779,,FKSH20,KIKnet,,37.4911,140.9871,189.0475782,,0.000257862,0.000257919,0.000263333,266.4595119,266.4670092,268.4658893,55.07499041,55.10331211,56.86978795,12.21480318,12.21560044,12.35516173,242.9286896,,
usp000d6vk,6.6,16,37.226,138.779,,FKSH21,KIKnet,,37.3421,139.3147,40.08786372,,0.011995224,0.012659584,0.016706764,1293.254411,1306.122995,1489.017238,500.8389776,508.0812433,593.5614653,900.9053821,915.1414526,1075.931287,364.9081589,,
usp000d6vk,6.6,16,37.226,138.779,,GIFH04,KIKnet,,36.2448,137.1983,188.8737648,,1.96E-06,1.98E-06,2.27E-06,23.56403131,23.61408003,25.15070109,0,0,0,0,0,0,379.6241031,,
usp000d6vk,6.6,16,37.226,138.779,,GIFH08,KIKnet,,35.8323,136.9621,235.1095668,,3.28E-07,3.30E-07,3.56E-07,10.39632943,10.40008222,10.67944671,0,0,0,0,0,0,384.8383824,,
usp000d6vk,6.6,16,37.226,138.779,,GIFH10,KIKnet,,36.3779,137.3716,167.5144207,,5.22E-06,5.50E-06,7.24E-06,33.02769525,33.28526204,37.41805962,0,0.225074307,0.450148614,0,0,0,385.4826388,,
usp000d6vk,6.6,16,37.226,138.779,,GIFH11,KIKnet,,35.4865,137.2464,247.449393,,4.42E-07,4.60E-07,5.91E-07,11.72229591,11.80316586,13.18247835,0,0,0,0,0,0,904.1519062,,
usp000d6vk,6.6,16,37.226,138.779,,GIFH13,KIKnet,,36.2743,136.8979,208.8585733,,5.33E-06,5.34E-06,5.62E-06,33.31899634,33.32186459,33.75906368,0.155036629,0.155042319,0.156370648,0,0,0,592.6199262,,
usp000d6vk,6.6,16,37.226,138.779,,GIFH14,KIKnet,,36.2493,137.5174,166.973929,,3.77E-06,3.77E-06,4.01E-06,29.646632,29.65538684,30.37592779,0,0,0,0,0,0,627.3764259,,
usp000d6vk,6.6,16,37.226,138.779,,GIFH15,KIKnet,,36.1338,137.2208,195.2467465,,1.65E-05,1.74E-05,2.29E-05,61.08805772,61.5024639,68.63003504,0,1.357126973,2.714253946,0,0,0,369.2307692,,
usp000d6vk,6.6,16,37.226,138.779,,GIFH16,KIKnet,,36.094,137.3438,190.1919171,,8.73E-07,8.73E-07,9.02E-07,17.28634154,17.2967152,17.89567509,0,0,0,0,0,0,830.7692308,,
usp000d6vk,6.6,16,37.226,138.779,,GIFH17,KIKnet,,35.9514,136.8732,232.1672967,,2.06E-06,2.06E-06,2.08E-06,24.17364944,24.17711799,24.58663826,0,0,0,0,0,0,429.394198,,
usp000d6vk,6.6,16,37.226,138.779,,GIFH18,KIKnet,,35.8991,137.1495,217.8826621,,7.40E-07,7.97E-07,1.09E-06,15.98580275,16.25825231,19.22218186,0,0,0,0,0,0,553.038674,,
usp000d6vk,6.6,16,37.226,138.779,,GIFH19,KIKnet,,36.0216,137.3906,193.0461287,,7.78E-07,7.87E-07,9.04E-07,15.58902226,15.62828611,16.73540478,0,0,0,0,0,0,744.1149748,,
usp000d6vk,6.6,16,37.226,138.779,,GIFH20,KIKnet,,35.7991,137.2531,219.7433811,,2.91E-06,2.92E-06,3.20E-06,29.034164,29.0453906,29.85287821,0,0,0,0,0,0,809.8591549,,
usp000d6vk,6.6,16,37.226,138.779,,GIFH22,KIKnet,,35.6682,137.1054,239.4674243,,1.91E-07,1.91E-07,2.04E-07,8.248803691,8.252227503,8.489917263,0,0,0,0,0,0,806.7124571,,
usp000d6vk,6.6,16,37.226,138.779,,GIFH24,KIKnet,,35.6401,137.3187,229.816511,,3.44E-07,3.47E-07,3.93E-07,10.05808575,10.08274711,10.78751681,0,0,0,0,0,0,907.5630252,,
usp000d6vk,6.6,16,37.226,138.779,,GIFH26,KIKnet,,35.4121,136.8764,274.5674096,,1.70E-06,1.70E-06,1.79E-06,21.12946483,21.12975986,21.2414173,0,0,0,0,0,0,425.1476207,,
usp000d6vk,6.6,16,37.226,138.779,,GIFH27,KIKnet,,35.4527,137.004,263.7315168,,3.22E-07,3.24E-07,3.54E-07,10.52120005,10.53550449,11.08432537,0,0,0,0,0,0,685.2791878,,
usp000d6vk,6.6,16,37.226,138.779,,GIFH28,KIKnet,,35.4571,137.4706,238.9782058,,9.05E-06,9.06E-06,9.32E-06,49.5786186,49.69924316,53.15978489,0,0,0,0,0,0,366.6666667,,
usp000d6vk,6.6,16,37.226,138.779,,GIFH29,KIKnet,,35.2953,136.4732,308.6505254,,3.80E-07,3.92E-07,4.91E-07,12.14320267,12.20039798,13.38037245,0,0,0,0,0,0,456.870229,,
usp000d6vk,6.6,16,37.226,138.779,,GNMH05,KIKnet,,36.3143,139.1847,112.0347895,,0.000170767,0.000172233,0.000194652,228.4423825,228.5156103,234.3002451,35.72289118,35.93345254,39.81778736,22.34218333,23.21895796,29.53931024,318.8999939,,
usp000d6vk,6.6,16,37.226,138.779,,GNMH06,KIKnet,,36.2441,139.5443,130.972229,,0.000692534,0.00069689,0.000774688,346.7949142,346.8509123,353.0833187,97.56959964,97.82904611,104.9491226,122.1582111,124.9811819,151.3945743,219.8360061,,
usp000d6vk,6.6,16,37.226,138.779,,GNMH07,KIKnet,,36.6998,139.2104,72.38141976,,0.000866677,0.000868218,0.000919925,380.1277214,380.1717109,385.9548935,116.0364042,116.0519549,117.9517278,188.8442669,188.8481602,190.0607841,647.4820144,,
usp000d6vk,6.6,16,37.226,138.779,,GNMH08,KIKnet,,36.4917,138.5244,93.81236856,,9.86E-05,9.86E-05,9.93E-05,204.9793935,204.9843981,206.4167785,18.35995679,18.39737041,19.57007013,0,0,0,338.6809269,,
usp000d6vk,6.6,16,37.226,138.779,,GNMH09,KIKnet,,36.6212,138.9068,74.4167441,,7.45E-05,7.60E-05,9.12E-05,131.258468,131.7859484,143.5652,15.90879209,16.80257354,22.20968104,0,0,0,623.8698011,,
usp000d6vk,6.6,16,37.226,138.779,,GNMH10,KIKnet,,36.2356,138.7291,117.7665092,,5.89E-05,5.93E-05,6.66E-05,89.63043745,89.69847239,93.19141274,13.833511,13.90078534,15.26673068,0,0,0,668.1034483,,
usp000d6vk,6.6,16,37.226,138.779,,GNMH11,KIKnet,,36.2862,138.921,111.6104819,,7.54E-05,7.55E-05,7.99E-05,142.300178,142.3058126,143.5721587,15.95174897,15.99068777,17.10594554,0,0,0,421.4046823,,
usp000d6vk,6.6,16,37.226,138.779,,GNMH12,KIKnet,,36.144,138.9129,127.3513366,,0.000161157,0.000161603,0.000173602,159.7613592,160.1787282,171.7343792,34.84171383,35.14128078,39.71999155,20.50802598,21.52813631,28.07653481,406.7603494,,
usp000d6vk,6.6,16,37.226,138.779,,IBRH07,KIKnet,,35.9521,140.3301,197.9938944,,0.001161896,0.001314132,0.001928085,695.8478411,714.0156723,874.0599234,238.2144494,253.833705,341.500266,56.77901988,131.5833319,250.2859694,150.301603,,
usp000d6vk,6.6,16,37.226,138.779,,IBRH08,KIKnet,,36.1188,140.5621,199.6498123,,9.69E-05,9.71E-05,0.000102712,181.310214,181.3544869,185.361509,19.27694276,19.29363996,20.09614886,0,0,0,266.1184026,,
usp000d6vk,6.6,16,37.226,138.779,,IBRH09,KIKnet,,36.439,140.3559,162.9869524,,0.000207173,0.000209247,0.000238639,219.1050961,219.5030389,232.7144337,49.84071688,50.19150417,56.11518819,0,9.27767083,18.55534166,378.6188184,,
usp000d6vk,6.6,16,37.226,138.779,,IBRH10,KIKnet,,36.1112,139.9889,164.8958998,,0.000228968,0.000252652,0.000359457,281.1587858,288.8139894,354.8689488,49.08902987,53.62178469,75.19869224,0,10.03359142,20.06718283,144.137931,,
usp000d6vk,6.6,16,37.226,138.779,,IBRH11,KIKnet,,36.3701,140.1401,152.7799208,,0.000182921,0.000182921,0.000183198,214.7262244,214.744813,217.570281,45.01262251,45.05466113,47.00050398,0,0,0,242.4870466,,
usp000d6vk,6.6,16,37.226,138.779,,IBRH12,KIKnet,,36.8369,140.3181,138.5451103,,0.000155639,0.000155949,0.000165774,153.4112879,153.4263281,155.5745635,29.59207638,29.60850553,30.594718,30.8908717,31.54409692,37.93033962,485.7142857,,
usp000d6vk,6.6,16,37.226,138.779,,IBRH13,KIKnet,,36.7955,140.575,161.5871001,,6.48E-05,6.57E-05,7.68E-05,112.426431,112.5709928,118.2741526,12.92071403,13.04281358,14.82330094,0,0,0,335.3687177,,
usp000d6vk,6.6,16,37.226,138.779,,IBRH14,KIKnet,,36.6922,140.5484,163.7657408,,8.43E-06,8.45E-06,9.02E-06,43.35517556,43.36971191,44.49250484,0,0.067314159,0.134628319,0,0,0,829.1213635,,
usp000d6vk,6.6,16,37.226,138.779,,IBRH15,KIKnet,,36.5566,140.3013,151.5701,,0.000125381,0.000125681,0.000134354,143.1073851,143.1109037,144.1144402,23.90287617,23.93458393,25.1661759,19.15188335,19.26205915,21.31931142,450.4040706,,
usp000d6vk,6.6,16,37.226,138.779,,IBRH16,KIKnet,,36.6405,140.3976,154.2363951,,0.000131056,0.00013372,0.00016028,164.3667412,165.3178295,183.0254311,27.32289542,27.97443411,33.97679611,0,9.023220593,18.04644119,626.146789,,
usp000d6vk,6.6,16,37.226,138.779,,IBRH17,KIKnet,,36.0864,140.314,185.9890939,,0.000432786,0.000433404,0.000456533,290.9796256,290.9906874,293.5279392,74.54853956,74.65284658,78.59781189,93.79134442,93.85721848,97.37306461,300.7739212,,
usp000d6vk,6.6,16,37.226,138.779,,IBRH18,KIKnet,,36.3631,140.6198,187.2262032,,5.58E-05,5.58E-05,5.61E-05,113.6571542,113.6581134,114.1250472,10.01650603,10.02473163,10.43075032,0,0,0,558.5597381,,
usp000d6vk,6.6,16,37.226,138.779,,ISKH02,KIKnet,,37.3644,137.0413,162.0109325,,1.83E-05,1.85E-05,2.09E-05,66.27434726,66.33681351,69.21495895,2.00615333,2.083664431,2.646697536,0,0,0,720.7627119,,
usp000d6vk,6.6,16,37.226,138.779,,ISKH04,KIKnet,,37.1902,136.7176,191.0408387,,2.26E-05,2.28E-05,2.60E-05,73.14593198,73.18730261,75.64776962,1.804944419,2.382524786,3.937709662,0,0,0,443.5483871,,
usp000d6vk,6.6,16,37.226,138.779,,ISKH05,KIKnet,,37.2224,136.9689,168.5525751,,0.000145464,0.000150651,0.000189844,170.139197,170.8783993,186.7554584,34.16028159,35.46569625,44.99936145,0,0,0,681.0217069,,
usp000d6vk,6.6,16,37.226,138.779,,ISKH06,KIKnet,,37.0533,136.8206,183.6427491,,2.43E-05,2.43E-05,2.51E-05,90.93216166,90.95209972,92.85641554,0.502943498,0.578797984,0.865250326,0,0,0,500,,
usp000d6vk,6.6,16,37.226,138.779,,ISKH07,KIKnet,,36.515,136.6357,216.7014998,,3.63E-06,3.66E-06,4.08E-06,37.96005187,37.97546006,39.05713901,0,0,0,0,0,0,440,,
usp000d6vk,6.6,16,37.226,138.779,,ISKH08,KIKnet,,36.738,136.7906,194.7079278,,1.36E-05,1.38E-05,1.64E-05,51.96940466,51.99657701,53.67735066,0.774233792,1.079456827,1.831646349,0,0,0,427.0408163,,
usp000d6vk,6.6,16,37.226,138.779,,ISKH09,KIKnet,,36.2667,136.7168,223.0692783,,8.04E-07,8.04E-07,8.10E-07,15.10028927,15.10036742,15.14894838,0,0,0,0,0,0,635.8051777,,
usp000d6vk,6.6,16,37.226,138.779,,IWTH15,KIKnet,,39.6148,141.0929,322.9162387,,2.39E-06,2.40E-06,2.62E-06,32.01587694,32.03419327,33.11731959,0,0,0,0,0,0,337.5,,
usp000d6vk,6.6,16,37.226,138.779,,IWTH16,KIKnet,,39.6436,140.9465,317.9953922,,2.38E-06,2.38E-06,2.46E-06,31.15242708,31.17348721,32.3191712,0,0,0,0,0,0,534.7116431,,
usp000d6vk,6.6,16,37.226,138.779,,IWTH19,KIKnet,,39.4559,141.0001,304.1080069,,1.06E-06,1.06E-06,1.09E-06,18.59982855,18.6002703,18.728461,0,0,0,0,0,0,482.0770931,,
usp000d6vk,6.6,16,37.226,138.779,,IWTH20,KIKnet,,39.3434,141.0473,297.0624638,,5.85E-06,5.90E-06,6.68E-06,61.44856142,61.4757867,63.30517153,0,0,0,0,0,0,288.75,,
